<?xml version="1.0" encoding="UTF-8"?>
<kml xmlns="http://earth.google.com/kml/2.1">
<Document>
  <name>Roche Garot (Cornod 39)</name>
  <open>0</open>
  <Style id = "VTStyle01">
    <PolyStyle>
      <color>ff0000ff</color>
    </PolyStyle>
    <LineStyle>
      <width>1</width>
      <color>ff0000ff</color>
    </LineStyle>
  </Style>
  <Placemark>
    <name>Roche Garot (Cornod 39)</name>
    <styleUrl>#VTStyle01</styleUrl>
    <MultiGeometry>
      <Polygon>
        <altitudeMode>clampToGround</altitudeMode>
        <extrude>1</extrude>
        <tessellate>1</tessellate>
        <outerBoundaryIs>
          <LinearRing>
            <coordinates>
              5.5283594,46.2997489
              5.5283284,46.2997938
              5.5283076,46.2997860
              5.5283260,46.2997387
              5.5283594,46.2997489
            </coordinates>
          </LinearRing>
        </outerBoundaryIs>
      </Polygon>
      <Polygon>
        <altitudeMode>clampToGround</altitudeMode>
        <extrude>1</extrude>
        <tessellate>1</tessellate>
        <outerBoundaryIs>
          <LinearRing>
            <coordinates>
              5.5283284,46.2997938
              5.5282655,46.2998611
              5.5282463,46.2998519
              5.5283076,46.2997860
              5.5283284,46.2997938
            </coordinates>
          </LinearRing>
        </outerBoundaryIs>
      </Polygon>
      <Polygon>
        <altitudeMode>clampToGround</altitudeMode>
        <extrude>1</extrude>
        <tessellate>1</tessellate>
        <outerBoundaryIs>
          <LinearRing>
            <coordinates>
              5.5282655,46.2998611
              5.5282216,46.2999182
              5.5281854,46.2999110
              5.5282463,46.2998519
              5.5282655,46.2998611
            </coordinates>
          </LinearRing>
        </outerBoundaryIs>
      </Polygon>
      <Polygon>
        <altitudeMode>clampToGround</altitudeMode>
        <extrude>1</extrude>
        <tessellate>1</tessellate>
        <outerBoundaryIs>
          <LinearRing>
            <coordinates>
              5.5282216,46.2999182
              5.5282027,46.2999544
              5.5281836,46.2999530
              5.5281854,46.2999110
              5.5282216,46.2999182
            </coordinates>
          </LinearRing>
        </outerBoundaryIs>
      </Polygon>
      <Polygon>
        <altitudeMode>clampToGround</altitudeMode>
        <extrude>1</extrude>
        <tessellate>1</tessellate>
        <outerBoundaryIs>
          <LinearRing>
            <coordinates>
              5.5282027,46.2999544
              5.5281954,46.3000007
              5.5281729,46.2999970
              5.5281836,46.2999530
              5.5282027,46.2999544
            </coordinates>
          </LinearRing>
        </outerBoundaryIs>
      </Polygon>
      <Polygon>
        <altitudeMode>clampToGround</altitudeMode>
        <extrude>1</extrude>
        <tessellate>1</tessellate>
        <outerBoundaryIs>
          <LinearRing>
            <coordinates>
              5.5281954,46.3000007
              5.5281774,46.3000313
              5.5281608,46.3000233
              5.5281729,46.2999970
              5.5281954,46.3000007
            </coordinates>
          </LinearRing>
        </outerBoundaryIs>
      </Polygon>
      <Polygon>
        <altitudeMode>clampToGround</altitudeMode>
        <extrude>1</extrude>
        <tessellate>1</tessellate>
        <outerBoundaryIs>
          <LinearRing>
            <coordinates>
              5.5281774,46.3000313
              5.5281175,46.3000592
              5.5281058,46.3000456
              5.5281608,46.3000233
              5.5281774,46.3000313
            </coordinates>
          </LinearRing>
        </outerBoundaryIs>
      </Polygon>
      <Polygon>
        <altitudeMode>clampToGround</altitudeMode>
        <extrude>1</extrude>
        <tessellate>1</tessellate>
        <outerBoundaryIs>
          <LinearRing>
            <coordinates>
              5.5281175,46.3000592
              5.5280799,46.3000684
              5.5280762,46.3000448
              5.5281058,46.3000456
              5.5281175,46.3000592
            </coordinates>
          </LinearRing>
        </outerBoundaryIs>
      </Polygon>
      <Polygon>
        <altitudeMode>clampToGround</altitudeMode>
        <extrude>1</extrude>
        <tessellate>1</tessellate>
        <outerBoundaryIs>
          <LinearRing>
            <coordinates>
              5.5280799,46.3000684
              5.5280448,46.3000678
              5.5280459,46.3000506
              5.5280762,46.3000448
              5.5280799,46.3000684
            </coordinates>
          </LinearRing>
        </outerBoundaryIs>
      </Polygon>
      <Polygon>
        <altitudeMode>clampToGround</altitudeMode>
        <extrude>1</extrude>
        <tessellate>1</tessellate>
        <outerBoundaryIs>
          <LinearRing>
            <coordinates>
              5.5280448,46.3000678
              5.5279908,46.3000804
              5.5280062,46.3000413
              5.5280459,46.3000506
              5.5280448,46.3000678
            </coordinates>
          </LinearRing>
        </outerBoundaryIs>
      </Polygon>
      <Polygon>
        <altitudeMode>clampToGround</altitudeMode>
        <extrude>1</extrude>
        <tessellate>1</tessellate>
        <outerBoundaryIs>
          <LinearRing>
            <coordinates>
              5.5279908,46.3000804
              5.5279521,46.3000563
              5.5279441,46.3000253
              5.5280062,46.3000413
              5.5279908,46.3000804
            </coordinates>
          </LinearRing>
        </outerBoundaryIs>
      </Polygon>
      <Polygon>
        <altitudeMode>clampToGround</altitudeMode>
        <extrude>1</extrude>
        <tessellate>1</tessellate>
        <outerBoundaryIs>
          <LinearRing>
            <coordinates>
              5.5279521,46.3000563
              5.5279065,46.3001053
              5.5278880,46.3000941
              5.5279441,46.3000253
              5.5279521,46.3000563
            </coordinates>
          </LinearRing>
        </outerBoundaryIs>
      </Polygon>
      <Polygon>
        <altitudeMode>clampToGround</altitudeMode>
        <extrude>1</extrude>
        <tessellate>1</tessellate>
        <outerBoundaryIs>
          <LinearRing>
            <coordinates>
              5.5279065,46.3001053
              5.5278422,46.3001281
              5.5278356,46.3001192
              5.5278880,46.3000941
              5.5279065,46.3001053
            </coordinates>
          </LinearRing>
        </outerBoundaryIs>
      </Polygon>
      <Polygon>
        <altitudeMode>clampToGround</altitudeMode>
        <extrude>1</extrude>
        <tessellate>1</tessellate>
        <outerBoundaryIs>
          <LinearRing>
            <coordinates>
              5.5278422,46.3001281
              5.5277584,46.3001686
              5.5277448,46.3001507
              5.5278356,46.3001192
              5.5278422,46.3001281
            </coordinates>
          </LinearRing>
        </outerBoundaryIs>
      </Polygon>
      <Polygon>
        <altitudeMode>clampToGround</altitudeMode>
        <extrude>1</extrude>
        <tessellate>1</tessellate>
        <outerBoundaryIs>
          <LinearRing>
            <coordinates>
              5.5277584,46.3001686
              5.5277537,46.3001709
              5.5277370,46.3001545
              5.5277448,46.3001507
              5.5277584,46.3001686
            </coordinates>
          </LinearRing>
        </outerBoundaryIs>
      </Polygon>
      <Polygon>
        <altitudeMode>clampToGround</altitudeMode>
        <extrude>1</extrude>
        <tessellate>1</tessellate>
        <outerBoundaryIs>
          <LinearRing>
            <coordinates>
              5.5278422,46.3001281
              5.5278238,46.3001852
              5.5277825,46.3001626
              5.5278356,46.3001192
              5.5278422,46.3001281
            </coordinates>
          </LinearRing>
        </outerBoundaryIs>
      </Polygon>
      <Polygon>
        <altitudeMode>clampToGround</altitudeMode>
        <extrude>1</extrude>
        <tessellate>1</tessellate>
        <outerBoundaryIs>
          <LinearRing>
            <coordinates>
              5.5278238,46.3001852
              5.5277772,46.3001962
              5.5277603,46.3001778
              5.5277825,46.3001626
              5.5278238,46.3001852
            </coordinates>
          </LinearRing>
        </outerBoundaryIs>
      </Polygon>
      <Polygon>
        <altitudeMode>clampToGround</altitudeMode>
        <extrude>1</extrude>
        <tessellate>1</tessellate>
        <outerBoundaryIs>
          <LinearRing>
            <coordinates>
              5.5277772,46.3001962
              5.5277295,46.3002116
              5.5277082,46.3001956
              5.5277603,46.3001778
              5.5277772,46.3001962
            </coordinates>
          </LinearRing>
        </outerBoundaryIs>
      </Polygon>
      <Polygon>
        <altitudeMode>clampToGround</altitudeMode>
        <extrude>1</extrude>
        <tessellate>1</tessellate>
        <outerBoundaryIs>
          <LinearRing>
            <coordinates>
              5.5277295,46.3002116
              5.5277117,46.3002449
              5.5276697,46.3002439
              5.5277082,46.3001956
              5.5277295,46.3002116
            </coordinates>
          </LinearRing>
        </outerBoundaryIs>
      </Polygon>
      <Polygon>
        <altitudeMode>clampToGround</altitudeMode>
        <extrude>1</extrude>
        <tessellate>1</tessellate>
        <outerBoundaryIs>
          <LinearRing>
            <coordinates>
              5.5277117,46.3002449
              5.5277162,46.3002807
              5.5277006,46.3002832
              5.5276697,46.3002439
              5.5277117,46.3002449
            </coordinates>
          </LinearRing>
        </outerBoundaryIs>
      </Polygon>
      <Polygon>
        <altitudeMode>clampToGround</altitudeMode>
        <extrude>1</extrude>
        <tessellate>1</tessellate>
        <outerBoundaryIs>
          <LinearRing>
            <coordinates>
              5.5277162,46.3002807
              5.5277122,46.3003053
              5.5277057,46.3003030
              5.5277006,46.3002832
              5.5277162,46.3002807
            </coordinates>
          </LinearRing>
        </outerBoundaryIs>
      </Polygon>
      <Polygon>
        <altitudeMode>clampToGround</altitudeMode>
        <extrude>1</extrude>
        <tessellate>1</tessellate>
        <outerBoundaryIs>
          <LinearRing>
            <coordinates>
              5.5277122,46.3003053
              5.5276916,46.3003173
              5.5276603,46.3003094
              5.5277057,46.3003030
              5.5277122,46.3003053
            </coordinates>
          </LinearRing>
        </outerBoundaryIs>
      </Polygon>
      <Polygon>
        <altitudeMode>clampToGround</altitudeMode>
        <extrude>1</extrude>
        <tessellate>1</tessellate>
        <outerBoundaryIs>
          <LinearRing>
            <coordinates>
              5.5276916,46.3003173
              5.5277273,46.3003650
              5.5277043,46.3003677
              5.5276603,46.3003094
              5.5276916,46.3003173
            </coordinates>
          </LinearRing>
        </outerBoundaryIs>
      </Polygon>
      <Polygon>
        <altitudeMode>clampToGround</altitudeMode>
        <extrude>1</extrude>
        <tessellate>1</tessellate>
        <outerBoundaryIs>
          <LinearRing>
            <coordinates>
              5.5277273,46.3003650
              5.5277110,46.3004362
              5.5276981,46.3004311
              5.5277043,46.3003677
              5.5277273,46.3003650
            </coordinates>
          </LinearRing>
        </outerBoundaryIs>
      </Polygon>
      <Polygon>
        <altitudeMode>clampToGround</altitudeMode>
        <extrude>1</extrude>
        <tessellate>1</tessellate>
        <outerBoundaryIs>
          <LinearRing>
            <coordinates>
              5.5277110,46.3004362
              5.5276737,46.3004692
              5.5276451,46.3004505
              5.5276981,46.3004311
              5.5277110,46.3004362
            </coordinates>
          </LinearRing>
        </outerBoundaryIs>
      </Polygon>
      <Polygon>
        <altitudeMode>clampToGround</altitudeMode>
        <extrude>1</extrude>
        <tessellate>1</tessellate>
        <outerBoundaryIs>
          <LinearRing>
            <coordinates>
              5.5276737,46.3004692
              5.5276578,46.3004775
              5.5276401,46.3004663
              5.5276451,46.3004505
              5.5276737,46.3004692
            </coordinates>
          </LinearRing>
        </outerBoundaryIs>
      </Polygon>
      <Polygon>
        <altitudeMode>clampToGround</altitudeMode>
        <extrude>1</extrude>
        <tessellate>1</tessellate>
        <outerBoundaryIs>
          <LinearRing>
            <coordinates>
              5.5276578,46.3004775
              5.5275924,46.3005098
              5.5275912,46.3004938
              5.5276401,46.3004663
              5.5276578,46.3004775
            </coordinates>
          </LinearRing>
        </outerBoundaryIs>
      </Polygon>
      <Polygon>
        <altitudeMode>clampToGround</altitudeMode>
        <extrude>1</extrude>
        <tessellate>1</tessellate>
        <outerBoundaryIs>
          <LinearRing>
            <coordinates>
              5.5275924,46.3005098
              5.5275513,46.3004907
              5.5275550,46.3004831
              5.5275912,46.3004938
              5.5275924,46.3005098
            </coordinates>
          </LinearRing>
        </outerBoundaryIs>
      </Polygon>
      <Polygon>
        <altitudeMode>clampToGround</altitudeMode>
        <extrude>1</extrude>
        <tessellate>1</tessellate>
        <outerBoundaryIs>
          <LinearRing>
            <coordinates>
              5.5275912,46.3004938
              5.5276381,46.3005011
              5.5276126,46.3005178
              5.5275924,46.3005098
              5.5275912,46.3004938
            </coordinates>
          </LinearRing>
        </outerBoundaryIs>
      </Polygon>
      <Polygon>
        <altitudeMode>clampToGround</altitudeMode>
        <extrude>1</extrude>
        <tessellate>1</tessellate>
        <outerBoundaryIs>
          <LinearRing>
            <coordinates>
              5.5276381,46.3005011
              5.5276316,46.3005235
              5.5276264,46.3005237
              5.5276126,46.3005178
              5.5276381,46.3005011
            </coordinates>
          </LinearRing>
        </outerBoundaryIs>
      </Polygon>
      <Polygon>
        <altitudeMode>clampToGround</altitudeMode>
        <extrude>1</extrude>
        <tessellate>1</tessellate>
        <outerBoundaryIs>
          <LinearRing>
            <coordinates>
              5.5276316,46.3005235
              5.5276366,46.3005505
              5.5276315,46.3005509
              5.5276264,46.3005237
              5.5276316,46.3005235
            </coordinates>
          </LinearRing>
        </outerBoundaryIs>
      </Polygon>
      <Polygon>
        <altitudeMode>clampToGround</altitudeMode>
        <extrude>1</extrude>
        <tessellate>1</tessellate>
        <outerBoundaryIs>
          <LinearRing>
            <coordinates>
              5.5275513,46.3004907
              5.5275050,46.3004874
              5.5274975,46.3004806
              5.5275550,46.3004831
              5.5275513,46.3004907
            </coordinates>
          </LinearRing>
        </outerBoundaryIs>
      </Polygon>
      <Polygon>
        <altitudeMode>clampToGround</altitudeMode>
        <extrude>1</extrude>
        <tessellate>1</tessellate>
        <outerBoundaryIs>
          <LinearRing>
            <coordinates>
              5.5275050,46.3004874
              5.5274821,46.3005553
              5.5274692,46.3005520
              5.5274975,46.3004806
              5.5275050,46.3004874
            </coordinates>
          </LinearRing>
        </outerBoundaryIs>
      </Polygon>
      <Polygon>
        <altitudeMode>clampToGround</altitudeMode>
        <extrude>1</extrude>
        <tessellate>1</tessellate>
        <outerBoundaryIs>
          <LinearRing>
            <coordinates>
              5.5274821,46.3005553
              5.5274357,46.3006237
              5.5274274,46.3006231
              5.5274692,46.3005520
              5.5274821,46.3005553
            </coordinates>
          </LinearRing>
        </outerBoundaryIs>
      </Polygon>
      <Polygon>
        <altitudeMode>clampToGround</altitudeMode>
        <extrude>1</extrude>
        <tessellate>1</tessellate>
        <outerBoundaryIs>
          <LinearRing>
            <coordinates>
              5.5274357,46.3006237
              5.5274425,46.3006523
              5.5274328,46.3006505
              5.5274274,46.3006231
              5.5274357,46.3006237
            </coordinates>
          </LinearRing>
        </outerBoundaryIs>
      </Polygon>
      <Polygon>
        <altitudeMode>clampToGround</altitudeMode>
        <extrude>1</extrude>
        <tessellate>1</tessellate>
        <outerBoundaryIs>
          <LinearRing>
            <coordinates>
              5.5274425,46.3006523
              5.5273950,46.3006866
              5.5273657,46.3006900
              5.5274328,46.3006505
              5.5274425,46.3006523
            </coordinates>
          </LinearRing>
        </outerBoundaryIs>
      </Polygon>
      <Polygon>
        <altitudeMode>clampToGround</altitudeMode>
        <extrude>1</extrude>
        <tessellate>1</tessellate>
        <outerBoundaryIs>
          <LinearRing>
            <coordinates>
              5.5273950,46.3006866
              5.5274174,46.3006864
              5.5274052,46.3007023
              5.5273657,46.3006900
              5.5273950,46.3006866
            </coordinates>
          </LinearRing>
        </outerBoundaryIs>
      </Polygon>
      <Polygon>
        <altitudeMode>clampToGround</altitudeMode>
        <extrude>1</extrude>
        <tessellate>1</tessellate>
        <outerBoundaryIs>
          <LinearRing>
            <coordinates>
              5.5273950,46.3006866
              5.5273722,46.3007095
              5.5273597,46.3007003
              5.5273657,46.3006900
              5.5273950,46.3006866
            </coordinates>
          </LinearRing>
        </outerBoundaryIs>
      </Polygon>
      <Polygon>
        <altitudeMode>clampToGround</altitudeMode>
        <extrude>1</extrude>
        <tessellate>1</tessellate>
        <outerBoundaryIs>
          <LinearRing>
            <coordinates>
              5.5273722,46.3007095
              5.5273127,46.3007377
              5.5273024,46.3007309
              5.5273597,46.3007003
              5.5273722,46.3007095
            </coordinates>
          </LinearRing>
        </outerBoundaryIs>
      </Polygon>
      <Polygon>
        <altitudeMode>clampToGround</altitudeMode>
        <extrude>1</extrude>
        <tessellate>1</tessellate>
        <outerBoundaryIs>
          <LinearRing>
            <coordinates>
              5.5273127,46.3007377
              5.5272977,46.3007663
              5.5272759,46.3007615
              5.5273024,46.3007309
              5.5273127,46.3007377
            </coordinates>
          </LinearRing>
        </outerBoundaryIs>
      </Polygon>
      <Polygon>
        <altitudeMode>clampToGround</altitudeMode>
        <extrude>1</extrude>
        <tessellate>1</tessellate>
        <outerBoundaryIs>
          <LinearRing>
            <coordinates>
              5.5272977,46.3007663
              5.5272828,46.3008024
              5.5272754,46.3007978
              5.5272759,46.3007615
              5.5272977,46.3007663
            </coordinates>
          </LinearRing>
        </outerBoundaryIs>
      </Polygon>
      <Polygon>
        <altitudeMode>clampToGround</altitudeMode>
        <extrude>1</extrude>
        <tessellate>1</tessellate>
        <outerBoundaryIs>
          <LinearRing>
            <coordinates>
              5.5272977,46.3007663
              5.5273047,46.3007717
              5.5272953,46.3007779
              5.5272759,46.3007615
              5.5272977,46.3007663
            </coordinates>
          </LinearRing>
        </outerBoundaryIs>
      </Polygon>
      <Polygon>
        <altitudeMode>clampToGround</altitudeMode>
        <extrude>1</extrude>
        <tessellate>1</tessellate>
        <outerBoundaryIs>
          <LinearRing>
            <coordinates>
              5.5272828,46.3008024
              5.5272315,46.3008150
              5.5272277,46.3008039
              5.5272754,46.3007978
              5.5272828,46.3008024
            </coordinates>
          </LinearRing>
        </outerBoundaryIs>
      </Polygon>
      <Polygon>
        <altitudeMode>clampToGround</altitudeMode>
        <extrude>1</extrude>
        <tessellate>1</tessellate>
        <outerBoundaryIs>
          <LinearRing>
            <coordinates>
              5.5272315,46.3008150
              5.5271763,46.3008189
              5.5271756,46.3008172
              5.5272277,46.3008039
              5.5272315,46.3008150
            </coordinates>
          </LinearRing>
        </outerBoundaryIs>
      </Polygon>
      <Polygon>
        <altitudeMode>clampToGround</altitudeMode>
        <extrude>1</extrude>
        <tessellate>1</tessellate>
        <outerBoundaryIs>
          <LinearRing>
            <coordinates>
              5.5272315,46.3008150
              5.5271654,46.3008131
              5.5271618,46.3008071
              5.5272277,46.3008039
              5.5272315,46.3008150
            </coordinates>
          </LinearRing>
        </outerBoundaryIs>
      </Polygon>
      <Polygon>
        <altitudeMode>clampToGround</altitudeMode>
        <extrude>1</extrude>
        <tessellate>1</tessellate>
        <outerBoundaryIs>
          <LinearRing>
            <coordinates>
              5.5271654,46.3008131
              5.5271342,46.3008322
              5.5271292,46.3008281
              5.5271618,46.3008071
              5.5271654,46.3008131
            </coordinates>
          </LinearRing>
        </outerBoundaryIs>
      </Polygon>
    </MultiGeometry>
  </Placemark>
</Document>
</kml>
