<?xml version="1.0" encoding="UTF-8"?>
<kml xmlns="http://earth.google.com/kml/2.0">
<Folder>
<Style id="ThSurveyLine"> <LineStyle> <color>ffffff00</color> <width>1</width> </LineStyle> </Style>
<Style id="ThSurveyLineSurf"> <LineStyle> <color>ffcccccc</color> <width>1</width> </LineStyle> </Style>
<Style id="ThEntranceIcon"> <IconStyle> <Icon> <href>https://therion.speleo.sk/downloads/KmlIconEntrance.png</href> </Icon> <hotSpot x="0.5" y="0" xunits="fraction" yunits="fraction" /> </IconStyle> </Style>
<Icon> <href>https://therion.speleo.sk/downloads/KmlIconModel.png</href> </Icon>
<name><![CDATA[GS63]]></name>
<description><![CDATA[Longueur  116 m<br>Dénivellation  48 m]]></description>
<Placemark>
<name>Visées de surface</name>
<styleUrl>#ThSurveyLineSurf</styleUrl>
<MultiGeometry>
<LineString><coordinates>
	5.78552694508295,45.36438302108092,1130.00000000000000 	5.78556448002239,45.36430025299352,1128.78999999999996 </coordinates></LineString>
</MultiGeometry>
</Placemark>
<Folder>
<name><![CDATA[GS63]]></name>
<Placemark>
<name>0</name>
<styleUrl>#ThSurveyLine</styleUrl>
<MultiGeometry>
<LineString><coordinates>
	5.78556448002239,45.36430025299352,1128.78999999999996 	5.78556008110256,45.36429825321481,1128.75999999999999 
</coordinates></LineString>
<LineString><coordinates>
	5.78556448002239,45.36430025299352,1128.78999999999996 	5.78557802735200,45.36431504824838,1128.79999999999995 
</coordinates></LineString>
<LineString><coordinates>
	5.78556448002239,45.36430025299352,1128.78999999999996 	5.78558331473955,45.36431373800587,1128.88000000000011 
</coordinates></LineString>
<LineString><coordinates>
	5.78556448002239,45.36430025299352,1128.78999999999996 	5.78559095681846,45.36431278539562,1128.92000000000007 
</coordinates></LineString>
<LineString><coordinates>
	5.78556448002239,45.36430025299352,1128.78999999999996 	5.78560472027714,45.36431504949533,1128.84999999999991 
</coordinates></LineString>
<LineString><coordinates>
	5.78556448002239,45.36430025299352,1128.78999999999996 	5.78562250922282,45.36431610118341,1128.76999999999998 
</coordinates></LineString>
<LineString><coordinates>
	5.78556448002239,45.36430025299352,1128.78999999999996 	5.78563328984299,45.36430743261609,1128.67000000000007 
</coordinates></LineString>
<LineString><coordinates>
	5.78556448002239,45.36430025299352,1128.78999999999996 	5.78560360510387,45.36430217140019,1128.42000000000007 
</coordinates></LineString>
<LineString><coordinates>
	5.78556448002239,45.36430025299352,1128.78999999999996 	5.78556640448200,45.36429785300165,1129.53999999999996 
</coordinates></LineString>
<LineString><coordinates>
	5.78556448002239,45.36430025299352,1128.78999999999996 	5.78556883755382,45.36429298272376,1123.97000000000003 
</coordinates></LineString>
<LineString><coordinates>
	5.78556448002239,45.36430025299352,1128.78999999999996 	5.78556850037242,45.36430228212221,1124.11999999999989 
</coordinates></LineString>
<LineString><coordinates>
	5.78556448002239,45.36430025299352,1128.78999999999996 	5.78556393980049,45.36430497652074,1127.55999999999995 
</coordinates></LineString>
<LineString><coordinates>
	5.78556448002239,45.36430025299352,1128.78999999999996 	5.78559810849896,45.36429395451209,1122.59999999999991 	5.78557867163160,45.36428888912736,1122.64000000000010 
</coordinates></LineString>
<LineString><coordinates>
	5.78559810849896,45.36429395451209,1122.59999999999991 	5.78557488079564,45.36429242416565,1122.71000000000004 
</coordinates></LineString>
<LineString><coordinates>
	5.78559810849896,45.36429395451209,1122.59999999999991 	5.78557734498474,45.36430330700904,1122.52999999999997 
</coordinates></LineString>
<LineString><coordinates>
	5.78559810849896,45.36429395451209,1122.59999999999991 	5.78557239942299,45.36431008267885,1122.43000000000006 
</coordinates></LineString>
<LineString><coordinates>
	5.78559810849896,45.36429395451209,1122.59999999999991 	5.78558232680086,45.36430904292385,1122.41000000000008 
</coordinates></LineString>
<LineString><coordinates>
	5.78559810849896,45.36429395451209,1122.59999999999991 	5.78559121433353,45.36430952429225,1122.38000000000011 
</coordinates></LineString>
<LineString><coordinates>
	5.78559810849896,45.36429395451209,1122.59999999999991 	5.78560364288861,45.36430486941946,1122.50999999999999 
</coordinates></LineString>
<LineString><coordinates>
	5.78559810849896,45.36429395451209,1122.59999999999991 	5.78560773030591,45.36429996091208,1122.55999999999995 
</coordinates></LineString>
<LineString><coordinates>
	5.78559810849896,45.36429395451209,1122.59999999999991 	5.78558670462802,45.36429780968842,1128.42000000000007 
</coordinates></LineString>
<LineString><coordinates>
	5.78559810849896,45.36429395451209,1122.59999999999991 	5.78559868521871,45.36429273938835,1122.60999999999990 
</coordinates></LineString>
<LineString><coordinates>
	5.78559810849896,45.36429395451209,1122.59999999999991 	5.78559764665809,45.36429345012852,1121.90000000000009 
</coordinates></LineString>
<LineString><coordinates>
	5.78559810849896,45.36429395451209,1122.59999999999991 	5.78559373452550,45.36430275659536,1121.83999999999992 
</coordinates></LineString>
<LineString><coordinates>
	5.78559810849896,45.36429395451209,1122.59999999999991 	5.78559341636177,45.36430890341270,1122.28999999999996 
</coordinates></LineString>
<LineString><coordinates>
	5.78559810849896,45.36429395451209,1122.59999999999991 	5.78559463045041,45.36430358745125,1122.93000000000006 
</coordinates></LineString>
<LineString><coordinates>
	5.78559810849896,45.36429395451209,1122.59999999999991 	5.78559217708345,45.36431242069461,1124.72000000000003 
</coordinates></LineString>
<LineString><coordinates>
	5.78559810849896,45.36429395451209,1122.59999999999991 	5.78559587823011,45.36431240384256,1129.33999999999992 
</coordinates></LineString>
<LineString><coordinates>
	5.78559810849896,45.36429395451209,1122.59999999999991 	5.78562523630580,45.36431147820458,1121.17000000000007 	5.78562863597406,45.36430707317536,1121.03999999999996 
</coordinates></LineString>
<LineString><coordinates>
	5.78562523630580,45.36431147820458,1121.17000000000007 	5.78562265081235,45.36430636679072,1121.24000000000001 
</coordinates></LineString>
<LineString><coordinates>
	5.78562523630580,45.36431147820458,1121.17000000000007 	5.78560573749868,45.36431010892320,1121.55999999999995 
</coordinates></LineString>
<LineString><coordinates>
	5.78562523630580,45.36431147820458,1121.17000000000007 	5.78562147707865,45.36431276000328,1121.33999999999992 
</coordinates></LineString>
<LineString><coordinates>
	5.78562523630580,45.36431147820458,1121.17000000000007 	5.78562517694192,45.36431355353435,1121.24000000000001 
</coordinates></LineString>
<LineString><coordinates>
	5.78562523630580,45.36431147820458,1121.17000000000007 	5.78562812223149,45.36431278499785,1121.15000000000009 
</coordinates></LineString>
<LineString><coordinates>
	5.78562523630580,45.36431147820458,1121.17000000000007 	5.78562822964694,45.36430692461445,1121.05999999999995 
</coordinates></LineString>
<LineString><coordinates>
	5.78562523630580,45.36431147820458,1121.17000000000007 	5.78562957225193,45.36430898128189,1122.58999999999992 
</coordinates></LineString>
<LineString><coordinates>
	5.78562523630580,45.36431147820458,1121.17000000000007 	5.78562862594517,45.36430455306745,1122.20000000000005 
</coordinates></LineString>
<LineString><coordinates>
	5.78562523630580,45.36431147820458,1121.17000000000007 	5.78562693998970,45.36430684453769,1121.56999999999994 
</coordinates></LineString>
<LineString><coordinates>
	5.78562523630580,45.36431147820458,1121.17000000000007 	5.78562636455373,45.36430724927742,1121.32999999999993 
</coordinates></LineString>
<LineString><coordinates>
	5.78562523630580,45.36431147820458,1121.17000000000007 	5.78562428358295,45.36431110191058,1120.98000000000002 
</coordinates></LineString>
<LineString><coordinates>
	5.78562523630580,45.36431147820458,1121.17000000000007 	5.78564207229287,45.36432115677613,1120.40000000000009 	5.78563599487674,45.36432558934719,1120.40000000000009 
</coordinates></LineString>
<LineString><coordinates>
	5.78564207229287,45.36432115677613,1120.40000000000009 	5.78563459523841,45.36433299042207,1120.22000000000003 
</coordinates></LineString>
<LineString><coordinates>
	5.78564207229287,45.36432115677613,1120.40000000000009 	5.78564811227160,45.36434922852346,1120.13000000000011 
</coordinates></LineString>
<LineString><coordinates>
	5.78564207229287,45.36432115677613,1120.40000000000009 	5.78565850277849,45.36434788276056,1119.90000000000009 
</coordinates></LineString>
<LineString><coordinates>
	5.78564207229287,45.36432115677613,1120.40000000000009 	5.78566995341909,45.36434105290724,1119.76999999999998 
</coordinates></LineString>
<LineString><coordinates>
	5.78564207229287,45.36432115677613,1120.40000000000009 	5.78564599549693,45.36432256321237,1120.35999999999990 
</coordinates></LineString>
<LineString><coordinates>
	5.78564207229287,45.36432115677613,1120.40000000000009 	5.78564810678942,45.36431726772201,1120.45000000000005 
</coordinates></LineString>
<LineString><coordinates>
	5.78564207229287,45.36432115677613,1120.40000000000009 	5.78564326480049,45.36432061416333,1121.03999999999996 
</coordinates></LineString>
<LineString><coordinates>
	5.78564207229287,45.36432115677613,1120.40000000000009 	5.78564704047195,45.36431780055137,1121.00000000000000 
</coordinates></LineString>
<LineString><coordinates>
	5.78564207229287,45.36432115677613,1120.40000000000009 	5.78564823193005,45.36430906514217,1121.80999999999995 
</coordinates></LineString>
<LineString><coordinates>
	5.78564207229287,45.36432115677613,1120.40000000000009 	5.78564523859052,45.36431361873271,1120.99000000000001 
</coordinates></LineString>
<LineString><coordinates>
	5.78564207229287,45.36432115677613,1120.40000000000009 	5.78564409518246,45.36431856908840,1120.33999999999992 
</coordinates></LineString>
<LineString><coordinates>
	5.78564207229287,45.36432115677613,1120.40000000000009 	5.78563824238975,45.36432280418137,1119.84999999999991 
</coordinates></LineString>
<LineString><coordinates>
	5.78564207229287,45.36432115677613,1120.40000000000009 	5.78563544976393,45.36432455123008,1119.96000000000004 
</coordinates></LineString>
<LineString><coordinates>
	5.78564207229287,45.36432115677613,1120.40000000000009 	5.78566098389270,45.36433922742766,1119.63000000000011 	5.78564270510729,45.36434649663219,1120.05999999999995 
</coordinates></LineString>
<LineString><coordinates>
	5.78566098389270,45.36433922742766,1119.63000000000011 	5.78565227269669,45.36435133682082,1120.08999999999992 
</coordinates></LineString>
<LineString><coordinates>
	5.78566098389270,45.36433922742766,1119.63000000000011 	5.78566931967428,45.36435172577304,1120.07999999999993 
</coordinates></LineString>
<LineString><coordinates>
	5.78566098389270,45.36433922742766,1119.63000000000011 	5.78567534670535,45.36434369584153,1119.93000000000006 
</coordinates></LineString>
<LineString><coordinates>
	5.78566098389270,45.36433922742766,1119.63000000000011 	5.78566798370910,45.36433661400576,1119.78999999999996 
</coordinates></LineString>
<LineString><coordinates>
	5.78566098389270,45.36433922742766,1119.63000000000011 	5.78565168536184,45.36432383267977,1119.97000000000003 
</coordinates></LineString>
<LineString><coordinates>
	5.78566098389270,45.36433922742766,1119.63000000000011 	5.78563925191014,45.36432272591367,1119.96000000000004 
</coordinates></LineString>
<LineString><coordinates>
	5.78566098389270,45.36433922742766,1119.63000000000011 	5.78563180261200,45.36433473747074,1119.82999999999993 
</coordinates></LineString>
<LineString><coordinates>
	5.78566098389270,45.36433922742766,1119.63000000000011 	5.78566162872170,45.36433926746581,1120.63000000000011 
</coordinates></LineString>
<LineString><coordinates>
	5.78566098389270,45.36433922742766,1119.63000000000011 	5.78564973139989,45.36434487150662,1120.48000000000002 
</coordinates></LineString>
<LineString><coordinates>
	5.78566098389270,45.36433922742766,1119.63000000000011 	5.78565096554367,45.36434459576056,1119.68000000000006 
</coordinates></LineString>
<LineString><coordinates>
	5.78566098389270,45.36433922742766,1119.63000000000011 	5.78566080218823,45.36433888138865,1119.24000000000001 
</coordinates></LineString>
<LineString><coordinates>
	5.78566098389270,45.36433922742766,1119.63000000000011 	5.78565323055148,45.36434847157824,1119.95000000000005 	5.78565166950333,45.36435156364947,1120.00000000000000 
</coordinates></LineString>
<LineString><coordinates>
	5.78565323055148,45.36434847157824,1119.95000000000005 	5.78565764079149,45.36435218107655,1120.05999999999995 
</coordinates></LineString>
<LineString><coordinates>
	5.78565323055148,45.36434847157824,1119.95000000000005 	5.78567585251987,45.36435184950357,1120.21000000000004 
</coordinates></LineString>
<LineString><coordinates>
	5.78565323055148,45.36434847157824,1119.95000000000005 	5.78567124179459,45.36434194336749,1120.11999999999989 
</coordinates></LineString>
<LineString><coordinates>
	5.78565323055148,45.36434847157824,1119.95000000000005 	5.78564987578257,45.36432451316566,1119.93000000000006 
</coordinates></LineString>
<LineString><coordinates>
	5.78565323055148,45.36434847157824,1119.95000000000005 	5.78563515061585,45.36432754546649,1119.84999999999991 
</coordinates></LineString>
<LineString><coordinates>
	5.78565323055148,45.36434847157824,1119.95000000000005 	5.78564248048423,45.36434669411039,1120.05999999999995 
</coordinates></LineString>
<LineString><coordinates>
	5.78565323055148,45.36434847157824,1119.95000000000005 	5.78565269803389,45.36434833280095,1120.42000000000007 
</coordinates></LineString>
<LineString><coordinates>
	5.78565323055148,45.36434847157824,1119.95000000000005 	5.78566314020700,45.36434977401230,1120.53999999999996 
</coordinates></LineString>
<LineString><coordinates>
	5.78565323055148,45.36434847157824,1119.95000000000005 	5.78566588734939,45.36435019124820,1119.88000000000011 
</coordinates></LineString>
<LineString><coordinates>
	5.78565323055148,45.36434847157824,1119.95000000000005 	5.78565833238720,45.36434924644532,1119.82999999999993 
</coordinates></LineString>
<LineString><coordinates>
	5.78565323055148,45.36434847157824,1119.95000000000005 	5.78565541870172,45.36434776174180,1119.15000000000009 
</coordinates></LineString>
<LineString><coordinates>
	5.78565323055148,45.36434847157824,1119.95000000000005 	5.78565196993325,45.36434775902901,1119.21000000000004 
</coordinates></LineString>
<LineString><coordinates>
	5.78565323055148,45.36434847157824,1119.95000000000005 	5.78564588633406,45.36434724034067,1120.22000000000003 
</coordinates></LineString>
<LineString><coordinates>
	5.78565323055148,45.36434847157824,1119.95000000000005 	5.78564990132680,45.36436151418273,1117.64000000000010 	5.78564846413505,45.36435721405816,1117.78999999999996 
</coordinates></LineString>
<LineString><coordinates>
	5.78564990132680,45.36436151418273,1117.64000000000010 	5.78563589678775,45.36436097938024,1118.19000000000005 
</coordinates></LineString>
<LineString><coordinates>
	5.78564990132680,45.36436151418273,1117.64000000000010 	5.78563461459280,45.36436504017973,1118.04999999999995 
</coordinates></LineString>
<LineString><coordinates>
	5.78564990132680,45.36436151418273,1117.64000000000010 	5.78564185909659,45.36436726949668,1117.88000000000011 
</coordinates></LineString>
<LineString><coordinates>
	5.78564990132680,45.36436151418273,1117.64000000000010 	5.78564865948585,45.36436665223324,1117.75999999999999 
</coordinates></LineString>
<LineString><coordinates>
	5.78564990132680,45.36436151418273,1117.64000000000010 	5.78565515198021,45.36436569871390,1117.66000000000008 
</coordinates></LineString>
<LineString><coordinates>
	5.78564990132680,45.36436151418273,1117.64000000000010 	5.78566401176446,45.36436600216465,1117.50000000000000 
</coordinates></LineString>
<LineString><coordinates>
	5.78564990132680,45.36436151418273,1117.64000000000010 	5.78564921486177,45.36436120727765,1118.25000000000000 
</coordinates></LineString>
<LineString><coordinates>
	5.78564990132680,45.36436151418273,1117.64000000000010 	5.78564798713174,45.36435743110332,1117.88000000000011 
</coordinates></LineString>
<LineString><coordinates>
	5.78564990132680,45.36436151418273,1117.64000000000010 	5.78564984324685,45.36436277912841,1117.50999999999999 
</coordinates></LineString>
<LineString><coordinates>
	5.78564990132680,45.36436151418273,1117.64000000000010 	5.78565234547445,45.36436735680752,1117.80999999999995 
</coordinates></LineString>
<LineString><coordinates>
	5.78564990132680,45.36436151418273,1117.64000000000010 	5.78565137140705,45.36436275068222,1118.10999999999990 
</coordinates></LineString>
<LineString><coordinates>
	5.78564990132680,45.36436151418273,1117.64000000000010 	5.78568419343605,45.36436110631133,1116.49000000000001 
</coordinates></LineString>
<LineString><coordinates>
	5.78564990132680,45.36436151418273,1117.64000000000010 	5.78568346405263,45.36436134292369,1116.52999999999997 	5.78568416952565,45.36435849724799,1116.59999999999991 
</coordinates></LineString>
<LineString><coordinates>
	5.78568346405263,45.36436134292369,1116.52999999999997 	5.78567588133151,45.36436022021088,1116.67000000000007 
</coordinates></LineString>
<LineString><coordinates>
	5.78568346405263,45.36436134292369,1116.52999999999997 	5.78567751282636,45.36436576571355,1116.66000000000008 
</coordinates></LineString>
<LineString><coordinates>
	5.78568346405263,45.36436134292369,1116.52999999999997 	5.78568696554592,45.36437232540596,1116.67000000000007 
</coordinates></LineString>
<LineString><coordinates>
	5.78568346405263,45.36436134292369,1116.52999999999997 	5.78571592478964,45.36437539205718,1116.50999999999999 
</coordinates></LineString>
<LineString><coordinates>
	5.78568346405263,45.36436134292369,1116.52999999999997 	5.78572935645902,45.36437471082171,1116.14000000000010 
</coordinates></LineString>
<LineString><coordinates>
	5.78568346405263,45.36436134292369,1116.52999999999997 	5.78572187110693,45.36436520762182,1116.17000000000007 
</coordinates></LineString>
<LineString><coordinates>
	5.78568346405263,45.36436134292369,1116.52999999999997 	5.78569938920042,45.36436190887841,1116.32999999999993 
</coordinates></LineString>
<LineString><coordinates>
	5.78568346405263,45.36436134292369,1116.52999999999997 	5.78569398716130,45.36435593545377,1116.20000000000005 
</coordinates></LineString>
<LineString><coordinates>
	5.78568346405263,45.36436134292369,1116.52999999999997 	5.78568361800004,45.36436151105138,1117.00000000000000 
</coordinates></LineString>
<LineString><coordinates>
	5.78568346405263,45.36436134292369,1116.52999999999997 	5.78568408089808,45.36437020823050,1117.75000000000000 
</coordinates></LineString>
<LineString><coordinates>
	5.78568346405263,45.36436134292369,1116.52999999999997 	5.78568242782992,45.36436943607663,1116.80999999999995 
</coordinates></LineString>
<LineString><coordinates>
	5.78568346405263,45.36436134292369,1116.52999999999997 	5.78568305131345,45.36436524628321,1116.46000000000004 
</coordinates></LineString>
<LineString><coordinates>
	5.78568346405263,45.36436134292369,1116.52999999999997 	5.78568430574752,45.36436100757220,1115.47000000000003 
</coordinates></LineString>
<LineString><coordinates>
	5.78568346405263,45.36436134292369,1116.52999999999997 	5.78568384775220,45.36435807203696,1116.52999999999997 
</coordinates></LineString>
<LineString><coordinates>
	5.78568346405263,45.36436134292369,1116.52999999999997 	5.78568381358340,45.36436194604594,1116.93000000000006 
</coordinates></LineString>
<LineString><coordinates>
	5.78568346405263,45.36436134292369,1116.52999999999997 	5.78572509653506,45.36436459742676,1114.75999999999999 	5.78570007951188,45.36435978463111,1114.94000000000005 
</coordinates></LineString>
<LineString><coordinates>
	5.78572509653506,45.36436459742676,1114.75999999999999 	5.78571312363459,45.36436480543649,1114.82999999999993 
</coordinates></LineString>
<LineString><coordinates>
	5.78572509653506,45.36436459742676,1114.75999999999999 	5.78571040530836,45.36437275890874,1114.76999999999998 
</coordinates></LineString>
<LineString><coordinates>
	5.78572509653506,45.36436459742676,1114.75999999999999 	5.78572463297115,45.36438290978695,1114.67000000000007 
</coordinates></LineString>
<LineString><coordinates>
	5.78572509653506,45.36436459742676,1114.75999999999999 	5.78573712345076,45.36437455880154,1114.51999999999998 
</coordinates></LineString>
<LineString><coordinates>
	5.78572509653506,45.36436459742676,1114.75999999999999 	5.78572461953203,45.36436481447222,1115.66000000000008 
</coordinates></LineString>
<LineString><coordinates>
	5.78572509653506,45.36436459742676,1114.75999999999999 	5.78572141076674,45.36435488967530,1108.59999999999991 
</coordinates></LineString>
<LineString><coordinates>
	5.78572509653506,45.36436459742676,1114.75999999999999 	5.78571954417002,45.36436502790353,1112.25000000000000 
</coordinates></LineString>
<LineString><coordinates>
	5.78572509653506,45.36436459742676,1114.75999999999999 	5.78571811165813,45.36437549260350,1113.86999999999989 
</coordinates></LineString>
<LineString><coordinates>
	5.78572509653506,45.36436459742676,1114.75999999999999 	5.78572367277617,45.36437839261831,1116.91000000000008 
</coordinates></LineString>
<LineString><coordinates>
	5.78572509653506,45.36436459742676,1114.75999999999999 	5.78572446558449,45.36436464634458,1115.10999999999990 
</coordinates></LineString>
<LineString><coordinates>
	5.78572509653506,45.36436459742676,1114.75999999999999 	5.78573279819548,45.36435256629755,1108.65000000000009 	5.78573448671068,45.36434865405798,1108.70000000000005 
</coordinates></LineString>
<LineString><coordinates>
	5.78573279819548,45.36435256629755,1108.65000000000009 	5.78571623206715,45.36434952915751,1108.97000000000003 
</coordinates></LineString>
<LineString><coordinates>
	5.78573279819548,45.36435256629755,1108.65000000000009 	5.78571884638950,45.36436301127529,1108.97000000000003 
</coordinates></LineString>
<LineString><coordinates>
	5.78573279819548,45.36435256629755,1108.65000000000009 	5.78573640816417,45.36436588119041,1108.82999999999993 
</coordinates></LineString>
<LineString><coordinates>
	5.78573279819548,45.36435256629755,1108.65000000000009 	5.78574474439992,45.36436037317008,1108.73000000000002 
</coordinates></LineString>
<LineString><coordinates>
	5.78573279819548,45.36435256629755,1108.65000000000009 	5.78577239753900,45.36436489154399,1108.60999999999990 
</coordinates></LineString>
<LineString><coordinates>
	5.78573279819548,45.36435256629755,1108.65000000000009 	5.78577568402962,45.36434338927620,1108.23000000000002 
</coordinates></LineString>
<LineString><coordinates>
	5.78573279819548,45.36435256629755,1108.65000000000009 	5.78574071422344,45.36434682076155,1108.69000000000005 
</coordinates></LineString>
<LineString><coordinates>
	5.78573279819548,45.36435256629755,1108.65000000000009 	5.78573387839135,45.36435212242299,1109.15000000000009 
</coordinates></LineString>
<LineString><coordinates>
	5.78573279819548,45.36435256629755,1108.65000000000009 	5.78573465559981,45.36435710393667,1110.52999999999997 
</coordinates></LineString>
<LineString><coordinates>
	5.78573279819548,45.36435256629755,1108.65000000000009 	5.78574018255172,45.36436387795943,1110.70000000000005 
</coordinates></LineString>
<LineString><coordinates>
	5.78573279819548,45.36435256629755,1108.65000000000009 	5.78573466050756,45.36436286558015,1109.01999999999998 
</coordinates></LineString>
<LineString><coordinates>
	5.78573279819548,45.36435256629755,1108.65000000000009 	5.78574110751868,45.36436407634115,1107.89000000000010 
</coordinates></LineString>
<LineString><coordinates>
	5.78573279819548,45.36435256629755,1108.65000000000009 	5.78573482855237,45.36435411948394,1107.65000000000009 
</coordinates></LineString>
<LineString><coordinates>
	5.78573279819548,45.36435256629755,1108.65000000000009 	5.78567867033799,45.36435190113318,1111.65000000000009 	5.78567885973700,45.36434738486786,1111.69000000000005 
</coordinates></LineString>
<LineString><coordinates>
	5.78567867033799,45.36435190113318,1111.65000000000009 	5.78567224595644,45.36435410981585,1111.74000000000001 
</coordinates></LineString>
<LineString><coordinates>
	5.78567867033799,45.36435190113318,1111.65000000000009 	5.78567859581525,45.36435469789129,1111.69000000000005 
</coordinates></LineString>
<LineString><coordinates>
	5.78567867033799,45.36435190113318,1111.65000000000009 	5.78568353880195,45.36434954298555,1111.63000000000011 
</coordinates></LineString>
<LineString><coordinates>
	5.78567867033799,45.36435190113318,1111.65000000000009 	5.78568310833712,45.36435578854157,1114.26999999999998 
</coordinates></LineString>
<LineString><coordinates>
	5.78567867033799,45.36435190113318,1111.65000000000009 	5.78567905532025,45.36434781986242,1112.09999999999991 
</coordinates></LineString>
<LineString><coordinates>
	5.78567867033799,45.36435190113318,1111.65000000000009 	5.78567874101356,45.36435153552721,1110.98000000000002 
</coordinates></LineString>
<LineString><coordinates>
	5.78567867033799,45.36435190113318,1111.65000000000009 	5.78567879139854,45.36435513288585,1111.49000000000001 
</coordinates></LineString>
<LineString><coordinates>
	5.78567867033799,45.36435190113318,1111.65000000000009 	5.78567869296570,45.36435532058057,1111.66000000000008 
</coordinates></LineString>
<LineString><coordinates>
	5.78567867033799,45.36435190113318,1111.65000000000009 	5.78566000679834,45.36435424843120,1112.10999999999990 	5.78565960431880,45.36435166871825,1112.09999999999991 
</coordinates></LineString>
<LineString><coordinates>
	5.78566000679834,45.36435424843120,1112.10999999999990 	5.78565949690725,45.36435752910142,1112.08999999999992 
</coordinates></LineString>
<LineString><coordinates>
	5.78566000679834,45.36435424843120,1112.10999999999990 	5.78566374573543,45.36435692959574,1112.03999999999996 
</coordinates></LineString>
<LineString><coordinates>
	5.78566000679834,45.36435424843120,1112.10999999999990 	5.78566046864032,45.36435475281444,1112.96000000000004 
</coordinates></LineString>
<LineString><coordinates>
	5.78566000679834,45.36435424843120,1112.10999999999990 	5.78566019596823,45.36435873534612,1112.18000000000006 
</coordinates></LineString>
<LineString><coordinates>
	5.78566000679834,45.36435424843120,1112.10999999999990 	5.78566023142135,45.36435405095297,1111.93000000000006 
</coordinates></LineString>
<LineString><coordinates>
	5.78566000679834,45.36435424843120,1112.10999999999990 	5.78565946425009,45.36435158954611,1112.11999999999989 
</coordinates></LineString>
<LineString><coordinates>
	5.78573279819548,45.36435256629755,1108.65000000000009 	5.78577094539092,45.36435230967102,1109.39000000000010 	5.78574864775607,45.36434773620807,1108.97000000000003 
</coordinates></LineString>
<LineString><coordinates>
	5.78577094539092,45.36435230967102,1109.39000000000010 	5.78572065853247,45.36436071002027,1108.97000000000003 
</coordinates></LineString>
<LineString><coordinates>
	5.78577094539092,45.36435230967102,1109.39000000000010 	5.78576615358463,45.36436825665454,1109.29999999999995 
</coordinates></LineString>
<LineString><coordinates>
	5.78577094539092,45.36435230967102,1109.39000000000010 	5.78577753353938,45.36436179239693,1109.26999999999998 
</coordinates></LineString>
<LineString><coordinates>
	5.78577094539092,45.36435230967102,1109.39000000000010 	5.78578369678122,45.36435627278444,1109.23000000000002 
</coordinates></LineString>
<LineString><coordinates>
	5.78577094539092,45.36435230967102,1109.39000000000010 	5.78576892506870,45.36435327659277,1110.10999999999990 
</coordinates></LineString>
<LineString><coordinates>
	5.78577094539092,45.36435230967102,1109.39000000000010 	5.78576340537362,45.36435964662607,1111.38000000000011 
</coordinates></LineString>
<LineString><coordinates>
	5.78577094539092,45.36435230967102,1109.39000000000010 	5.78575363172492,45.36436985770422,1112.45000000000005 
</coordinates></LineString>
<LineString><coordinates>
	5.78577094539092,45.36435230967102,1109.39000000000010 	5.78576215969980,45.36436721582893,1109.60999999999990 
</coordinates></LineString>
<LineString><coordinates>
	5.78577094539092,45.36435230967102,1109.39000000000010 	5.78576551644198,45.36436335431329,1107.77999999999997 
</coordinates></LineString>
<LineString><coordinates>
	5.78577094539092,45.36435230967102,1109.39000000000010 	5.78576895154516,45.36435426488792,1107.89000000000010 
</coordinates></LineString>
<LineString><coordinates>
	5.78577094539092,45.36435230967102,1109.39000000000010 	5.78579242012722,45.36436306908018,1108.50999999999999 	5.78579548520304,45.36436634267523,1108.45000000000005 
</coordinates></LineString>
<LineString><coordinates>
	5.78579242012722,45.36436306908018,1108.50999999999999 	5.78580400057669,45.36436280145746,1108.54999999999995 
</coordinates></LineString>
<LineString><coordinates>
	5.78579242012722,45.36436306908018,1108.50999999999999 	5.78580243846389,45.36435770073547,1108.39000000000010 
</coordinates></LineString>
<LineString><coordinates>
	5.78579242012722,45.36436306908018,1108.50999999999999 	5.78578956451473,45.36436031943492,1108.41000000000008 
</coordinates></LineString>
<LineString><coordinates>
	5.78579242012722,45.36436306908018,1108.50999999999999 	5.78579076065429,45.36436634884760,1108.50000000000000 
</coordinates></LineString>
<LineString><coordinates>
	5.78579242012722,45.36436306908018,1108.50999999999999 	5.78579295392592,45.36436239747287,1109.11999999999989 
</coordinates></LineString>
<LineString><coordinates>
	5.78579242012722,45.36436306908018,1108.50999999999999 	5.78579908556661,45.36435913110024,1108.68000000000006 
</coordinates></LineString>
<LineString><coordinates>
	5.78579242012722,45.36436306908018,1108.50999999999999 	5.78580152609513,45.36435840169376,1108.25999999999999 
</coordinates></LineString>
<LineString><coordinates>
	5.78579242012722,45.36436306908018,1108.50999999999999 	5.78579966975799,45.36436205685091,1107.65000000000009 
</coordinates></LineString>
<LineString><coordinates>
	5.78579242012722,45.36436306908018,1108.50999999999999 	5.78579550420457,45.36436319009513,1105.63000000000011 
</coordinates></LineString>
<LineString><coordinates>
	5.78579242012722,45.36436306908018,1108.50999999999999 	5.78579142320460,45.36436404668880,1104.76999999999998 
</coordinates></LineString>
<LineString><coordinates>
	5.78579242012722,45.36436306908018,1108.50999999999999 	5.78578877193194,45.36436506252912,1105.73000000000002 
</coordinates></LineString>
<LineString><coordinates>
	5.78579242012722,45.36436306908018,1108.50999999999999 	5.78578594770941,45.36436906282199,1108.36999999999989 
</coordinates></LineString>
<LineString><coordinates>
	5.78579242012722,45.36436306908018,1108.50999999999999 	5.78581709873776,45.36437799163480,1107.35999999999990 	5.78581057848844,45.36437876725216,1107.32999999999993 
</coordinates></LineString>
<LineString><coordinates>
	5.78581709873776,45.36437799163480,1107.35999999999990 	5.78581769404409,45.36439163028712,1107.81999999999994 
</coordinates></LineString>
<LineString><coordinates>
	5.78581709873776,45.36437799163480,1107.35999999999990 	5.78582420702052,45.36437771061580,1107.51999999999998 
</coordinates></LineString>
<LineString><coordinates>
	5.78581709873776,45.36437799163480,1107.35999999999990 	5.78580999921197,45.36438160314453,1107.46000000000004 
</coordinates></LineString>
<LineString><coordinates>
	5.78581709873776,45.36437799163480,1107.35999999999990 	5.78580499216987,45.36437406856298,1107.35999999999990 
</coordinates></LineString>
<LineString><coordinates>
	5.78581709873776,45.36437799163480,1107.35999999999990 	5.78580395873295,45.36437153776933,1107.24000000000001 
</coordinates></LineString>
<LineString><coordinates>
	5.78581709873776,45.36437799163480,1107.35999999999990 	5.78578842496164,45.36436283863942,1107.06999999999994 
</coordinates></LineString>
<LineString><coordinates>
	5.78581709873776,45.36437799163480,1107.35999999999990 	5.78581158949564,45.36436887542044,1107.35999999999990 
</coordinates></LineString>
<LineString><coordinates>
	5.78581709873776,45.36437799163480,1107.35999999999990 	5.78581642871132,45.36437615291859,1108.82999999999993 
</coordinates></LineString>
<LineString><coordinates>
	5.78581709873776,45.36437799163480,1107.35999999999990 	5.78582205410710,45.36438273924165,1106.39000000000010 
</coordinates></LineString>
<LineString><coordinates>
	5.78581709873776,45.36437799163480,1107.35999999999990 	5.78581541662972,45.36437785195574,1105.19000000000005 
</coordinates></LineString>
<LineString><coordinates>
	5.78581709873776,45.36437799163480,1107.35999999999990 	5.78579495652708,45.36436377274686,1105.54999999999995 
</coordinates></LineString>
<LineString><coordinates>
	5.78581709873776,45.36437799163480,1107.35999999999990 	5.78581927987272,45.36440834325002,1111.14000000000010 
</coordinates></LineString>
<LineString><coordinates>
	5.78577094539092,45.36435230967102,1109.39000000000010 	5.78575346326398,45.36434340146735,1108.54999999999995 	5.78575699914809,45.36434150675876,1108.52999999999997 
</coordinates></LineString>
<LineString><coordinates>
	5.78575346326398,45.36434340146735,1108.54999999999995 	5.78574362043940,45.36434416458726,1108.31999999999994 
</coordinates></LineString>
<LineString><coordinates>
	5.78575346326398,45.36434340146735,1108.54999999999995 	5.78574346264746,45.36434642761155,1108.32999999999993 
</coordinates></LineString>
<LineString><coordinates>
	5.78575346326398,45.36434340146735,1108.54999999999995 	5.78573171030987,45.36435787247604,1108.24000000000001 
</coordinates></LineString>
<LineString><coordinates>
	5.78575346326398,45.36434340146735,1108.54999999999995 	5.78574327922652,45.36436489831539,1108.42000000000007 
</coordinates></LineString>
<LineString><coordinates>
	5.78575346326398,45.36434340146735,1108.54999999999995 	5.78576500271378,45.36436906613540,1108.26999999999998 
</coordinates></LineString>
<LineString><coordinates>
	5.78575346326398,45.36434340146735,1108.54999999999995 	5.78577785061313,45.36434745278554,1108.65000000000009 
</coordinates></LineString>
<LineString><coordinates>
	5.78575346326398,45.36434340146735,1108.54999999999995 	5.78576036208070,45.36434259650272,1108.56999999999994 
</coordinates></LineString>
<LineString><coordinates>
	5.78575346326398,45.36434340146735,1108.54999999999995 	5.78575614357524,45.36434175315513,1108.53999999999996 
</coordinates></LineString>
<LineString><coordinates>
	5.78575346326398,45.36434340146735,1108.54999999999995 	5.78575305693632,45.36434325290694,1107.88000000000011 
</coordinates></LineString>
<LineString><coordinates>
	5.78575346326398,45.36434340146735,1108.54999999999995 	5.78575698655062,45.36434060741922,1108.27999999999997 
</coordinates></LineString>
<LineString><coordinates>
	5.78575346326398,45.36434340146735,1108.54999999999995 	5.78575601738518,45.36434176293871,1108.54999999999995 
</coordinates></LineString>
<LineString><coordinates>
	5.78575346326398,45.36434340146735,1108.54999999999995 	5.78575156913177,45.36434435860522,1108.60999999999990 
</coordinates></LineString>
<LineString><coordinates>
	5.78575346326398,45.36434340146735,1108.54999999999995 	5.78574803581009,45.36434463254573,1108.03999999999996 
</coordinates></LineString>
<LineString><coordinates>
	5.78575346326398,45.36434340146735,1108.54999999999995 	5.78575354781779,45.36434312481698,1107.85999999999990 
</coordinates></LineString>
<LineString><coordinates>
	5.78575346326398,45.36434340146735,1108.54999999999995 	5.78574110454532,45.36433049477565,1107.03999999999996 	5.78573128457315,45.36432567416200,1106.92000000000007 
</coordinates></LineString>
<LineString><coordinates>
	5.78574110454532,45.36433049477565,1107.03999999999996 	5.78573256525915,45.36433142692545,1107.02999999999997 
</coordinates></LineString>
<LineString><coordinates>
	5.78574110454532,45.36433049477565,1107.03999999999996 	5.78573010059843,45.36433855044671,1107.02999999999997 
</coordinates></LineString>
<LineString><coordinates>
	5.78574110454532,45.36433049477565,1107.03999999999996 	5.78574555386231,45.36433609190495,1107.09999999999991 
</coordinates></LineString>
<LineString><coordinates>
	5.78574110454532,45.36433049477565,1107.03999999999996 	5.78575274797599,45.36433472385650,1107.05999999999995 
</coordinates></LineString>
<LineString><coordinates>
	5.78574110454532,45.36433049477565,1107.03999999999996 	5.78575202371875,45.36433171893338,1106.91000000000008 
</coordinates></LineString>
<LineString><coordinates>
	5.78574110454532,45.36433049477565,1107.03999999999996 	5.78574634901168,45.36432972804287,1107.00000000000000 
</coordinates></LineString>
<LineString><coordinates>
	5.78574110454532,45.36433049477565,1107.03999999999996 	5.78573817313556,45.36433135227070,1107.94000000000005 
</coordinates></LineString>
<LineString><coordinates>
	5.78574110454532,45.36433049477565,1107.03999999999996 	5.78573604562851,45.36432917639511,1107.30999999999995 
</coordinates></LineString>
<LineString><coordinates>
	5.78574110454532,45.36433049477565,1107.03999999999996 	5.78573006559071,45.36432522848047,1106.92000000000007 
</coordinates></LineString>
<LineString><coordinates>
	5.78574110454532,45.36433049477565,1107.03999999999996 	5.78573768609891,45.36432904920866,1106.26999999999998 
</coordinates></LineString>
<LineString><coordinates>
	5.78574110454532,45.36433049477565,1107.03999999999996 	5.78574249648023,45.36432795600437,1105.35999999999990 
</coordinates></LineString>
<LineString><coordinates>
	5.78574110454532,45.36433049477565,1107.03999999999996 	5.78575176258548,45.36432840800909,1105.74000000000001 
</coordinates></LineString>
<LineString><coordinates>
	5.78574110454532,45.36433049477565,1107.03999999999996 	5.78574766386400,45.36433160679736,1107.15000000000009 
</coordinates></LineString>
<LineString><coordinates>
	5.78574110454532,45.36433049477565,1107.03999999999996 	5.78574552782148,45.36431709725120,1105.53999999999996 	5.78574997479179,45.36431531196905,1105.41000000000008 
</coordinates></LineString>
<LineString><coordinates>
	5.78574552782148,45.36431709725120,1105.53999999999996 	5.78574869026024,45.36431199035783,1105.48000000000002 
</coordinates></LineString>
<LineString><coordinates>
	5.78574552782148,45.36431709725120,1105.53999999999996 	5.78574092071414,45.36431376314609,1105.65000000000009 
</coordinates></LineString>
<LineString><coordinates>
	5.78574552782148,45.36431709725120,1105.53999999999996 	5.78573889398462,45.36431878198715,1105.52999999999997 
</coordinates></LineString>
<LineString><coordinates>
	5.78574552782148,45.36431709725120,1105.53999999999996 	5.78574125871107,45.36432165972394,1105.55999999999995 
</coordinates></LineString>
<LineString><coordinates>
	5.78574552782148,45.36431709725120,1105.53999999999996 	5.78574686530497,45.36432239545280,1105.40000000000009 
</coordinates></LineString>
<LineString><coordinates>
	5.78574552782148,45.36431709725120,1105.53999999999996 	5.78574465965171,45.36431644430788,1105.90000000000009 
</coordinates></LineString>
<LineString><coordinates>
	5.78574552782148,45.36431709725120,1105.53999999999996 	5.78573152435618,45.36432475525528,1106.60999999999990 
</coordinates></LineString>
<LineString><coordinates>
	5.78574552782148,45.36431709725120,1105.53999999999996 	5.78573682818190,45.36432191319344,1105.33999999999992 
</coordinates></LineString>
<LineString><coordinates>
	5.78574552782148,45.36431709725120,1105.53999999999996 	5.78574002584995,45.36432112508692,1105.56999999999994 
</coordinates></LineString>
<LineString><coordinates>
	5.78574552782148,45.36431709725120,1105.53999999999996 	5.78574651833682,45.36432017156283,1104.82999999999993 
</coordinates></LineString>
<LineString><coordinates>
	5.78574552782148,45.36431709725120,1105.53999999999996 	5.78575499335269,45.36431555309830,1099.74000000000001 
</coordinates></LineString>
<LineString><coordinates>
	5.78574552782148,45.36431709725120,1105.53999999999996 	5.78575397998860,45.36431806251892,1100.18000000000006 
</coordinates></LineString>
<LineString><coordinates>
	5.78574552782148,45.36431709725120,1105.53999999999996 	5.78575277488493,45.36431770579323,1101.65000000000009 	5.78576348886745,45.36429796848999,1101.34999999999991 
</coordinates></LineString>
<LineString><coordinates>
	5.78575277488493,45.36431770579323,1101.65000000000009 	5.78575468845378,45.36429558971680,1101.35999999999990 
</coordinates></LineString>
<LineString><coordinates>
	5.78575277488493,45.36431770579323,1101.65000000000009 	5.78574979930159,45.36426670849819,1101.05999999999995 
</coordinates></LineString>
<LineString><coordinates>
	5.78575277488493,45.36431770579323,1101.65000000000009 	5.78574641286876,45.36429821202358,1101.43000000000006 
</coordinates></LineString>
<LineString><coordinates>
	5.78575277488493,45.36431770579323,1101.65000000000009 	5.78574515950359,45.36431064353015,1101.64000000000010 
</coordinates></LineString>
<LineString><coordinates>
	5.78575277488493,45.36431770579323,1101.65000000000009 	5.78574524896554,45.36431612852318,1101.64000000000010 
</coordinates></LineString>
<LineString><coordinates>
	5.78575277488493,45.36431770579323,1101.65000000000009 	5.78574503181418,45.36432046687700,1101.74000000000001 
</coordinates></LineString>
<LineString><coordinates>
	5.78575277488493,45.36431770579323,1101.65000000000009 	5.78574938654232,45.36432382054905,1101.60999999999990 
</coordinates></LineString>
<LineString><coordinates>
	5.78575277488493,45.36431770579323,1101.65000000000009 	5.78575421720849,45.36431876438011,1101.67000000000007 
</coordinates></LineString>
<LineString><coordinates>
	5.78575277488493,45.36431770579323,1101.65000000000009 	5.78574579770700,45.36432373866700,1101.66000000000008 
</coordinates></LineString>
<LineString><coordinates>
	5.78575277488493,45.36431770579323,1101.65000000000009 	5.78574773475632,45.36432223801211,1102.49000000000001 
</coordinates></LineString>
<LineString><coordinates>
	5.78575277488493,45.36431770579323,1101.65000000000009 	5.78574671520193,45.36431979617327,1104.71000000000004 
</coordinates></LineString>
<LineString><coordinates>
	5.78575277488493,45.36431770579323,1101.65000000000009 	5.78575909100719,45.36430416151471,1104.51999999999998 
</coordinates></LineString>
<LineString><coordinates>
	5.78575277488493,45.36431770579323,1101.65000000000009 	5.78575618416237,45.36428061853569,1104.44000000000005 
</coordinates></LineString>
<LineString><coordinates>
	5.78575277488493,45.36431770579323,1101.65000000000009 	5.78576247806654,45.36429885714272,1101.52999999999997 
</coordinates></LineString>
<LineString><coordinates>
	5.78575277488493,45.36431770579323,1101.65000000000009 	5.78576816601289,45.36427473783508,1098.17000000000007 
</coordinates></LineString>
<LineString><coordinates>
	5.78575277488493,45.36431770579323,1101.65000000000009 	5.78576794651565,45.36427169377767,1095.91000000000008 
</coordinates></LineString>
<LineString><coordinates>
	5.78575277488493,45.36431770579323,1101.65000000000009 	5.78575371501125,45.36431718274653,1099.86999999999989 
</coordinates></LineString>
<LineString><coordinates>
	5.78575277488493,45.36431770579323,1101.65000000000009 	5.78574418371274,45.36432485414873,1100.97000000000003 
</coordinates></LineString>
<LineString><coordinates>
	5.78575277488493,45.36431770579323,1101.65000000000009 	5.78574589485808,45.36432436135621,1101.51999999999998 
</coordinates></LineString>
<LineString><coordinates>
	5.78575277488493,45.36431770579323,1101.65000000000009 	5.78574664839918,45.36426452193566,1100.72000000000003 	5.78572269260860,45.36426241784769,1100.61999999999989 
</coordinates></LineString>
<LineString><coordinates>
	5.78574664839918,45.36426452193566,1100.72000000000003 	5.78573480918019,45.36426886103805,1100.70000000000005 
</coordinates></LineString>
<LineString><coordinates>
	5.78574664839918,45.36426452193566,1100.72000000000003 	5.78573951449590,45.36428101062828,1100.85999999999990 
</coordinates></LineString>
<LineString><coordinates>
	5.78574664839918,45.36426452193566,1100.72000000000003 	5.78574715122176,45.36429230272313,1101.05999999999995 
</coordinates></LineString>
<LineString><coordinates>
	5.78574664839918,45.36426452193566,1100.72000000000003 	5.78575597085585,45.36428252573756,1100.94000000000005 
</coordinates></LineString>
<LineString><coordinates>
	5.78574664839918,45.36426452193566,1100.72000000000003 	5.78575421082167,45.36426960760876,1100.81999999999994 
</coordinates></LineString>
<LineString><coordinates>
	5.78574664839918,45.36426452193566,1100.72000000000003 	5.78572900272031,45.36428812782464,1110.35999999999990 
</coordinates></LineString>
<LineString><coordinates>
	5.78574664839918,45.36426452193566,1100.72000000000003 	5.78571630731076,45.36426651416679,1103.10999999999990 
</coordinates></LineString>
<LineString><coordinates>
	5.78574664839918,45.36426452193566,1100.72000000000003 	5.78572620201378,45.36425953484515,1100.36999999999989 
</coordinates></LineString>
<LineString><coordinates>
	5.78574664839918,45.36426452193566,1100.72000000000003 	5.78575863281054,45.36425702046836,1089.11999999999989 
</coordinates></LineString>
<LineString><coordinates>
	5.78574664839918,45.36426452193566,1100.72000000000003 	5.78575549428808,45.36426473642478,1098.45000000000005 
</coordinates></LineString>
<LineString><coordinates>
	5.78574664839918,45.36426452193566,1100.72000000000003 	5.78575427274392,45.36426591151135,1100.07999999999993 
</coordinates></LineString>
<LineString><coordinates>
	5.78574664839918,45.36426452193566,1100.72000000000003 	5.78575551948257,45.36426653510389,1100.80999999999995 
</coordinates></LineString>
<LineString><coordinates>
	5.78574664839918,45.36426452193566,1100.72000000000003 	5.78575335034161,45.36426409236169,1088.45000000000005 	5.78575721931026,45.36426433258782,1088.46000000000004 
</coordinates></LineString>
<LineString><coordinates>
	5.78575335034161,45.36426409236169,1088.45000000000005 	5.78576853135018,45.36424760999168,1088.59999999999991 
</coordinates></LineString>
<LineString><coordinates>
	5.78575335034161,45.36426409236169,1088.45000000000005 	5.78576210463827,45.36424243626715,1088.65000000000009 
</coordinates></LineString>
<LineString><coordinates>
	5.78575335034161,45.36426409236169,1088.45000000000005 	5.78574430290008,45.36424948843926,1088.64000000000010 
</coordinates></LineString>
<LineString><coordinates>
	5.78575335034161,45.36426409236169,1088.45000000000005 	5.78574156173108,45.36426302564372,1088.63000000000011 
</coordinates></LineString>
<LineString><coordinates>
	5.78575335034161,45.36426409236169,1088.45000000000005 	5.78574369414270,45.36427096316278,1088.56999999999994 
</coordinates></LineString>
<LineString><coordinates>
	5.78575335034161,45.36426409236169,1088.45000000000005 	5.78574879809859,45.36428812361676,1088.52999999999997 
</coordinates></LineString>
<LineString><coordinates>
	5.78575335034161,45.36426409236169,1088.45000000000005 	5.78576563281537,45.36429861255276,1088.35999999999990 
</coordinates></LineString>
<LineString><coordinates>
	5.78575335034161,45.36426409236169,1088.45000000000005 	5.78577313887607,45.36428614642779,1088.40000000000009 
</coordinates></LineString>
<LineString><coordinates>
	5.78575335034161,45.36426409236169,1088.45000000000005 	5.78576748211100,45.36427281016280,1088.50999999999999 
</coordinates></LineString>
<LineString><coordinates>
	5.78575335034161,45.36426409236169,1088.45000000000005 	5.78575576182802,45.36426399542923,1088.45000000000005 
</coordinates></LineString>
<LineString><coordinates>
	5.78575335034161,45.36426409236169,1088.45000000000005 	5.78575468547841,45.36426200815199,1096.50000000000000 
</coordinates></LineString>
<LineString><coordinates>
	5.78575335034161,45.36426409236169,1088.45000000000005 	5.78575593287024,45.36423562220707,1092.96000000000004 
</coordinates></LineString>
<LineString><coordinates>
	5.78575335034161,45.36426409236169,1088.45000000000005 	5.78575323099555,45.36424204386709,1090.05999999999995 
</coordinates></LineString>
<LineString><coordinates>
	5.78575335034161,45.36426409236169,1088.45000000000005 	5.78575195628164,45.36425024554249,1087.99000000000001 
</coordinates></LineString>
<LineString><coordinates>
	5.78575335034161,45.36426409236169,1088.45000000000005 	5.78575277618855,45.36426368671803,1086.99000000000001 
</coordinates></LineString>
<LineString><coordinates>
	5.78575335034161,45.36426409236169,1088.45000000000005 	5.78575821217083,45.36427478931057,1087.21000000000004 
</coordinates></LineString>
<LineString><coordinates>
	5.78575335034161,45.36426409236169,1088.45000000000005 	5.78576957246137,45.36429848717230,1088.23000000000002 
</coordinates></LineString>
<LineString><coordinates>
	5.78575335034161,45.36426409236169,1088.45000000000005 	5.78576531104174,45.36429818734199,1088.81999999999994 	5.78577023244981,45.36429780578151,1088.83999999999992 
</coordinates></LineString>
<LineString><coordinates>
	5.78576531104174,45.36429818734199,1088.81999999999994 	5.78577179861482,45.36429147217349,1088.81999999999994 
</coordinates></LineString>
<LineString><coordinates>
	5.78576531104174,45.36429818734199,1088.81999999999994 	5.78576238668841,45.36426798338049,1088.54999999999995 
</coordinates></LineString>
<LineString><coordinates>
	5.78576531104174,45.36429818734199,1088.81999999999994 	5.78573972846288,45.36425209388834,1089.06999999999994 
</coordinates></LineString>
<LineString><coordinates>
	5.78576531104174,45.36429818734199,1088.81999999999994 	5.78574326881040,45.36427396718260,1088.94000000000005 
</coordinates></LineString>
<LineString><coordinates>
	5.78576531104174,45.36429818734199,1088.81999999999994 	5.78574572790401,45.36428809155582,1088.88000000000011 
</coordinates></LineString>
<LineString><coordinates>
	5.78576531104174,45.36429818734199,1088.81999999999994 	5.78575605882031,45.36429782429362,1088.88000000000011 
</coordinates></LineString>
<LineString><coordinates>
	5.78576531104174,45.36429818734199,1088.81999999999994 	5.78576888727782,45.36429736988401,1088.01999999999998 
</coordinates></LineString>
<LineString><coordinates>
	5.78576531104174,45.36429818734199,1088.81999999999994 	5.78575698634893,45.36429640190737,1088.23000000000002 
</coordinates></LineString>
<LineString><coordinates>
	5.78576531104174,45.36429818734199,1088.81999999999994 	5.78575535975830,45.36429661804962,1088.97000000000003 
</coordinates></LineString>
<LineString><coordinates>
	5.78576531104174,45.36429818734199,1088.81999999999994 	5.78575491051340,45.36429701300636,1089.64000000000010 
</coordinates></LineString>
<LineString><coordinates>
	5.78575335034161,45.36426409236169,1088.45000000000005 	5.78574577554222,45.36424910416964,1090.01999999999998 	5.78575523743566,45.36424098799030,1090.08999999999992 
</coordinates></LineString>
<LineString><coordinates>
	5.78574577554222,45.36424910416964,1090.01999999999998 	5.78577029437958,45.36424090099420,1090.04999999999995 
</coordinates></LineString>
<LineString><coordinates>
	5.78574577554222,45.36424910416964,1090.01999999999998 	5.78577909222247,45.36424490053462,1090.25000000000000 
</coordinates></LineString>
<LineString><coordinates>
	5.78574577554222,45.36424910416964,1090.01999999999998 	5.78576275672119,45.36425562035922,1090.06999999999994 
</coordinates></LineString>
<LineString><coordinates>
	5.78574577554222,45.36424910416964,1090.01999999999998 	5.78575568111869,45.36426184092774,1090.06999999999994 
</coordinates></LineString>
<LineString><coordinates>
	5.78574577554222,45.36424910416964,1090.01999999999998 	5.78576654518376,45.36429791159481,1089.75999999999999 
</coordinates></LineString>
<LineString><coordinates>
	5.78574577554222,45.36424910416964,1090.01999999999998 	5.78574220890296,45.36427044809287,1089.79999999999995 
</coordinates></LineString>
<LineString><coordinates>
	5.78574577554222,45.36424910416964,1090.01999999999998 	5.78574450851709,45.36425244354122,1090.02999999999997 
</coordinates></LineString>
<LineString><coordinates>
	5.78574577554222,45.36424910416964,1090.01999999999998 	5.78574633581637,45.36424942085775,1089.25000000000000 
</coordinates></LineString>
<LineString><coordinates>
	5.78574577554222,45.36424910416964,1090.01999999999998 	5.78575190845619,45.36424502741632,1089.35999999999990 
</coordinates></LineString>
<LineString><coordinates>
	5.78574577554222,45.36424910416964,1090.01999999999998 	5.78575418499940,45.36424160977608,1090.33999999999992 
</coordinates></LineString>
<LineString><coordinates>
	5.78574577554222,45.36424910416964,1090.01999999999998 	5.78575279562972,45.36424252777940,1091.56999999999994 
</coordinates></LineString>
<LineString><coordinates>
	5.78574577554222,45.36424910416964,1090.01999999999998 	5.78575080797586,45.36424943425511,1096.72000000000003 
</coordinates></LineString>
<LineString><coordinates>
	5.78574577554222,45.36424910416964,1090.01999999999998 	5.78575254216045,45.36428756324253,1096.45000000000005 
</coordinates></LineString>
<LineString><coordinates>
	5.78574577554222,45.36424910416964,1090.01999999999998 	5.78577563705479,45.36424894974485,1089.24000000000001 	5.78577621120783,45.36424935538840,1088.39000000000010 
</coordinates></LineString>
<LineString><coordinates>
	5.78577563705479,45.36424894974485,1089.24000000000001 	5.78577573164353,45.36425119320185,1089.01999999999998 
</coordinates></LineString>
<LineString><coordinates>
	5.78577563705479,45.36424894974485,1089.24000000000001 	5.78577529884027,45.36425005634636,1089.46000000000004 
</coordinates></LineString>
<LineString><coordinates>
	5.78577563705479,45.36424894974485,1089.24000000000001 	5.78577271952850,45.36424989619600,1090.00999999999999 
</coordinates></LineString>
<LineString><coordinates>
	5.78577563705479,45.36424894974485,1089.24000000000001 	5.78577443579627,45.36424616186746,1088.55999999999995 
</coordinates></LineString>
<LineString><coordinates>
	5.78577563705479,45.36424894974485,1089.24000000000001 	5.78577647874745,45.36424861439284,1088.31999999999994 
</coordinates></LineString>
<LineString><coordinates>
	5.78577563705479,45.36424894974485,1089.24000000000001 	5.78577426540777,45.36424752555216,1089.26999999999998 
</coordinates></LineString>
<LineString><coordinates>
	5.78577563705479,45.36424894974485,1089.24000000000001 	5.78576795975987,45.36424558358019,1089.24000000000001 
</coordinates></LineString>
<LineString><coordinates>
	5.78577563705479,45.36424894974485,1089.24000000000001 	5.78575900284443,45.36424465744706,1089.21000000000004 
</coordinates></LineString>
<LineString><coordinates>
	5.78577563705479,45.36424894974485,1089.24000000000001 	5.78577009345541,45.36425271071458,1089.24000000000001 
</coordinates></LineString>
<LineString><coordinates>
	5.78577563705479,45.36424894974485,1089.24000000000001 	5.78577364064988,45.36425252572941,1089.25999999999999 
</coordinates></LineString>
<LineString><coordinates>
	5.78577563705479,45.36424894974485,1089.24000000000001 	5.78577539599142,45.36425067903551,1089.26999999999998 
</coordinates></LineString>
<LineString><coordinates>
	5.78577563705479,45.36424894974485,1089.24000000000001 	5.78578679642033,45.36423124863601,1085.50999999999999 	5.78578966846601,45.36423246646956,1085.52999999999997 
</coordinates></LineString>
<LineString><coordinates>
	5.78578679642033,45.36423124863601,1085.50999999999999 	5.78579181774817,45.36422086581761,1085.81999999999994 
</coordinates></LineString>
<LineString><coordinates>
	5.78578679642033,45.36423124863601,1085.50999999999999 	5.78577699055722,45.36421751380205,1085.94000000000005 
</coordinates></LineString>
<LineString><coordinates>
	5.78578679642033,45.36423124863601,1085.50999999999999 	5.78577924659843,45.36422706230446,1085.67000000000007 
</coordinates></LineString>
<LineString><coordinates>
	5.78578679642033,45.36423124863601,1085.50999999999999 	5.78577404740686,45.36423466793193,1085.50999999999999 
</coordinates></LineString>
<LineString><coordinates>
	5.78578679642033,45.36423124863601,1085.50999999999999 	5.78578202875166,45.36424080150319,1085.77999999999997 
</coordinates></LineString>
<LineString><coordinates>
	5.78578679642033,45.36423124863601,1085.50999999999999 	5.78578966846601,45.36423246646956,1085.55999999999995 
</coordinates></LineString>
<LineString><coordinates>
	5.78578679642033,45.36423124863601,1085.50999999999999 	5.78578509040262,45.36422849989322,1087.94000000000005 
</coordinates></LineString>
<LineString><coordinates>
	5.78578679642033,45.36423124863601,1085.50999999999999 	5.78578070151740,45.36422902023064,1086.34999999999991 
</coordinates></LineString>
<LineString><coordinates>
	5.78578679642033,45.36423124863601,1085.50999999999999 	5.78577959484793,45.36422847581034,1085.85999999999990 
</coordinates></LineString>
<LineString><coordinates>
	5.78578679642033,45.36423124863601,1085.50999999999999 	5.78578644560844,45.36423145589804,1085.30999999999995 
</coordinates></LineString>
<LineString><coordinates>
	5.78578679642033,45.36423124863601,1085.50999999999999 	5.78579066410564,45.36423229924505,1085.64000000000010 
</coordinates></LineString>
<LineString><coordinates>
	5.78578679642033,45.36423124863601,1085.50999999999999 	5.78579091776626,45.36423146929390,1086.19000000000005 
</coordinates></LineString>
<LineString><coordinates>
	5.78578679642033,45.36423124863601,1085.50999999999999 	5.78578958924960,45.36422049840552,1086.24000000000001 	5.78578868072589,45.36421876821177,1086.26999999999998 
</coordinates></LineString>
<LineString><coordinates>
	5.78578958924960,45.36422049840552,1086.24000000000001 	5.78578329876438,45.36421783500587,1086.23000000000002 
</coordinates></LineString>
<LineString><coordinates>
	5.78578958924960,45.36422049840552,1086.24000000000001 	5.78577779552327,45.36422267322644,1086.28999999999996 
</coordinates></LineString>
<LineString><coordinates>
	5.78578958924960,45.36422049840552,1086.24000000000001 	5.78577798854422,45.36422472898867,1086.32999999999993 
</coordinates></LineString>
<LineString><coordinates>
	5.78578958924960,45.36422049840552,1086.24000000000001 	5.78578062336974,45.36422524496136,1086.05999999999995 
</coordinates></LineString>
<LineString><coordinates>
	5.78578958924960,45.36422049840552,1086.24000000000001 	5.78579145284499,45.36422998730278,1085.85999999999990 
</coordinates></LineString>
<LineString><coordinates>
	5.78578958924960,45.36422049840552,1086.24000000000001 	5.78579045741818,45.36422115134855,1085.58999999999992 
</coordinates></LineString>
<LineString><coordinates>
	5.78578958924960,45.36422049840552,1086.24000000000001 	5.78578100578266,45.36422278445876,1085.67000000000007 
</coordinates></LineString>
<LineString><coordinates>
	5.78578958924960,45.36422049840552,1086.24000000000001 	5.78576560806637,45.36422559882531,1086.60999999999990 
</coordinates></LineString>
<LineString><coordinates>
	5.78578958924960,45.36422049840552,1086.24000000000001 	5.78576494188840,45.36422132895671,1088.14000000000010 
</coordinates></LineString>
<LineString><coordinates>
	5.78578958924960,45.36422049840552,1086.24000000000001 	5.78578283179800,45.36422057215886,1087.41000000000008 
</coordinates></LineString>
<LineString><coordinates>
	5.78578958924960,45.36422049840552,1086.24000000000001 	5.78578872108103,45.36421984546247,1086.74000000000001 
</coordinates></LineString>
<LineString><coordinates>
	5.78578958924960,45.36422049840552,1086.24000000000001 	5.78577518973661,45.36422152478092,1086.92000000000007 	5.78577020662978,45.36421659925949,1086.89000000000010 
</coordinates></LineString>
<LineString><coordinates>
	5.78577518973661,45.36422152478092,1086.92000000000007 	5.78576231837894,45.36422252270714,1087.00000000000000 
</coordinates></LineString>
<LineString><coordinates>
	5.78577518973661,45.36422152478092,1086.92000000000007 	5.78577348862942,45.36422453768105,1086.97000000000003 
</coordinates></LineString>
<LineString><coordinates>
	5.78577518973661,45.36422152478092,1086.92000000000007 	5.78577745730887,45.36422377982795,1086.93000000000006 
</coordinates></LineString>
<LineString><coordinates>
	5.78577518973661,45.36422152478092,1086.92000000000007 	5.78578088599886,45.36421874232269,1086.88000000000011 
</coordinates></LineString>
<LineString><coordinates>
	5.78577518973661,45.36422152478092,1086.92000000000007 	5.78577642643945,45.36421962826588,1086.94000000000005 
</coordinates></LineString>
<LineString><coordinates>
	5.78577518973661,45.36422152478092,1086.92000000000007 	5.78577360478437,45.36422200779006,1088.38000000000011 
</coordinates></LineString>
<LineString><coordinates>
	5.78577518973661,45.36422152478092,1086.92000000000007 	5.78577518589278,45.36422395593272,1087.07999999999993 
</coordinates></LineString>
<LineString><coordinates>
	5.78577518973661,45.36422152478092,1086.92000000000007 	5.78577504582427,45.36422387676074,1086.92000000000007 
</coordinates></LineString>
<LineString><coordinates>
	5.78577518973661,45.36422152478092,1086.92000000000007 	5.78577512909662,45.36422441049430,1086.15000000000009 
</coordinates></LineString>
<LineString><coordinates>
	5.78577518973661,45.36422152478092,1086.92000000000007 	5.78577405274731,45.36422242321723,1085.69000000000005 
</coordinates></LineString>
<LineString><coordinates>
	5.78577518973661,45.36422152478092,1086.92000000000007 	5.78577006399857,45.36421814085536,1080.38000000000011 
</coordinates></LineString>
<LineString><coordinates>
	5.78577518973661,45.36422152478092,1086.92000000000007 	5.78577571478081,45.36421752268243,1085.76999999999998 
</coordinates></LineString>
<LineString><coordinates>
	5.78577518973661,45.36422152478092,1086.92000000000007 	5.78577420050358,45.36421764008559,1087.03999999999996 
</coordinates></LineString>
<LineString><coordinates>
	5.78577518973661,45.36422152478092,1086.92000000000007 	5.78577435316949,45.36421861859712,1087.28999999999996 
</coordinates></LineString>
<LineString><coordinates>
	5.78577518973661,45.36422152478092,1086.92000000000007 	5.78576794524847,45.36421929547154,1080.48000000000002 	5.78576716526137,45.36422493790509,1080.34999999999991 
</coordinates></LineString>
<LineString><coordinates>
	5.78576794524847,45.36421929547154,1080.48000000000002 	5.78577522881023,45.36422341241558,1080.43000000000006 
</coordinates></LineString>
<LineString><coordinates>
	5.78576794524847,45.36421929547154,1080.48000000000002 	5.78578640824263,45.36421075152191,1080.43000000000006 
</coordinates></LineString>
<LineString><coordinates>
	5.78576794524847,45.36421929547154,1080.48000000000002 	5.78577012741803,45.36420463119511,1080.48000000000002 
</coordinates></LineString>
<LineString><coordinates>
	5.78576794524847,45.36421929547154,1080.48000000000002 	5.78575013776832,45.36420339002616,1080.75000000000000 
</coordinates></LineString>
<LineString><coordinates>
	5.78576794524847,45.36421929547154,1080.48000000000002 	5.78571166678812,45.36418683583585,1082.45000000000005 
</coordinates></LineString>
<LineString><coordinates>
	5.78576794524847,45.36421929547154,1080.48000000000002 	5.78562657502880,45.36417434628566,1086.46000000000004 
</coordinates></LineString>
<LineString><coordinates>
	5.78576794524847,45.36421929547154,1080.48000000000002 	5.78569506608348,45.36420567905763,1081.99000000000001 
</coordinates></LineString>
<LineString><coordinates>
	5.78576794524847,45.36421929547154,1080.48000000000002 	5.78571941535488,45.36421603555394,1081.42000000000007 
</coordinates></LineString>
<LineString><coordinates>
	5.78576794524847,45.36421929547154,1080.48000000000002 	5.78574189463871,45.36422095506554,1080.81999999999994 
</coordinates></LineString>
<LineString><coordinates>
	5.78576794524847,45.36421929547154,1080.48000000000002 	5.78576467306728,45.36422288033619,1080.45000000000005 
</coordinates></LineString>
<LineString><coordinates>
	5.78576794524847,45.36421929547154,1080.48000000000002 	5.78576926394244,45.36421874307407,1083.88000000000011 
</coordinates></LineString>
<LineString><coordinates>
	5.78576794524847,45.36421929547154,1080.48000000000002 	5.78570848511683,45.36420409848802,1086.96000000000004 
</coordinates></LineString>
<LineString><coordinates>
	5.78576794524847,45.36421929547154,1080.48000000000002 	5.78562431877579,45.36417380095882,1087.43000000000006 
</coordinates></LineString>
<LineString><coordinates>
	5.78576794524847,45.36421929547154,1080.48000000000002 	5.78570656217540,45.36419668491790,1081.03999999999996 
</coordinates></LineString>
<LineString><coordinates>
	5.78576794524847,45.36421929547154,1080.48000000000002 	5.78572464359219,45.36420779745578,1077.77999999999997 
</coordinates></LineString>
<LineString><coordinates>
	5.78576794524847,45.36421929547154,1080.48000000000002 	5.78570988964733,45.36420245905688,1075.29999999999995 
</coordinates></LineString>
<LineString><coordinates>
	5.78576794524847,45.36421929547154,1080.48000000000002 	5.78576208884836,45.36421695854224,1079.80999999999995 
</coordinates></LineString>
<LineString><coordinates>
	5.78576794524847,45.36421929547154,1080.48000000000002 	5.78567984434983,45.36418588183148,1084.91000000000008 	5.78568249199992,45.36417829396633,1084.96000000000004 
</coordinates></LineString>
<LineString><coordinates>
	5.78567984434983,45.36418588183148,1084.91000000000008 	5.78564288021410,45.36416506933750,1085.02999999999997 
</coordinates></LineString>
<LineString><coordinates>
	5.78567984434983,45.36418588183148,1084.91000000000008 	5.78562037143576,45.36417878863820,1085.13000000000011 
</coordinates></LineString>
<LineString><coordinates>
	5.78567984434983,45.36418588183148,1084.91000000000008 	5.78565526487282,45.36419697070023,1085.24000000000001 
</coordinates></LineString>
<LineString><coordinates>
	5.78567984434983,45.36418588183148,1084.91000000000008 	5.78567818102553,45.36419159274946,1084.95000000000005 
</coordinates></LineString>
<LineString><coordinates>
	5.78567984434983,45.36418588183148,1084.91000000000008 	5.78568924898759,45.36419622657919,1084.90000000000009 
</coordinates></LineString>
<LineString><coordinates>
	5.78567984434983,45.36418588183148,1084.91000000000008 	5.78573035607577,45.36421248636711,1085.26999999999998 
</coordinates></LineString>
<LineString><coordinates>
	5.78567984434983,45.36418588183148,1084.91000000000008 	5.78573002449316,45.36420053786917,1085.00999999999999 
</coordinates></LineString>
<LineString><coordinates>
	5.78567984434983,45.36418588183148,1084.91000000000008 	5.78571040489089,45.36418693367105,1085.05999999999995 
</coordinates></LineString>
<LineString><coordinates>
	5.78567984434983,45.36418588183148,1084.91000000000008 	5.78568677603692,45.36418201324779,1085.08999999999992 
</coordinates></LineString>
<LineString><coordinates>
	5.78567984434983,45.36418588183148,1084.91000000000008 	5.78563246278762,45.36418343316232,1089.04999999999995 
</coordinates></LineString>
<LineString><coordinates>
	5.78567984434983,45.36418588183148,1084.91000000000008 	5.78562266186376,45.36417545995587,1083.24000000000001 
</coordinates></LineString>
<LineString><coordinates>
	5.78567984434983,45.36418588183148,1084.91000000000008 	5.78564163813629,45.36417921056812,1081.80999999999995 
</coordinates></LineString>
<LineString><coordinates>
	5.78567984434983,45.36418588183148,1084.91000000000008 	5.78564267902341,45.36418588224008,1080.89000000000010 
</coordinates></LineString>
<LineString><coordinates>
	5.78567984434983,45.36418588183148,1084.91000000000008 	5.78567162942149,45.36418561841812,1083.31999999999994 
</coordinates></LineString>
<LineString><coordinates>
	5.78567984434983,45.36418588183148,1084.91000000000008 	5.78568172203453,45.36418645650759,1083.77999999999997 
</coordinates></LineString>
<LineString><coordinates>
	5.78567984434983,45.36418588183148,1084.91000000000008 	5.78568871028838,45.36419113654218,1082.84999999999991 
</coordinates></LineString>
<LineString><coordinates>
	5.78567984434983,45.36418588183148,1084.91000000000008 	5.78576935874708,45.36421198335215,1080.16000000000008 
</coordinates></LineString>
<LineString><coordinates>
	5.78567984434983,45.36418588183148,1084.91000000000008 	5.78574978695643,45.36420359728807,1086.51999999999998 
</coordinates></LineString>
<LineString><coordinates>
	5.78567984434983,45.36418588183148,1084.91000000000008 	5.78573233113484,45.36420468055206,1088.48000000000002 
</coordinates></LineString>
<LineString><coordinates>
	5.78567984434983,45.36418588183148,1084.91000000000008 	5.78569144716258,45.36419803685020,1089.40000000000009 
</coordinates></LineString>
<LineString><coordinates>
	5.78567984434983,45.36418588183148,1084.91000000000008 	5.78562412038606,45.36418398991298,1084.70000000000005 	5.78562428436061,45.36418667814873,1084.72000000000003 
</coordinates></LineString>
<LineString><coordinates>
	5.78562412038606,45.36418398991298,1084.70000000000005 	5.78561702343600,45.36418598064147,1084.78999999999996 
</coordinates></LineString>
<LineString><coordinates>
	5.78562412038606,45.36418398991298,1084.70000000000005 	5.78562100880244,45.36417468780060,1084.66000000000008 
</coordinates></LineString>
<LineString><coordinates>
	5.78562412038606,45.36418398991298,1084.70000000000005 	5.78563847978134,45.36417288312586,1084.75000000000000 
</coordinates></LineString>
<LineString><coordinates>
	5.78562412038606,45.36418398991298,1084.70000000000005 	5.78567299744847,45.36418047058434,1085.17000000000007 
</coordinates></LineString>
<LineString><coordinates>
	5.78562412038606,45.36418398991298,1084.70000000000005 	5.78572576564513,45.36419861726883,1085.20000000000005 
</coordinates></LineString>
<LineString><coordinates>
	5.78562412038606,45.36418398991298,1084.70000000000005 	5.78576836673531,45.36421872260360,1085.09999999999991 
</coordinates></LineString>
<LineString><coordinates>
	5.78562412038606,45.36418398991298,1084.70000000000005 	5.78564936812661,45.36419355651361,1084.83999999999992 
</coordinates></LineString>
<LineString><coordinates>
	5.78562412038606,45.36418398991298,1084.70000000000005 	5.78562842961003,45.36418950787639,1084.75000000000000 
</coordinates></LineString>
<LineString><coordinates>
	5.78562412038606,45.36418398991298,1084.70000000000005 	5.78562261613689,45.36418662742199,1084.78999999999996 
</coordinates></LineString>
<LineString><coordinates>
	5.78562412038606,45.36418398991298,1084.70000000000005 	5.78562068550597,45.36418407615412,1088.18000000000006 
</coordinates></LineString>
<LineString><coordinates>
	5.78562412038606,45.36418398991298,1084.70000000000005 	5.78565542138575,45.36419551805989,1087.70000000000005 
</coordinates></LineString>
<LineString><coordinates>
	5.78562412038606,45.36418398991298,1084.70000000000005 	5.78564881170303,45.36419080867273,1085.63000000000011 
</coordinates></LineString>
<LineString><coordinates>
	5.78562412038606,45.36418398991298,1084.70000000000005 	5.78574910646183,45.36421724482210,1086.79999999999995 
</coordinates></LineString>
<LineString><coordinates>
	5.78562412038606,45.36418398991298,1084.70000000000005 	5.78565452907594,45.36420125923256,1082.43000000000006 
</coordinates></LineString>
<LineString><coordinates>
	5.78562412038606,45.36418398991298,1084.70000000000005 	5.78568139000067,45.36419251436878,1078.49000000000001 
</coordinates></LineString>
<LineString><coordinates>
	5.78562412038606,45.36418398991298,1084.70000000000005 	5.78562682203410,45.36418657143586,1081.40000000000009 
</coordinates></LineString>
<LineString><coordinates>
	5.78562412038606,45.36418398991298,1084.70000000000005 	5.78564101464963,45.36418340036136,1082.05999999999995 
</coordinates></LineString>
<LineString><coordinates>
	5.78562412038606,45.36418398991298,1084.70000000000005 	5.78562179217319,45.36418462057618,1081.25999999999999 
</coordinates></LineString>
<LineString><coordinates>
	5.78562412038606,45.36418398991298,1084.70000000000005 	5.78559850001461,45.36418840709763,1074.88000000000011 
</coordinates></LineString>
<LineString><coordinates>
	5.78562412038606,45.36418398991298,1084.70000000000005 	5.78558381522985,45.36419251664036,1081.70000000000005 
</coordinates></LineString>
<LineString><coordinates>
	5.78562412038606,45.36418398991298,1084.70000000000005 	5.78558559448108,45.36419327901278,1082.36999999999989 
</coordinates></LineString>
</MultiGeometry>
</Placemark>
</Folder>
</Folder>
</kml>
