<?xml version="1.0" encoding="UTF-8"?>
<kml xmlns="http://earth.google.com/kml/2.0">
<Folder>
<Style id="ThSurveyLine"> <LineStyle> <color>ffffff00</color> <width>1</width> </LineStyle> </Style>
<Style id="ThSurveyLineSurf"> <LineStyle> <color>ffcccccc</color> <width>1</width> </LineStyle> </Style>
<Style id="ThEntranceIcon"> <IconStyle> <Icon> <href>https://therion.speleo.sk/downloads/KmlIconEntrance.png</href> </Icon> <hotSpot x="0.5" y="0" xunits="fraction" yunits="fraction" /> </IconStyle> </Style>
<Icon> <href>https://therion.speleo.sk/downloads/KmlIconModel.png</href> </Icon>
<name><![CDATA[Grotte du Curé (38 - Chartreuse)]]></name>
<description><![CDATA[Length 354 m<br>Depth 27 m]]></description>
<Placemark>
<styleUrl>#ThEntranceIcon</styleUrl><name><![CDATA[Grotte du Curé]]></name>
<Point> <coordinates>5.83470648554243,45.41993620293975,604.00000000000000</coordinates> </Point>
</Placemark>
<Folder>
<name><![CDATA[Grotte du Curé]]></name>
<Placemark>
<name>00</name>
<styleUrl>#ThSurveyLine</styleUrl>
<MultiGeometry>
<LineString><coordinates>
	5.83470648554243,45.41993620293975,604.00000000000000 	5.83473147817131,45.41993756249790,603.75000000000000 
</coordinates></LineString>
<LineString><coordinates>
	5.83470648554243,45.41993620293975,604.00000000000000 	5.83468738484906,45.41993253669831,603.27999999999997 
</coordinates></LineString>
<LineString><coordinates>
	5.83470648554243,45.41993620293975,604.00000000000000 	5.83470087912872,45.41993400182059,604.47000000000003 
</coordinates></LineString>
<LineString><coordinates>
	5.83470648554243,45.41993620293975,604.00000000000000 	5.83470701418931,45.41993654986609,603.02999999999997 
</coordinates></LineString>
<LineString><coordinates>
	5.83470648554243,45.41993620293975,604.00000000000000 	5.83468263950433,45.41991690208672,604.26999999999998 
</coordinates></LineString>
<LineString><coordinates>
	5.83470648554243,45.41993620293975,604.00000000000000 	5.83468873488409,45.41989568738901,604.71000000000004 
</coordinates></LineString>
<LineString><coordinates>
	5.83470648554243,45.41993620293975,604.00000000000000 	5.83471812644097,45.41989810787676,604.64999999999998 
</coordinates></LineString>
<LineString><coordinates>
	5.83470648554243,45.41993620293975,604.00000000000000 	5.83474182576901,45.41990427030369,604.74000000000001 
</coordinates></LineString>
<LineString><coordinates>
	5.83470648554243,45.41993620293975,604.00000000000000 	5.83474273234412,45.41991982023063,604.11000000000001 
</coordinates></LineString>
<LineString><coordinates>
	5.83470648554243,45.41993620293975,604.00000000000000 	5.83470230963888,45.41991407316840,603.60000000000002 	5.83472782876107,45.41993360250446,603.50000000000000 
</coordinates></LineString>
<LineString><coordinates>
	5.83470230963888,45.41991407316840,603.60000000000002 	5.83474311427715,45.41990702873815,604.20000000000005 
</coordinates></LineString>
<LineString><coordinates>
	5.83470230963888,45.41991407316840,603.60000000000002 	5.83469800982747,45.41987160328137,605.47000000000003 
</coordinates></LineString>
<LineString><coordinates>
	5.83470230963888,45.41991407316840,603.60000000000002 	5.83468296423394,45.41990807263684,604.20000000000005 
</coordinates></LineString>
<LineString><coordinates>
	5.83470230963888,45.41991407316840,603.60000000000002 	5.83466268264440,45.41987572121447,605.35000000000002 
</coordinates></LineString>
<LineString><coordinates>
	5.83470230963888,45.41991407316840,603.60000000000002 	5.83469302465277,45.41992519549131,603.91999999999996 
</coordinates></LineString>
<LineString><coordinates>
	5.83470230963888,45.41991407316840,603.60000000000002 	5.83470520978444,45.41991328102360,604.66999999999996 
</coordinates></LineString>
<LineString><coordinates>
	5.83470230963888,45.41991407316840,603.60000000000002 	5.83470369588201,45.41991367868136,602.53999999999996 
</coordinates></LineString>
<LineString><coordinates>
	5.83470230963888,45.41991407316840,603.60000000000002 	5.83467323071420,45.41986429748032,605.61000000000001 	5.83470101193064,45.41987539932489,605.62000000000000 
</coordinates></LineString>
<LineString><coordinates>
	5.83467323071420,45.41986429748032,605.61000000000001 	5.83471779458225,45.41989658587910,605.14999999999998 
</coordinates></LineString>
<LineString><coordinates>
	5.83467323071420,45.41986429748032,605.61000000000001 	5.83468543225219,45.41985526305925,605.65999999999997 
</coordinates></LineString>
<LineString><coordinates>
	5.83467323071420,45.41986429748032,605.61000000000001 	5.83466466694701,45.41986685054587,605.60000000000002 
</coordinates></LineString>
<LineString><coordinates>
	5.83467323071420,45.41986429748032,605.61000000000001 	5.83466667609894,45.41987634214225,605.50999999999999 
</coordinates></LineString>
<LineString><coordinates>
	5.83467323071420,45.41986429748032,605.61000000000001 	5.83467726252833,45.41988355037955,605.27999999999997 
</coordinates></LineString>
<LineString><coordinates>
	5.83467323071420,45.41986429748032,605.61000000000001 	5.83467474461555,45.41986389982300,606.30999999999995 
</coordinates></LineString>
<LineString><coordinates>
	5.83467323071420,45.41986429748032,605.61000000000001 	5.83467337188027,45.41986456401657,604.92999999999995 
</coordinates></LineString>
<LineString><coordinates>
	5.83467323071420,45.41986429748032,605.61000000000001 	5.83467946800624,45.41986378250784,603.04999999999995 
</coordinates></LineString>
<LineString><coordinates>
	5.83467323071420,45.41986429748032,605.61000000000001 	5.83467854287573,45.41986317538647,603.16999999999996 	5.83467076626398,45.41986102816718,603.23000000000002 
</coordinates></LineString>
<LineString><coordinates>
	5.83467854287573,45.41986317538647,603.16999999999996 	5.83467356210957,45.41983773508152,603.29999999999995 
</coordinates></LineString>
<LineString><coordinates>
	5.83467854287573,45.41986317538647,603.16999999999996 	5.83470376676662,45.41982321272178,604.13000000000000 
</coordinates></LineString>
<LineString><coordinates>
	5.83467854287573,45.41986317538647,603.16999999999996 	5.83470161026466,45.41985927193492,603.45000000000005 
</coordinates></LineString>
<LineString><coordinates>
	5.83467854287573,45.41986317538647,603.16999999999996 	5.83467992592803,45.41986782177018,603.19000000000005 
</coordinates></LineString>
<LineString><coordinates>
	5.83467854287573,45.41986317538647,603.16999999999996 	5.83467987799765,45.41986431240962,605.89999999999998 
</coordinates></LineString>
<LineString><coordinates>
	5.83467854287573,45.41986317538647,603.16999999999996 	5.83468090086617,45.41986176660895,602.72000000000003 
</coordinates></LineString>
<LineString><coordinates>
	5.83467854287573,45.41986317538647,603.16999999999996 	5.83468795185638,45.41982900636803,603.80999999999995 	5.83467268809993,45.41983559645025,604.13000000000000 
</coordinates></LineString>
<LineString><coordinates>
	5.83468795185638,45.41982900636803,603.80999999999995 	5.83465765030952,45.41982372802172,604.42999999999995 
</coordinates></LineString>
<LineString><coordinates>
	5.83468795185638,45.41982900636803,603.80999999999995 	5.83464400777102,45.41981164490938,604.91999999999996 
</coordinates></LineString>
<LineString><coordinates>
	5.83468795185638,45.41982900636803,603.80999999999995 	5.83469374791770,45.41981968096905,604.50999999999999 
</coordinates></LineString>
<LineString><coordinates>
	5.83468795185638,45.41982900636803,603.80999999999995 	5.83469920199480,45.41983925859908,604.04999999999995 
</coordinates></LineString>
<LineString><coordinates>
	5.83468795185638,45.41982900636803,603.80999999999995 	5.83469234573271,45.41984527980799,604.38000000000000 
</coordinates></LineString>
<LineString><coordinates>
	5.83468795185638,45.41982900636803,603.80999999999995 	5.83467076551976,45.41984059497847,603.90999999999997 
</coordinates></LineString>
<LineString><coordinates>
	5.83468795185638,45.41982900636803,603.80999999999995 	5.83468616913088,45.41982914066000,605.63999999999999 
</coordinates></LineString>
<LineString><coordinates>
	5.83468795185638,45.41982900636803,603.80999999999995 	5.83468632380382,45.41982967690315,603.13999999999999 
</coordinates></LineString>
<LineString><coordinates>
	5.83468795185638,45.41982900636803,603.80999999999995 	5.83465947150539,45.41979883888926,605.36000000000001 	5.83467200591638,45.41980410844854,605.36000000000001 
</coordinates></LineString>
<LineString><coordinates>
	5.83465947150539,45.41979883888926,605.36000000000001 	5.83464103080385,45.41981855992139,605.24000000000001 
</coordinates></LineString>
<LineString><coordinates>
	5.83465947150539,45.41979883888926,605.36000000000001 	5.83465923915241,45.41982737913907,605.40999999999997 
</coordinates></LineString>
<LineString><coordinates>
	5.83465947150539,45.41979883888926,605.36000000000001 	5.83467941351394,45.41983461928361,604.89999999999998 
</coordinates></LineString>
<LineString><coordinates>
	5.83465947150539,45.41979883888926,605.36000000000001 	5.83466103943220,45.41979952005983,603.91999999999996 
</coordinates></LineString>
<LineString><coordinates>
	5.83465947150539,45.41979883888926,605.36000000000001 	5.83466051979143,45.41979935293784,606.13999999999999 
</coordinates></LineString>
<LineString><coordinates>
	5.83465947150539,45.41979883888926,605.36000000000001 	5.83467857750303,45.41977964141483,600.71000000000004 	5.83467995661657,45.41976889548027,600.94000000000005 
</coordinates></LineString>
<LineString><coordinates>
	5.83467857750303,45.41977964141483,600.71000000000004 	5.83465212507242,45.41977975832804,600.96000000000004 
</coordinates></LineString>
<LineString><coordinates>
	5.83467857750303,45.41977964141483,600.71000000000004 	5.83466146190452,45.41978753768772,600.80999999999995 
</coordinates></LineString>
<LineString><coordinates>
	5.83467857750303,45.41977964141483,600.71000000000004 	5.83468107187091,45.41978606047930,600.75999999999999 
</coordinates></LineString>
<LineString><coordinates>
	5.83467857750303,45.41977964141483,600.71000000000004 	5.83469318756643,45.41978296912195,600.79999999999995 
</coordinates></LineString>
<LineString><coordinates>
	5.83467857750303,45.41977964141483,600.71000000000004 	5.83468153195232,45.41977227689041,600.91999999999996 
</coordinates></LineString>
<LineString><coordinates>
	5.83467857750303,45.41977964141483,600.71000000000004 	5.83466933624440,45.41978653198587,604.09000000000003 
</coordinates></LineString>
<LineString><coordinates>
	5.83467857750303,45.41977964141483,600.71000000000004 	5.83467564584789,45.41977980424268,599.91999999999996 
</coordinates></LineString>
<LineString><coordinates>
	5.83467857750303,45.41977964141483,600.71000000000004 	5.83464336379474,45.41976305327387,601.71000000000004 	5.83466438062341,45.41977180273717,601.60000000000002 
</coordinates></LineString>
<LineString><coordinates>
	5.83464336379474,45.41976305327387,601.71000000000004 	5.83466950715701,45.41975421266844,601.63999999999999 
</coordinates></LineString>
<LineString><coordinates>
	5.83464336379474,45.41976305327387,601.71000000000004 	5.83464429531003,45.41975357865443,601.74000000000001 
</coordinates></LineString>
<LineString><coordinates>
	5.83464336379474,45.41976305327387,601.71000000000004 	5.83463666061065,45.41977213115792,601.77999999999997 
</coordinates></LineString>
<LineString><coordinates>
	5.83464336379474,45.41976305327387,601.71000000000004 	5.83465351741118,45.41977693330873,601.39999999999998 
</coordinates></LineString>
<LineString><coordinates>
	5.83464336379474,45.41976305327387,601.71000000000004 	5.83464832288968,45.41976509044498,600.34000000000003 
</coordinates></LineString>
<LineString><coordinates>
	5.83464336379474,45.41976305327387,601.71000000000004 	5.83463975332543,45.41976242283317,602.71000000000004 
</coordinates></LineString>
<LineString><coordinates>
	5.83464336379474,45.41976305327387,601.71000000000004 	5.83467473564447,45.41974121078782,603.78999999999996 	5.83465233258676,45.41973285581250,604.13000000000000 
</coordinates></LineString>
<LineString><coordinates>
	5.83467473564447,45.41974121078782,603.78999999999996 	5.83463878636878,45.41975587581775,603.58000000000004 
</coordinates></LineString>
<LineString><coordinates>
	5.83467473564447,45.41974121078782,603.78999999999996 	5.83467089949433,45.41975138764894,603.76999999999998 
</coordinates></LineString>
<LineString><coordinates>
	5.83467473564447,45.41974121078782,603.78999999999996 	5.83467980279319,45.41974540561296,603.75999999999999 
</coordinates></LineString>
<LineString><coordinates>
	5.83467473564447,45.41974121078782,603.78999999999996 	5.83467602152207,45.41973370767764,604.02999999999997 
</coordinates></LineString>
<LineString><coordinates>
	5.83467473564447,45.41974121078782,603.78999999999996 	5.83467088627190,45.41974346673391,604.69000000000005 
</coordinates></LineString>
<LineString><coordinates>
	5.83467473564447,45.41974121078782,603.78999999999996 	5.83466509762267,45.41975549237164,601.12000000000000 
</coordinates></LineString>
<LineString><coordinates>
	5.83467473564447,45.41974121078782,603.78999999999996 	5.83470295333045,45.41972529755245,603.63000000000000 	5.83470680720280,45.41972313150765,603.71000000000004 
</coordinates></LineString>
<LineString><coordinates>
	5.83470295333045,45.41972529755245,603.63000000000000 	5.83469016811908,45.41972012423984,604.05999999999995 
</coordinates></LineString>
<LineString><coordinates>
	5.83470295333045,45.41972529755245,603.63000000000000 	5.83469128525121,45.41972711759556,603.85000000000002 
</coordinates></LineString>
<LineString><coordinates>
	5.83470295333045,45.41972529755245,603.63000000000000 	5.83470360644591,45.41973068217863,603.83000000000004 
</coordinates></LineString>
<LineString><coordinates>
	5.83470295333045,45.41972529755245,603.63000000000000 	5.83470195907316,45.41972586233189,604.23000000000002 
</coordinates></LineString>
<LineString><coordinates>
	5.83470295333045,45.41972529755245,603.63000000000000 	5.83470345496139,45.41972510506503,603.12000000000000 
</coordinates></LineString>
<LineString><coordinates>
	5.83470295333045,45.41972529755245,603.63000000000000 	5.83469222444977,45.41971269200768,604.70000000000005 
</coordinates></LineString>
<LineString><coordinates>
	5.83470295333045,45.41972529755245,603.63000000000000 	5.83469044172794,45.41971282629962,604.60000000000002 	5.83470062451531,45.41970942289286,604.66999999999996 
</coordinates></LineString>
<LineString><coordinates>
	5.83469044172794,45.41971282629962,604.60000000000002 	5.83468323270671,45.41971435556311,604.67999999999995 
</coordinates></LineString>
<LineString><coordinates>
	5.83469044172794,45.41971282629962,604.60000000000002 	5.83469123019259,45.41971325678703,605.00000000000000 
</coordinates></LineString>
<LineString><coordinates>
	5.83469044172794,45.41971282629962,604.60000000000002 	5.83469064301818,45.41971174113056,604.11000000000001 
</coordinates></LineString>
<LineString><coordinates>
	5.83467473564447,45.41974121078782,603.78999999999996 	5.83459545115475,45.41976343313178,605.50000000000000 	5.83460024047105,45.41976718479012,605.53999999999996 
</coordinates></LineString>
<LineString><coordinates>
	5.83459545115475,45.41976343313178,605.50000000000000 	5.83459257832282,45.41975711347921,605.57000000000005 
</coordinates></LineString>
<LineString><coordinates>
	5.83459545115475,45.41976343313178,605.50000000000000 	5.83458012887662,45.41976885447144,605.89999999999998 
</coordinates></LineString>
<LineString><coordinates>
	5.83459545115475,45.41976343313178,605.50000000000000 	5.83458457703805,45.41977855553596,606.05999999999995 
</coordinates></LineString>
<LineString><coordinates>
	5.83459545115475,45.41976343313178,605.50000000000000 	5.83461504601056,45.41976420666325,605.47000000000003 
</coordinates></LineString>
<LineString><coordinates>
	5.83459545115475,45.41976343313178,605.50000000000000 	5.83463191079325,45.41975640664086,605.52999999999997 
</coordinates></LineString>
<LineString><coordinates>
	5.83459545115475,45.41976343313178,605.50000000000000 	5.83462163983808,45.41974784035200,605.48000000000002 
</coordinates></LineString>
<LineString><coordinates>
	5.83459545115475,45.41976343313178,605.50000000000000 	5.83459787217341,45.41976328298836,607.25999999999999 
</coordinates></LineString>
<LineString><coordinates>
	5.83459545115475,45.41976343313178,605.50000000000000 	5.83459991311858,45.41976575269429,606.00000000000000 
</coordinates></LineString>
<LineString><coordinates>
	5.83459545115475,45.41976343313178,605.50000000000000 	5.83458770637026,45.41975426401421,606.32000000000005 
</coordinates></LineString>
<LineString><coordinates>
	5.83459545115475,45.41976343313178,605.50000000000000 	5.83459695604974,45.41976285567089,605.04999999999995 
</coordinates></LineString>
<LineString><coordinates>
	5.83459545115475,45.41976343313178,605.50000000000000 	5.83456836143953,45.41977634785975,606.50000000000000 	5.83456910067899,45.41976813821415,606.39999999999998 
</coordinates></LineString>
<LineString><coordinates>
	5.83456836143953,45.41977634785975,606.50000000000000 	5.83455210112165,45.41976558994959,606.65999999999997 
</coordinates></LineString>
<LineString><coordinates>
	5.83456836143953,45.41977634785975,606.50000000000000 	5.83456848299640,45.41977877522223,606.50999999999999 
</coordinates></LineString>
<LineString><coordinates>
	5.83456836143953,45.41977634785975,606.50000000000000 	5.83457397683671,45.41977872879060,606.48000000000002 
</coordinates></LineString>
<LineString><coordinates>
	5.83456836143953,45.41977634785975,606.50000000000000 	5.83458957534770,45.41977627105746,606.58000000000004 
</coordinates></LineString>
<LineString><coordinates>
	5.83456836143953,45.41977634785975,606.50000000000000 	5.83456973577401,45.41977316323209,607.48000000000002 
</coordinates></LineString>
<LineString><coordinates>
	5.83456836143953,45.41977634785975,606.50000000000000 	5.83456637452054,45.41977495698100,606.04999999999995 
</coordinates></LineString>
<LineString><coordinates>
	5.83456836143953,45.41977634785975,606.50000000000000 	5.83447717139092,45.41976502049582,608.88000000000000 	5.83447801579277,45.41975635816841,609.15999999999997 
</coordinates></LineString>
<LineString><coordinates>
	5.83447717139092,45.41976502049582,608.88000000000000 	5.83449932904577,45.41975060802550,609.16999999999996 
</coordinates></LineString>
<LineString><coordinates>
	5.83447717139092,45.41976502049582,608.88000000000000 	5.83452790954702,45.41975214856399,610.30999999999995 
</coordinates></LineString>
<LineString><coordinates>
	5.83447717139092,45.41976502049582,608.88000000000000 	5.83454430651961,45.41976308311193,609.32000000000005 
</coordinates></LineString>
<LineString><coordinates>
	5.83447717139092,45.41976502049582,608.88000000000000 	5.83449044151342,45.41977477250991,608.87000000000000 
</coordinates></LineString>
<LineString><coordinates>
	5.83447717139092,45.41976502049582,608.88000000000000 	5.83447869978070,45.41977767453001,608.90999999999997 
</coordinates></LineString>
<LineString><coordinates>
	5.83447717139092,45.41976502049582,608.88000000000000 	5.83447082414485,45.41977354944549,609.02999999999997 
</coordinates></LineString>
<LineString><coordinates>
	5.83447717139092,45.41976502049582,608.88000000000000 	5.83447267854053,45.41974676919466,613.22000000000003 
</coordinates></LineString>
<LineString><coordinates>
	5.83447717139092,45.41976502049582,608.88000000000000 	5.83447509924811,45.41975427026259,610.42999999999995 
</coordinates></LineString>
<LineString><coordinates>
	5.83447717139092,45.41976502049582,608.88000000000000 	5.83447595172211,45.41976874136597,609.40999999999997 
</coordinates></LineString>
<LineString><coordinates>
	5.83447717139092,45.41976502049582,608.88000000000000 	5.83447739069326,45.41976429493634,607.76999999999998 
</coordinates></LineString>
<LineString><coordinates>
	5.83447717139092,45.41976502049582,608.88000000000000 	5.83445726621576,45.41975039247154,612.17999999999995 	5.83445690993712,45.41975859260555,612.02999999999997 
</coordinates></LineString>
<LineString><coordinates>
	5.83445726621576,45.41975039247154,612.17999999999995 	5.83447574815117,45.41975191377952,612.24000000000001 
</coordinates></LineString>
<LineString><coordinates>
	5.83445726621576,45.41975039247154,612.17999999999995 	5.83446092040972,45.41974679116803,612.07000000000005 
</coordinates></LineString>
<LineString><coordinates>
	5.83445726621576,45.41975039247154,612.17999999999995 	5.83444410415039,45.41974279810905,612.27999999999997 
</coordinates></LineString>
<LineString><coordinates>
	5.83445726621576,45.41975039247154,612.17999999999995 	5.83441909649925,45.41974368921423,612.76999999999998 
</coordinates></LineString>
<LineString><coordinates>
	5.83445726621576,45.41975039247154,612.17999999999995 	5.83445074178809,45.41975793566503,612.20000000000005 
</coordinates></LineString>
<LineString><coordinates>
	5.83445726621576,45.41975039247154,612.17999999999995 	5.83445571630034,45.41975007090737,612.80999999999995 
</coordinates></LineString>
<LineString><coordinates>
	5.83445726621576,45.41975039247154,612.17999999999995 	5.83445480757658,45.41975234382886,610.66999999999996 
</coordinates></LineString>
<LineString><coordinates>
	5.83445726621576,45.41975039247154,612.17999999999995 	5.83447784182049,45.41975033154240,619.16999999999996 
</coordinates></LineString>
<LineString><coordinates>
	5.83445726621576,45.41975039247154,612.17999999999995 	5.83434785346158,45.41975292967133,612.37000000000000 	5.83433463833980,45.41975703845063,612.84000000000003 
</coordinates></LineString>
<LineString><coordinates>
	5.83434785346158,45.41975292967133,612.37000000000000 	5.83433419588950,45.41974309724841,612.76999999999998 
</coordinates></LineString>
<LineString><coordinates>
	5.83434785346158,45.41975292967133,612.37000000000000 	5.83434417484523,45.41973051749430,612.52999999999997 
</coordinates></LineString>
<LineString><coordinates>
	5.83434785346158,45.41975292967133,612.37000000000000 	5.83436229726099,45.41974527982607,612.54999999999995 
</coordinates></LineString>
<LineString><coordinates>
	5.83434785346158,45.41975292967133,612.37000000000000 	5.83436594759144,45.41976202181480,612.33000000000004 
</coordinates></LineString>
<LineString><coordinates>
	5.83434785346158,45.41975292967133,612.37000000000000 	5.83435107644874,45.41975347972995,613.80999999999995 
</coordinates></LineString>
<LineString><coordinates>
	5.83434785346158,45.41975292967133,612.37000000000000 	5.83435063655871,45.41974980007496,611.08000000000004 
</coordinates></LineString>
<LineString><coordinates>
	5.83434785346158,45.41975292967133,612.37000000000000 	5.83437246240865,45.41969813001968,612.71000000000004 
</coordinates></LineString>
<LineString><coordinates>
	5.83434785346158,45.41975292967133,612.37000000000000 	5.83436889213661,45.41970595990033,612.66999999999996 	5.83436109304865,45.41970336314740,612.50000000000000 
</coordinates></LineString>
<LineString><coordinates>
	5.83436889213661,45.41970595990033,612.66999999999996 	5.83437981806379,45.41970973919724,612.65999999999997 
</coordinates></LineString>
<LineString><coordinates>
	5.83436889213661,45.41970595990033,612.66999999999996 	5.83438300278820,45.41969165728031,612.90999999999997 
</coordinates></LineString>
<LineString><coordinates>
	5.83436889213661,45.41970595990033,612.66999999999996 	5.83436789080741,45.41969617322754,612.73000000000002 
</coordinates></LineString>
<LineString><coordinates>
	5.83436889213661,45.41970595990033,612.66999999999996 	5.83438231882853,45.41970607652690,612.74000000000001 
</coordinates></LineString>
<LineString><coordinates>
	5.83436889213661,45.41970595990033,612.66999999999996 	5.83435432808280,45.41971631315678,612.88999999999999 
</coordinates></LineString>
<LineString><coordinates>
	5.83436889213661,45.41970595990033,612.66999999999996 	5.83436692964941,45.41973058249485,612.70000000000005 
</coordinates></LineString>
<LineString><coordinates>
	5.83436889213661,45.41970595990033,612.66999999999996 	5.83437389591025,45.41971654731615,612.65999999999997 
</coordinates></LineString>
<LineString><coordinates>
	5.83436889213661,45.41970595990033,612.66999999999996 	5.83437042982878,45.41971114253227,614.59000000000003 
</coordinates></LineString>
<LineString><coordinates>
	5.83436889213661,45.41970595990033,612.66999999999996 	5.83436739174240,45.41970662726057,611.34000000000003 
</coordinates></LineString>
<LineString><coordinates>
	5.83436889213661,45.41970595990033,612.66999999999996 	5.83440097728290,45.41968815041113,609.85000000000002 	5.83441062083092,45.41968674073297,610.05999999999995 
</coordinates></LineString>
<LineString><coordinates>
	5.83440097728290,45.41968815041113,609.85000000000002 	5.83441078803901,45.41967476470108,610.03999999999996 
</coordinates></LineString>
<LineString><coordinates>
	5.83440097728290,45.41968815041113,609.85000000000002 	5.83441209581248,45.41964727791306,609.88999999999999 
</coordinates></LineString>
<LineString><coordinates>
	5.83440097728290,45.41968815041113,609.85000000000002 	5.83439284281314,45.41966098813187,609.75000000000000 
</coordinates></LineString>
<LineString><coordinates>
	5.83440097728290,45.41968815041113,609.85000000000002 	5.83438585984104,45.41967979447578,609.88000000000000 
</coordinates></LineString>
<LineString><coordinates>
	5.83440097728290,45.41968815041113,609.85000000000002 	5.83437630728882,45.41969578418110,610.26999999999998 
</coordinates></LineString>
<LineString><coordinates>
	5.83440097728290,45.41968815041113,609.85000000000002 	5.83439994507941,45.41969816761398,610.50999999999999 
</coordinates></LineString>
<LineString><coordinates>
	5.83440097728290,45.41968815041113,609.85000000000002 	5.83439600308984,45.41968836395748,612.61000000000001 
</coordinates></LineString>
<LineString><coordinates>
	5.83440097728290,45.41968815041113,609.85000000000002 	5.83439967689904,45.41968260182963,610.73000000000002 
</coordinates></LineString>
<LineString><coordinates>
	5.83440097728290,45.41968815041113,609.85000000000002 	5.83440111844722,45.41968841694776,609.03999999999996 
</coordinates></LineString>
<LineString><coordinates>
	5.83440097728290,45.41968815041113,609.85000000000002 	5.83440408321639,45.41965062739811,609.58000000000004 	5.83441703366774,45.41965399635653,609.74000000000001 
</coordinates></LineString>
<LineString><coordinates>
	5.83440408321639,45.41965062739811,609.58000000000004 	5.83441135558382,45.41964270557579,609.52999999999997 
</coordinates></LineString>
<LineString><coordinates>
	5.83440408321639,45.41965062739811,609.58000000000004 	5.83439971130588,45.41965010587406,609.63000000000000 
</coordinates></LineString>
<LineString><coordinates>
	5.83440408321639,45.41965062739811,609.58000000000004 	5.83438781138413,45.41966516372102,609.79999999999995 
</coordinates></LineString>
<LineString><coordinates>
	5.83440408321639,45.41965062739811,609.58000000000004 	5.83438749914410,45.41969721650572,610.30999999999995 
</coordinates></LineString>
<LineString><coordinates>
	5.83440408321639,45.41965062739811,609.58000000000004 	5.83441167296693,45.41966691149478,609.75000000000000 
</coordinates></LineString>
<LineString><coordinates>
	5.83440408321639,45.41965062739811,609.58000000000004 	5.83440521253031,45.41965275969109,610.28999999999996 
</coordinates></LineString>
<LineString><coordinates>
	5.83440408321639,45.41965062739811,609.58000000000004 	5.83440366261786,45.41965243812614,608.17999999999995 
</coordinates></LineString>
<LineString><coordinates>
	5.83440408321639,45.41965062739811,609.58000000000004 	5.83441957685922,45.41960523555208,604.99000000000001 	5.83439601692333,45.41960951123548,605.25999999999999 
</coordinates></LineString>
<LineString><coordinates>
	5.83441957685922,45.41960523555208,604.99000000000001 	5.83437571340964,45.41960479464370,605.02999999999997 
</coordinates></LineString>
<LineString><coordinates>
	5.83441957685922,45.41960523555208,604.99000000000001 	5.83438322469438,45.41959398643755,605.00999999999999 
</coordinates></LineString>
<LineString><coordinates>
	5.83441957685922,45.41960523555208,604.99000000000001 	5.83440848020160,45.41959038876083,604.99000000000001 
</coordinates></LineString>
<LineString><coordinates>
	5.83441957685922,45.41960523555208,604.99000000000001 	5.83441267525521,45.41961800893022,605.00000000000000 
</coordinates></LineString>
<LineString><coordinates>
	5.83441957685922,45.41960523555208,604.99000000000001 	5.83442478674793,45.41960717649039,604.97000000000003 
</coordinates></LineString>
<LineString><coordinates>
	5.83441957685922,45.41960523555208,604.99000000000001 	5.83441832278189,45.41960571676751,605.90999999999997 
</coordinates></LineString>
<LineString><coordinates>
	5.83441957685922,45.41960523555208,604.99000000000001 	5.83441856169892,45.41960283038183,604.01999999999998 
</coordinates></LineString>
<LineString><coordinates>
	5.83441957685922,45.41960523555208,604.99000000000001 	5.83439299588561,45.41959257359090,602.53999999999996 	5.83439796524620,45.41959992135174,602.39999999999998 
</coordinates></LineString>
<LineString><coordinates>
	5.83439299588561,45.41959257359090,602.53999999999996 	5.83438262820164,45.41959994218381,602.46000000000004 
</coordinates></LineString>
<LineString><coordinates>
	5.83439299588561,45.41959257359090,602.53999999999996 	5.83438796028431,45.41958900806841,602.47000000000003 
</coordinates></LineString>
<LineString><coordinates>
	5.83439299588561,45.41959257359090,602.53999999999996 	5.83440400025216,45.41958770958092,602.47000000000003 
</coordinates></LineString>
<LineString><coordinates>
	5.83439299588561,45.41959257359090,602.53999999999996 	5.83440543568837,45.41959595523240,602.63999999999999 
</coordinates></LineString>
<LineString><coordinates>
	5.83439299588561,45.41959257359090,602.53999999999996 	5.83438742681716,45.41959622244732,606.27999999999997 
</coordinates></LineString>
<LineString><coordinates>
	5.83439299588561,45.41959257359090,602.53999999999996 	5.83439361456333,45.41959471856546,601.83000000000004 
</coordinates></LineString>
<LineString><coordinates>
	5.83439299588561,45.41959257359090,602.53999999999996 	5.83435812030564,45.41961081243304,607.80999999999995 	5.83436172014938,45.41961378351397,607.86000000000001 
</coordinates></LineString>
<LineString><coordinates>
	5.83435812030564,45.41961081243304,607.80999999999995 	5.83438506271948,45.41960006175205,607.69000000000005 
</coordinates></LineString>
<LineString><coordinates>
	5.83435812030564,45.41961081243304,607.80999999999995 	5.83435856696121,45.41959675913623,607.84000000000003 
</coordinates></LineString>
<LineString><coordinates>
	5.83435812030564,45.41961081243304,607.80999999999995 	5.83435151711542,45.41959891452467,607.92999999999995 
</coordinates></LineString>
<LineString><coordinates>
	5.83435812030564,45.41961081243304,607.80999999999995 	5.83433037818913,45.41960304005648,608.01999999999998 
</coordinates></LineString>
<LineString><coordinates>
	5.83435812030564,45.41961081243304,607.80999999999995 	5.83433549576858,45.41962100580662,608.00999999999999 
</coordinates></LineString>
<LineString><coordinates>
	5.83435812030564,45.41961081243304,607.80999999999995 	5.83435609866573,45.41961383310529,607.86000000000001 
</coordinates></LineString>
<LineString><coordinates>
	5.83435812030564,45.41961081243304,607.80999999999995 	5.83435678230432,45.41960706506782,608.97000000000003 
</coordinates></LineString>
<LineString><coordinates>
	5.83435812030564,45.41961081243304,607.80999999999995 	5.83435607037325,45.41960816291765,606.21000000000004 
</coordinates></LineString>
<LineString><coordinates>
	5.83435812030564,45.41961081243304,607.80999999999995 	5.83425780920592,45.41961132323069,609.82000000000005 	5.83426655718058,45.41962010740160,609.84000000000003 
</coordinates></LineString>
<LineString><coordinates>
	5.83425780920592,45.41961132323069,609.82000000000005 	5.83425049214665,45.41961069481066,609.95000000000005 
</coordinates></LineString>
<LineString><coordinates>
	5.83425780920592,45.41961132323069,609.82000000000005 	5.83425783366925,45.41960160109704,609.97000000000003 
</coordinates></LineString>
<LineString><coordinates>
	5.83425780920592,45.41961132323069,609.82000000000005 	5.83426721577403,45.41960262830504,609.85000000000002 
</coordinates></LineString>
<LineString><coordinates>
	5.83425780920592,45.41961132323069,609.82000000000005 	5.83429029948377,45.41960160498345,609.66999999999996 
</coordinates></LineString>
<LineString><coordinates>
	5.83425780920592,45.41961132323069,609.82000000000005 	5.83425666189205,45.41960883132670,610.98000000000002 
</coordinates></LineString>
<LineString><coordinates>
	5.83425780920592,45.41961132323069,609.82000000000005 	5.83426083250003,45.41961043802485,608.41999999999996 
</coordinates></LineString>
<LineString><coordinates>
	5.83425780920592,45.41961132323069,609.82000000000005 	5.83427292627192,45.41962733039356,614.61000000000001 
</coordinates></LineString>
<LineString><coordinates>
	5.83425780920592,45.41961132323069,609.82000000000005 	5.83423231867161,45.41959746396905,609.98000000000002 	5.83421565679252,45.41960165832852,609.90999999999997 
</coordinates></LineString>
<LineString><coordinates>
	5.83423231867161,45.41959746396905,609.98000000000002 	5.83421905440624,45.41959293259887,609.94000000000005 
</coordinates></LineString>
<LineString><coordinates>
	5.83423231867161,45.41959746396905,609.98000000000002 	5.83422638242723,45.41958356918017,610.17999999999995 
</coordinates></LineString>
<LineString><coordinates>
	5.83423231867161,45.41959746396905,609.98000000000002 	5.83424238119762,45.41959676401361,610.15999999999997 
</coordinates></LineString>
<LineString><coordinates>
	5.83423231867161,45.41959746396905,609.98000000000002 	5.83424256864826,45.41960306034777,610.32000000000005 
</coordinates></LineString>
<LineString><coordinates>
	5.83423231867161,45.41959746396905,609.98000000000002 	5.83423198486796,45.41960611361503,609.96000000000004 
</coordinates></LineString>
<LineString><coordinates>
	5.83423231867161,45.41959746396905,609.98000000000002 	5.83422657691792,45.41960021696462,611.70000000000005 
</coordinates></LineString>
<LineString><coordinates>
	5.83423231867161,45.41959746396905,609.98000000000002 	5.83423254697965,45.41959691821466,608.78999999999996 
</coordinates></LineString>
<LineString><coordinates>
	5.83423231867161,45.41959746396905,609.98000000000002 	5.83421045822576,45.41958207432978,609.86000000000001 	5.83420815783360,45.41957186984437,609.88999999999999 
</coordinates></LineString>
<LineString><coordinates>
	5.83421045822576,45.41958207432978,609.86000000000001 	5.83416858493090,45.41957798335497,609.75999999999999 
</coordinates></LineString>
<LineString><coordinates>
	5.83421045822576,45.41958207432978,609.86000000000001 	5.83422610748814,45.41958573634692,609.88999999999999 
</coordinates></LineString>
<LineString><coordinates>
	5.83421045822576,45.41958207432978,609.86000000000001 	5.83422852757556,45.41957280422781,609.94000000000005 
</coordinates></LineString>
<LineString><coordinates>
	5.83421045822576,45.41958207432978,609.86000000000001 	5.83421169429842,45.41958123350723,610.75000000000000 
</coordinates></LineString>
<LineString><coordinates>
	5.83421045822576,45.41958207432978,609.86000000000001 	5.83421020290851,45.41958208067007,608.91999999999996 
</coordinates></LineString>
<LineString><coordinates>
	5.83421045822576,45.41958207432978,609.86000000000001 	5.83414385011909,45.41955879447320,610.24000000000001 	5.83412451929748,45.41956584553360,610.64999999999998 
</coordinates></LineString>
<LineString><coordinates>
	5.83414385011909,45.41955879447320,610.24000000000001 	5.83414561123692,45.41957099266229,610.39999999999998 
</coordinates></LineString>
<LineString><coordinates>
	5.83414385011909,45.41955879447320,610.24000000000001 	5.83416330788584,45.41956704265947,610.60000000000002 
</coordinates></LineString>
<LineString><coordinates>
	5.83414385011909,45.41955879447320,610.24000000000001 	5.83416207702297,45.41955267096390,611.05999999999995 
</coordinates></LineString>
<LineString><coordinates>
	5.83414385011909,45.41955879447320,610.24000000000001 	5.83413467544515,45.41955425155292,610.64999999999998 
</coordinates></LineString>
<LineString><coordinates>
	5.83414385011909,45.41955879447320,610.24000000000001 	5.83414370571746,45.41956356880800,611.96000000000004 
</coordinates></LineString>
<LineString><coordinates>
	5.83414385011909,45.41955879447320,610.24000000000001 	5.83414012839512,45.41956104723157,608.82000000000005 
</coordinates></LineString>
<LineString><coordinates>
	5.83414385011909,45.41955879447320,610.24000000000001 	5.83404106620944,45.41957628914252,612.29999999999995 	5.83405093267268,45.41956146185390,612.40999999999997 
</coordinates></LineString>
<LineString><coordinates>
	5.83404106620944,45.41957628914252,612.29999999999995 	5.83407623733839,45.41956650438674,612.90999999999997 
</coordinates></LineString>
<LineString><coordinates>
	5.83404106620944,45.41957628914252,612.29999999999995 	5.83404624295084,45.41958012121800,612.47000000000003 
</coordinates></LineString>
<LineString><coordinates>
	5.83404106620944,45.41957628914252,612.29999999999995 	5.83401997715286,45.41957375233272,612.33000000000004 
</coordinates></LineString>
<LineString><coordinates>
	5.83404106620944,45.41957628914252,612.29999999999995 	5.83404214599460,45.41957743251353,613.37000000000000 
</coordinates></LineString>
<LineString><coordinates>
	5.83404106620944,45.41957628914252,612.29999999999995 	5.83403803103381,45.41957438419952,610.54999999999995 
</coordinates></LineString>
<LineString><coordinates>
	5.83404106620944,45.41957628914252,612.29999999999995 	5.83401470988774,45.41954768901343,610.88000000000000 	5.83403767293062,45.41955702036441,611.00999999999999 
</coordinates></LineString>
<LineString><coordinates>
	5.83401470988774,45.41954768901343,610.88000000000000 	5.83403444434130,45.41957933402534,610.99000000000001 
</coordinates></LineString>
<LineString><coordinates>
	5.83401470988774,45.41954768901343,610.88000000000000 	5.83400783808034,45.41956361212181,610.90999999999997 
</coordinates></LineString>
<LineString><coordinates>
	5.83401470988774,45.41954768901343,610.88000000000000 	5.83398227973072,45.41955605547733,610.97000000000003 
</coordinates></LineString>
<LineString><coordinates>
	5.83401470988774,45.41954768901343,610.88000000000000 	5.83401250980906,45.41954459314954,610.76999999999998 
</coordinates></LineString>
<LineString><coordinates>
	5.83401470988774,45.41954768901343,610.88000000000000 	5.83401583180770,45.41954712106995,612.09000000000003 
</coordinates></LineString>
<LineString><coordinates>
	5.83401470988774,45.41954768901343,610.88000000000000 	5.83401253519089,45.41954765299973,610.40999999999997 
</coordinates></LineString>
<LineString><coordinates>
	5.83401470988774,45.41954768901343,610.88000000000000 	5.83395829782021,45.41952892661644,614.33000000000004 	5.83397911228870,45.41952597939391,614.35000000000002 
</coordinates></LineString>
<LineString><coordinates>
	5.83395829782021,45.41952892661644,614.33000000000004 	5.83399447144452,45.41953405933893,614.13000000000000 
</coordinates></LineString>
<LineString><coordinates>
	5.83395829782021,45.41952892661644,614.33000000000004 	5.83396049176657,45.41953445301521,614.34000000000003 
</coordinates></LineString>
<LineString><coordinates>
	5.83395829782021,45.41952892661644,614.33000000000004 	5.83396005104050,45.41951799137270,614.45000000000005 
</coordinates></LineString>
<LineString><coordinates>
	5.83395829782021,45.41952892661644,614.33000000000004 	5.83395971106627,45.41952907155271,615.46000000000004 
</coordinates></LineString>
<LineString><coordinates>
	5.83395829782021,45.41952892661644,614.33000000000004 	5.83395781582045,45.41952695827396,613.50000000000000 
</coordinates></LineString>
<LineString><coordinates>
	5.83395829782021,45.41952892661644,614.33000000000004 	5.83397106079943,45.41952599929144,611.83000000000004 
</coordinates></LineString>
<LineString><coordinates>
	5.83395829782021,45.41952892661644,614.33000000000004 	5.83396084687160,45.41952112210620,610.90999999999997 
</coordinates></LineString>
<LineString><coordinates>
	5.83395829782021,45.41952892661644,614.33000000000004 	5.83395980386211,45.41950539553188,613.09000000000003 	5.83395276626942,45.41950268982831,613.10000000000002 
</coordinates></LineString>
<LineString><coordinates>
	5.83395980386211,45.41950539553188,613.09000000000003 	5.83392966257108,45.41951352511827,612.92999999999995 
</coordinates></LineString>
<LineString><coordinates>
	5.83395980386211,45.41950539553188,613.09000000000003 	5.83395298356661,45.41951213591649,613.11000000000001 
</coordinates></LineString>
<LineString><coordinates>
	5.83395980386211,45.41950539553188,613.09000000000003 	5.83395630680606,45.41951979461339,613.07000000000005 
</coordinates></LineString>
<LineString><coordinates>
	5.83395980386211,45.41950539553188,613.09000000000003 	5.83396924695412,45.41951785304479,613.46000000000004 
</coordinates></LineString>
<LineString><coordinates>
	5.83395980386211,45.41950539553188,613.09000000000003 	5.83396704726022,45.41950710596924,613.22000000000003 
</coordinates></LineString>
<LineString><coordinates>
	5.83395980386211,45.41950539553188,613.09000000000003 	5.83395747000073,45.41950473337038,613.94000000000005 
</coordinates></LineString>
<LineString><coordinates>
	5.83395980386211,45.41950539553188,613.09000000000003 	5.83395590046234,45.41950657262583,612.14999999999998 
</coordinates></LineString>
<LineString><coordinates>
	5.83395980386211,45.41950539553188,613.09000000000003 	5.83392724318977,45.41951115481115,613.00999999999999 	5.83394661615726,45.41950239246915,612.90999999999997 
</coordinates></LineString>
<LineString><coordinates>
	5.83392724318977,45.41951115481115,613.00999999999999 	5.83393411098550,45.41951557500094,613.11000000000001 
</coordinates></LineString>
<LineString><coordinates>
	5.83392724318977,45.41951115481115,613.00999999999999 	5.83391911231335,45.41950703602615,612.97000000000003 
</coordinates></LineString>
<LineString><coordinates>
	5.83392724318977,45.41951115481115,613.00999999999999 	5.83391905015325,45.41951855937850,613.49000000000001 
</coordinates></LineString>
<LineString><coordinates>
	5.83392724318977,45.41951115481115,613.00999999999999 	5.83392815604623,45.41951662300652,613.20000000000005 
</coordinates></LineString>
<LineString><coordinates>
	5.83392724318977,45.41951115481115,613.00999999999999 	5.83392510900369,45.41951192791706,613.99000000000001 
</coordinates></LineString>
<LineString><coordinates>
	5.83392724318977,45.41951115481115,613.00999999999999 	5.83392687371743,45.41951143402773,612.11000000000001 
</coordinates></LineString>
<LineString><coordinates>
	5.83392724318977,45.41951115481115,613.00999999999999 	5.83392752993103,45.41948369338098,610.30999999999995 	5.83392279469528,45.41948102052101,610.34000000000003 
</coordinates></LineString>
<LineString><coordinates>
	5.83392752993103,45.41948369338098,610.30999999999995 	5.83393517717717,45.41948836425899,610.39999999999998 
</coordinates></LineString>
<LineString><coordinates>
	5.83392752993103,45.41948369338098,610.30999999999995 	5.83391033740356,45.41949771241251,610.04999999999995 
</coordinates></LineString>
<LineString><coordinates>
	5.83392752993103,45.41948369338098,610.30999999999995 	5.83391265690838,45.41948532288230,610.34000000000003 
</coordinates></LineString>
<LineString><coordinates>
	5.83392752993103,45.41948369338098,610.30999999999995 	5.83393182942230,45.41949042769646,610.20000000000005 
</coordinates></LineString>
<LineString><coordinates>
	5.83392752993103,45.41948369338098,610.30999999999995 	5.83392619933420,45.41948264625077,611.07000000000005 
</coordinates></LineString>
<LineString><coordinates>
	5.83392752993103,45.41948369338098,610.30999999999995 	5.83392756306755,45.41948180226142,609.84000000000003 
</coordinates></LineString>
<LineString><coordinates>
	5.83392752993103,45.41948369338098,610.30999999999995 	5.83396084418159,45.41945469174352,610.04999999999995 	5.83395019452432,45.41945387601275,610.45000000000005 
</coordinates></LineString>
<LineString><coordinates>
	5.83396084418159,45.41945469174352,610.04999999999995 	5.83394467169420,45.41946355464634,610.39999999999998 
</coordinates></LineString>
<LineString><coordinates>
	5.83396084418159,45.41945469174352,610.04999999999995 	5.83396683799609,45.41945697329382,610.05999999999995 
</coordinates></LineString>
<LineString><coordinates>
	5.83396084418159,45.41945469174352,610.04999999999995 	5.83396259577204,45.41944627693581,610.05999999999995 
</coordinates></LineString>
<LineString><coordinates>
	5.83396084418159,45.41945469174352,610.04999999999995 	5.83395382747256,45.41945495598780,611.49000000000001 
</coordinates></LineString>
<LineString><coordinates>
	5.83396084418159,45.41945469174352,610.04999999999995 	5.83395857333754,45.41945528821513,609.67999999999995 
</coordinates></LineString>
<LineString><coordinates>
	5.83396084418159,45.41945469174352,610.04999999999995 	5.83396244761818,45.41943565894695,611.32000000000005 	5.83397021964504,45.41943771631436,611.47000000000003 
</coordinates></LineString>
<LineString><coordinates>
	5.83396244761818,45.41943565894695,611.32000000000005 	5.83397843717628,45.41942058960867,611.38999999999999 
</coordinates></LineString>
<LineString><coordinates>
	5.83396244761818,45.41943565894695,611.32000000000005 	5.83395881955487,45.41942701766371,611.37000000000000 
</coordinates></LineString>
<LineString><coordinates>
	5.83396244761818,45.41943565894695,611.32000000000005 	5.83395773489040,45.41943343560019,611.32000000000005 
</coordinates></LineString>
<LineString><coordinates>
	5.83396244761818,45.41943565894695,611.32000000000005 	5.83396201436675,45.41944998195200,611.41999999999996 
</coordinates></LineString>
<LineString><coordinates>
	5.83396244761818,45.41943565894695,611.32000000000005 	5.83395014089523,45.41944514597355,611.36000000000001 
</coordinates></LineString>
<LineString><coordinates>
	5.83396244761818,45.41943565894695,611.32000000000005 	5.83396186496745,45.41943423318849,612.67999999999995 
</coordinates></LineString>
<LineString><coordinates>
	5.83396244761818,45.41943565894695,611.32000000000005 	5.83396154050665,45.41943541142884,610.90999999999997 
</coordinates></LineString>
<LineString><coordinates>
	5.83396244761818,45.41943565894695,611.32000000000005 	5.83396306053098,45.41943258324730,609.88999999999999 
</coordinates></LineString>
<LineString><coordinates>
	5.83396244761818,45.41943565894695,611.32000000000005 	5.83395885182807,45.41941234455868,610.71000000000004 	5.83395299180628,45.41940762930417,610.72000000000003 
</coordinates></LineString>
<LineString><coordinates>
	5.83395885182807,45.41941234455868,610.71000000000004 	5.83394094366167,45.41941206911770,610.72000000000003 
</coordinates></LineString>
<LineString><coordinates>
	5.83395885182807,45.41941234455868,610.71000000000004 	5.83394306395568,45.41941867751534,610.76999999999998 
</coordinates></LineString>
<LineString><coordinates>
	5.83395885182807,45.41941234455868,610.71000000000004 	5.83394917316500,45.41942581696443,610.76999999999998 
</coordinates></LineString>
<LineString><coordinates>
	5.83395885182807,45.41941234455868,610.71000000000004 	5.83397003672724,45.41943150988122,610.80999999999995 
</coordinates></LineString>
<LineString><coordinates>
	5.83395885182807,45.41941234455868,610.71000000000004 	5.83397653092382,45.41942846817226,610.92999999999995 
</coordinates></LineString>
<LineString><coordinates>
	5.83395885182807,45.41941234455868,610.71000000000004 	5.83396701908382,45.41940953134932,611.19000000000005 
</coordinates></LineString>
<LineString><coordinates>
	5.83395885182807,45.41941234455868,610.71000000000004 	5.83395539605263,45.41941225033990,612.25000000000000 
</coordinates></LineString>
<LineString><coordinates>
	5.83395885182807,45.41941234455868,610.71000000000004 	5.83395413910242,45.41941012121173,608.76999999999998 
</coordinates></LineString>
<LineString><coordinates>
	5.83395885182807,45.41941234455868,610.71000000000004 	5.83390595916324,45.41941536818033,608.90999999999997 	5.83390380123529,45.41941056099915,609.35000000000002 
</coordinates></LineString>
<LineString><coordinates>
	5.83390595916324,45.41941536818033,608.90999999999997 	5.83390865310058,45.41942322253272,608.92999999999995 
</coordinates></LineString>
<LineString><coordinates>
	5.83390595916324,45.41941536818033,608.90999999999997 	5.83389402601621,45.41943231709792,608.99000000000001 
</coordinates></LineString>
<LineString><coordinates>
	5.83390595916324,45.41941536818033,608.90999999999997 	5.83387660147087,45.41943148955363,608.94000000000005 
</coordinates></LineString>
<LineString><coordinates>
	5.83390595916324,45.41941536818033,608.90999999999997 	5.83385150679199,45.41943319282245,609.20000000000005 
</coordinates></LineString>
<LineString><coordinates>
	5.83390595916324,45.41941536818033,608.90999999999997 	5.83385734836162,45.41941711527566,609.34000000000003 
</coordinates></LineString>
<LineString><coordinates>
	5.83390595916324,45.41941536818033,608.90999999999997 	5.83392334521183,45.41940521495180,609.16999999999996 
</coordinates></LineString>
<LineString><coordinates>
	5.83390595916324,45.41941536818033,608.90999999999997 	5.83391467593450,45.41941587185300,609.04999999999995 
</coordinates></LineString>
<LineString><coordinates>
	5.83390595916324,45.41941536818033,608.90999999999997 	5.83392762793436,45.41941672043294,609.39999999999998 
</coordinates></LineString>
<LineString><coordinates>
	5.83390595916324,45.41941536818033,608.90999999999997 	5.83390612896084,45.41941365369568,609.95000000000005 
</coordinates></LineString>
<LineString><coordinates>
	5.83390595916324,45.41941536818033,608.90999999999997 	5.83390691128422,45.41941651472261,608.63999999999999 
</coordinates></LineString>
<LineString><coordinates>
	5.83390595916324,45.41941536818033,608.90999999999997 	5.83383997703426,45.41943266897653,609.20000000000005 	5.83383891402526,45.41942675443799,609.17999999999995 
</coordinates></LineString>
<LineString><coordinates>
	5.83383997703426,45.41943266897653,609.20000000000005 	5.83381833443280,45.41941907413544,610.30999999999995 
</coordinates></LineString>
<LineString><coordinates>
	5.83383997703426,45.41943266897653,609.20000000000005 	5.83383072835668,45.41943685924009,609.59000000000003 
</coordinates></LineString>
<LineString><coordinates>
	5.83383997703426,45.41943266897653,609.20000000000005 	5.83384165746387,45.41943559771829,609.32000000000005 
</coordinates></LineString>
<LineString><coordinates>
	5.83383997703426,45.41943266897653,609.20000000000005 	5.83385255956503,45.41943379678121,609.57000000000005 
</coordinates></LineString>
<LineString><coordinates>
	5.83383997703426,45.41943266897653,609.20000000000005 	5.83384194795169,45.41942352861179,609.19000000000005 
</coordinates></LineString>
<LineString><coordinates>
	5.83383997703426,45.41943266897653,609.20000000000005 	5.83383991278730,45.41942627956835,609.94000000000005 
</coordinates></LineString>
<LineString><coordinates>
	5.83383997703426,45.41943266897653,609.20000000000005 	5.83383417799924,45.41943938399650,606.25000000000000 
</coordinates></LineString>
<LineString><coordinates>
	5.83383997703426,45.41943266897653,609.20000000000005 	5.83384115870006,45.41943840054059,606.45000000000005 	5.83383663338066,45.41944247352479,606.39999999999998 
</coordinates></LineString>
<LineString><coordinates>
	5.83384115870006,45.41943840054059,606.45000000000005 	5.83384189927784,45.41943532167171,606.44000000000005 
</coordinates></LineString>
<LineString><coordinates>
	5.83384115870006,45.41943840054059,606.45000000000005 	5.83383353970752,45.41943939984508,606.40999999999997 
</coordinates></LineString>
<LineString><coordinates>
	5.83384115870006,45.41943840054059,606.45000000000005 	5.83383316286689,45.41943697882033,606.38999999999999 
</coordinates></LineString>
<LineString><coordinates>
	5.83384115870006,45.41943840054059,606.45000000000005 	5.83384802034645,45.41944525126985,606.45000000000005 
</coordinates></LineString>
<LineString><coordinates>
	5.83384115870006,45.41943840054059,606.45000000000005 	5.83384721181572,45.41942654840591,609.48000000000002 
</coordinates></LineString>
<LineString><coordinates>
	5.83384115870006,45.41943840054059,606.45000000000005 	5.83383874669425,45.41943873047241,606.16999999999996 
</coordinates></LineString>
<LineString><coordinates>
	5.83384115870006,45.41943840054059,606.45000000000005 	5.83382814655087,45.41943890365629,606.78999999999996 	5.83382866905317,45.41944168112087,606.84000000000003 
</coordinates></LineString>
<LineString><coordinates>
	5.83382814655087,45.41943890365629,606.78999999999996 	5.83382659828105,45.41943606164698,606.73000000000002 
</coordinates></LineString>
<LineString><coordinates>
	5.83382814655087,45.41943890365629,606.78999999999996 	5.83382580819280,45.41943815158962,607.62000000000000 
</coordinates></LineString>
<LineString><coordinates>
	5.83382814655087,45.41943890365629,606.78999999999996 	5.83382876970624,45.41944113853690,606.10000000000002 
</coordinates></LineString>
<LineString><coordinates>
	5.83382814655087,45.41943890365629,606.78999999999996 	5.83377374118272,45.41944745563846,605.40999999999997 	5.83377116264686,45.41944445918077,605.42999999999995 
</coordinates></LineString>
<LineString><coordinates>
	5.83377374118272,45.41944745563846,605.40999999999997 	5.83376134563658,45.41946027537293,605.23000000000002 
</coordinates></LineString>
<LineString><coordinates>
	5.83377374118272,45.41944745563846,605.40999999999997 	5.83377762617225,45.41945357015257,605.39999999999998 
</coordinates></LineString>
<LineString><coordinates>
	5.83377374118272,45.41944745563846,605.40999999999997 	5.83378915470407,45.41944896322970,605.63999999999999 
</coordinates></LineString>
<LineString><coordinates>
	5.83377374118272,45.41944745563846,605.40999999999997 	5.83378000135043,45.41943973901657,605.73000000000002 
</coordinates></LineString>
<LineString><coordinates>
	5.83377374118272,45.41944745563846,605.40999999999997 	5.83378762688639,45.41942865797036,610.66999999999996 
</coordinates></LineString>
<LineString><coordinates>
	5.83377374118272,45.41944745563846,605.40999999999997 	5.83377437047298,45.41944725998546,605.04999999999995 
</coordinates></LineString>
<LineString><coordinates>
	5.83377374118272,45.41944745563846,605.40999999999997 	5.83363917441029,45.41950156470679,604.04999999999995 	5.83365029626764,45.41949138701874,603.99000000000001 
</coordinates></LineString>
<LineString><coordinates>
	5.83363917441029,45.41950156470679,604.04999999999995 	5.83363661351676,45.41947849465669,604.25000000000000 
</coordinates></LineString>
<LineString><coordinates>
	5.83363917441029,45.41950156470679,604.04999999999995 	5.83361702490890,45.41947529042034,603.83000000000004 
</coordinates></LineString>
<LineString><coordinates>
	5.83363917441029,45.41950156470679,604.04999999999995 	5.83362010221334,45.41947548406009,603.88999999999999 
</coordinates></LineString>
<LineString><coordinates>
	5.83363917441029,45.41950156470679,604.04999999999995 	5.83363357300631,45.41949180222361,604.55999999999995 
</coordinates></LineString>
<LineString><coordinates>
	5.83363917441029,45.41950156470679,604.04999999999995 	5.83364650945291,45.41950255277613,604.13000000000000 
</coordinates></LineString>
<LineString><coordinates>
	5.83363917441029,45.41950156470679,604.04999999999995 	5.83366857965331,45.41949660396662,603.88999999999999 
</coordinates></LineString>
<LineString><coordinates>
	5.83363917441029,45.41950156470679,604.04999999999995 	5.83365346972724,45.41949094817134,604.19000000000005 
</coordinates></LineString>
<LineString><coordinates>
	5.83363917441029,45.41950156470679,604.04999999999995 	5.83364602338821,45.41949284331795,607.40999999999997 
</coordinates></LineString>
<LineString><coordinates>
	5.83363917441029,45.41950156470679,604.04999999999995 	5.83364288100756,45.41950156269362,602.64999999999998 
</coordinates></LineString>
<LineString><coordinates>
	5.83363917441029,45.41950156470679,604.04999999999995 	5.83364211505652,45.41950158171066,602.63999999999999 	5.83364516085827,45.41950114603297,601.23000000000002 
</coordinates></LineString>
<LineString><coordinates>
	5.83364211505652,45.41950158171066,602.63999999999999 	5.83364486175233,45.41950538412335,602.65999999999997 
</coordinates></LineString>
<LineString><coordinates>
	5.83364211505652,45.41950158171066,602.63999999999999 	5.83363890230744,45.41950634221151,602.62000000000000 
</coordinates></LineString>
<LineString><coordinates>
	5.83364211505652,45.41950158171066,602.63999999999999 	5.83363704350462,45.41949729693449,602.79999999999995 
</coordinates></LineString>
<LineString><coordinates>
	5.83364211505652,45.41950158171066,602.63999999999999 	5.83364165271227,45.41949745253967,602.67999999999995 
</coordinates></LineString>
<LineString><coordinates>
	5.83364211505652,45.41950158171066,602.63999999999999 	5.83363563883518,45.41950498301072,603.08000000000004 
</coordinates></LineString>
<LineString><coordinates>
	5.83364211505652,45.41950158171066,602.63999999999999 	5.83364143911733,45.41950339877549,602.46000000000004 
</coordinates></LineString>
<LineString><coordinates>
	5.83364211505652,45.41950158171066,602.63999999999999 	5.83358785032383,45.41951805135579,602.23000000000002 	5.83358966740291,45.41952115673681,602.17999999999995 
</coordinates></LineString>
<LineString><coordinates>
	5.83358785032383,45.41951805135579,602.23000000000002 	5.83358390234270,45.41951067820135,602.26999999999998 
</coordinates></LineString>
<LineString><coordinates>
	5.83358785032383,45.41951805135579,602.23000000000002 	5.83356421263488,45.41951566775193,602.20000000000005 
</coordinates></LineString>
<LineString><coordinates>
	5.83358785032383,45.41951805135579,602.23000000000002 	5.83355329371456,45.41952223982793,601.77999999999997 
</coordinates></LineString>
<LineString><coordinates>
	5.83358785032383,45.41951805135579,602.23000000000002 	5.83359516736578,45.41951867981880,602.38000000000000 
</coordinates></LineString>
<LineString><coordinates>
	5.83358785032383,45.41951805135579,602.23000000000002 	5.83360229581592,45.41950788116896,602.35000000000002 
</coordinates></LineString>
<LineString><coordinates>
	5.83358785032383,45.41951805135579,602.23000000000002 	5.83359030898402,45.41951610001659,603.02999999999997 
</coordinates></LineString>
<LineString><coordinates>
	5.83358785032383,45.41951805135579,602.23000000000002 	5.83358699436237,45.41951627232455,601.70000000000005 
</coordinates></LineString>
<LineString><coordinates>
	5.83358785032383,45.41951805135579,602.23000000000002 	5.83353923283200,45.41952988006411,601.77999999999997 	5.83353496653312,45.41952125461305,601.60000000000002 
</coordinates></LineString>
<LineString><coordinates>
	5.83353923283200,45.41952988006411,601.77999999999997 	5.83359386420871,45.41951052088708,602.60000000000002 
</coordinates></LineString>
<LineString><coordinates>
	5.83353923283200,45.41952988006411,601.77999999999997 	5.83352710856064,45.41952514028239,601.57000000000005 
</coordinates></LineString>
<LineString><coordinates>
	5.83353923283200,45.41952988006411,601.77999999999997 	5.83353943908321,45.41952123358689,601.55999999999995 
</coordinates></LineString>
<LineString><coordinates>
	5.83353923283200,45.41952988006411,601.77999999999997 	5.83353756635517,45.41951956981276,604.63000000000000 
</coordinates></LineString>
<LineString><coordinates>
	5.83353923283200,45.41952988006411,601.77999999999997 	5.83353914567732,45.41953069235508,599.85000000000002 
</coordinates></LineString>
<LineString><coordinates>
	5.83353923283200,45.41952988006411,601.77999999999997 	5.83351156495506,45.41951337427435,606.80999999999995 	5.83348667243020,45.41949868987201,611.98000000000002 
</coordinates></LineString>
<LineString><coordinates>
	5.83363917441029,45.41950156470679,604.04999999999995 	5.83362867947480,45.41947320078026,604.11000000000001 	5.83361753554270,45.41947527774243,604.14999999999998 
</coordinates></LineString>
<LineString><coordinates>
	5.83362867947480,45.41947320078026,604.11000000000001 	5.83361150609030,45.41949271015342,604.21000000000004 
</coordinates></LineString>
<LineString><coordinates>
	5.83362867947480,45.41947320078026,604.11000000000001 	5.83363087460255,45.41948385796159,604.24000000000001 
</coordinates></LineString>
<LineString><coordinates>
	5.83362867947480,45.41947320078026,604.11000000000001 	5.83364380326249,45.41949955948498,604.26999999999998 
</coordinates></LineString>
<LineString><coordinates>
	5.83362867947480,45.41947320078026,604.11000000000001 	5.83363237871148,45.41947049852621,604.13999999999999 
</coordinates></LineString>
<LineString><coordinates>
	5.83362867947480,45.41947320078026,604.11000000000001 	5.83362955508163,45.41947281898427,604.75999999999999 
</coordinates></LineString>
<LineString><coordinates>
	5.83362867947480,45.41947320078026,604.11000000000001 	5.83362552809128,45.41948174035074,602.37000000000000 
</coordinates></LineString>
<LineString><coordinates>
	5.83362867947480,45.41947320078026,604.11000000000001 	5.83362277482677,45.41948801968341,603.85000000000002 	5.83360574345613,45.41949249316979,603.85000000000002 
</coordinates></LineString>
<LineString><coordinates>
	5.83362277482677,45.41948801968341,603.85000000000002 	5.83361072420997,45.41948219791232,603.99000000000001 
</coordinates></LineString>
<LineString><coordinates>
	5.83362277482677,45.41948801968341,603.85000000000002 	5.83362750354542,45.41947268989129,603.79999999999995 
</coordinates></LineString>
<LineString><coordinates>
	5.83362277482677,45.41948801968341,603.85000000000002 	5.83362939670778,45.41948497482417,604.27999999999997 
</coordinates></LineString>
<LineString><coordinates>
	5.83362277482677,45.41948801968341,603.85000000000002 	5.83363099897616,45.41948889566503,602.27999999999997 
</coordinates></LineString>
<LineString><coordinates>
	5.83362277482677,45.41948801968341,603.85000000000002 	5.83356052041014,45.41950063704577,597.40999999999997 	5.83355652040977,45.41951009782446,597.75000000000000 
</coordinates></LineString>
<LineString><coordinates>
	5.83356052041014,45.41950063704577,597.40999999999997 	5.83350746067540,45.41950798530855,597.08000000000004 
</coordinates></LineString>
<LineString><coordinates>
	5.83356052041014,45.41950063704577,597.40999999999997 	5.83354788594739,45.41948825873175,597.53999999999996 
</coordinates></LineString>
<LineString><coordinates>
	5.83356052041014,45.41950063704577,597.40999999999997 	5.83356400241976,45.41948848870331,597.79999999999995 
</coordinates></LineString>
<LineString><coordinates>
	5.83356052041014,45.41950063704577,597.40999999999997 	5.83359122353596,45.41949096336785,599.05999999999995 
</coordinates></LineString>
<LineString><coordinates>
	5.83356052041014,45.41950063704577,597.40999999999997 	5.83358228371942,45.41950387731369,598.26999999999998 
</coordinates></LineString>
<LineString><coordinates>
	5.83356052041014,45.41950063704577,597.40999999999997 	5.83356528592467,45.41949880846246,598.51999999999998 
</coordinates></LineString>
<LineString><coordinates>
	5.83356052041014,45.41950063704577,597.40999999999997 	5.83356061371048,45.41949739422065,596.57000000000005 
</coordinates></LineString>
<LineString><coordinates>
	5.83356052041014,45.41950063704577,597.40999999999997 	5.83351608909852,45.41950417052680,596.71000000000004 	5.83350994183995,45.41950648348303,596.94000000000005 
</coordinates></LineString>
<LineString><coordinates>
	5.83351608909852,45.41950417052680,596.71000000000004 	5.83352680132611,45.41951389614370,597.14999999999998 
</coordinates></LineString>
<LineString><coordinates>
	5.83351608909852,45.41950417052680,596.71000000000004 	5.83355316978469,45.41950955091224,597.60000000000002 
</coordinates></LineString>
<LineString><coordinates>
	5.83351608909852,45.41950417052680,596.71000000000004 	5.83354253493818,45.41948605121455,597.10000000000002 
</coordinates></LineString>
<LineString><coordinates>
	5.83351608909852,45.41950417052680,596.71000000000004 	5.83352468404645,45.41948181366440,596.99000000000001 
</coordinates></LineString>
<LineString><coordinates>
	5.83351608909852,45.41950417052680,596.71000000000004 	5.83351399838528,45.41948027867367,596.60000000000002 
</coordinates></LineString>
<LineString><coordinates>
	5.83351608909852,45.41950417052680,596.71000000000004 	5.83352457756686,45.41950521998215,598.32000000000005 
</coordinates></LineString>
<LineString><coordinates>
	5.83351608909852,45.41950417052680,596.71000000000004 	5.83351613574996,45.41950254911423,595.52999999999997 
</coordinates></LineString>
<LineString><coordinates>
	5.83351608909852,45.41950417052680,596.71000000000004 	5.83353923283200,45.41952988006411,601.77999999999997 
</coordinates></LineString>
<LineString><coordinates>
	5.83351608909852,45.41950417052680,596.71000000000004 	5.83352106175213,45.41947839304373,595.76999999999998 	5.83352857856912,45.41945237236818,595.01999999999998 
</coordinates></LineString>
<LineString><coordinates>
	5.83352106175213,45.41947839304373,595.76999999999998 	5.83352231627628,45.41947026062589,595.76999999999998 
</coordinates></LineString>
<LineString><coordinates>
	5.83352106175213,45.41947839304373,595.76999999999998 	5.83350216709479,45.41947373133286,595.72000000000003 
</coordinates></LineString>
<LineString><coordinates>
	5.83352106175213,45.41947839304373,595.76999999999998 	5.83349708972088,45.41949231028446,595.86000000000001 
</coordinates></LineString>
<LineString><coordinates>
	5.83352106175213,45.41947839304373,595.76999999999998 	5.83352114758239,45.41950053438919,596.11000000000001 
</coordinates></LineString>
<LineString><coordinates>
	5.83352106175213,45.41947839304373,595.76999999999998 	5.83353439959170,45.41948184249895,596.33000000000004 
</coordinates></LineString>
<LineString><coordinates>
	5.83352106175213,45.41947839304373,595.76999999999998 	5.83351630973895,45.41948049133239,596.96000000000004 
</coordinates></LineString>
<LineString><coordinates>
	5.83352106175213,45.41947839304373,595.76999999999998 	5.83351480198683,45.41947845844013,594.33000000000004 
</coordinates></LineString>
<LineString><coordinates>
	5.83352106175213,45.41947839304373,595.76999999999998 	5.83346429153222,45.41944991776771,594.57000000000005 	5.83345811157525,45.41944647062853,594.63999999999999 
</coordinates></LineString>
<LineString><coordinates>
	5.83346429153222,45.41944991776771,594.57000000000005 	5.83351250863479,45.41947860539100,594.52999999999997 
</coordinates></LineString>
<LineString><coordinates>
	5.83346429153222,45.41944991776771,594.57000000000005 	5.83348116105919,45.41949072542877,594.88999999999999 
</coordinates></LineString>
<LineString><coordinates>
	5.83346429153222,45.41944991776771,594.57000000000005 	5.83344837742758,45.41948181780306,594.65999999999997 
</coordinates></LineString>
<LineString><coordinates>
	5.83346429153222,45.41944991776771,594.57000000000005 	5.83347132834382,45.41943984151410,594.72000000000003 
</coordinates></LineString>
<LineString><coordinates>
	5.83346429153222,45.41944991776771,594.57000000000005 	5.83348326598252,45.41945106695274,594.38000000000000 
</coordinates></LineString>
<LineString><coordinates>
	5.83346429153222,45.41944991776771,594.57000000000005 	5.83345948221534,45.41945597809847,597.39999999999998 
</coordinates></LineString>
<LineString><coordinates>
	5.83346429153222,45.41944991776771,594.57000000000005 	5.83346595064230,45.41945752777915,593.44000000000005 
</coordinates></LineString>
<LineString><coordinates>
	5.83346429153222,45.41944991776771,594.57000000000005 	5.83342295162992,45.41949478096435,591.91999999999996 
</coordinates></LineString>
<LineString><coordinates>
	5.83346429153222,45.41944991776771,594.57000000000005 	5.83348393876670,45.41942620634931,596.35000000000002 	5.83347898874216,45.41942434893058,596.37000000000000 
</coordinates></LineString>
<LineString><coordinates>
	5.83348393876670,45.41942620634931,596.35000000000002 	5.83348573708012,45.41941617013462,596.59000000000003 
</coordinates></LineString>
<LineString><coordinates>
	5.83348393876670,45.41942620634931,596.35000000000002 	5.83350130030257,45.41942577532012,596.59000000000003 
</coordinates></LineString>
<LineString><coordinates>
	5.83348393876670,45.41942620634931,596.35000000000002 	5.83348884619335,45.41943742629517,596.39999999999998 
</coordinates></LineString>
<LineString><coordinates>
	5.83348393876670,45.41942620634931,596.35000000000002 	5.83347194578380,45.41943685571887,596.48000000000002 
</coordinates></LineString>
<LineString><coordinates>
	5.83348393876670,45.41942620634931,596.35000000000002 	5.83348975989836,45.41942759207052,597.03999999999996 
</coordinates></LineString>
<LineString><coordinates>
	5.83348393876670,45.41942620634931,596.35000000000002 	5.83348897594686,45.41942725147688,594.90999999999997 
</coordinates></LineString>
<LineString><coordinates>
	5.83348393876670,45.41942620634931,596.35000000000002 	5.83356352180552,45.41933079587535,597.75000000000000 	5.83355399124196,45.41932680182884,597.73000000000002 
</coordinates></LineString>
<LineString><coordinates>
	5.83356352180552,45.41933079587535,597.75000000000000 	5.83356592282617,45.41931237338122,598.25000000000000 
</coordinates></LineString>
<LineString><coordinates>
	5.83356352180552,45.41933079587535,597.75000000000000 	5.83357368780594,45.41933216373499,597.82000000000005 
</coordinates></LineString>
<LineString><coordinates>
	5.83356352180552,45.41933079587535,597.75000000000000 	5.83359459846729,45.41930049968570,598.38000000000000 
</coordinates></LineString>
<LineString><coordinates>
	5.83356352180552,45.41933079587535,597.75000000000000 	5.83354102115207,45.41935367800865,597.87000000000000 
</coordinates></LineString>
<LineString><coordinates>
	5.83356352180552,45.41933079587535,597.75000000000000 	5.83354643065389,45.41935705425747,597.61000000000001 
</coordinates></LineString>
<LineString><coordinates>
	5.83356352180552,45.41933079587535,597.75000000000000 	5.83356008897466,45.41932349994428,601.10000000000002 
</coordinates></LineString>
<LineString><coordinates>
	5.83356352180552,45.41933079587535,597.75000000000000 	5.83355744086563,45.41932932659412,596.71000000000004 
</coordinates></LineString>
<LineString><coordinates>
	5.83356352180552,45.41933079587535,597.75000000000000 	5.83358145055656,45.41928552371287,599.23000000000002 
</coordinates></LineString>
<LineString><coordinates>
	5.83356352180552,45.41933079587535,597.75000000000000 	5.83357880695179,45.41929144026552,598.99000000000001 	5.83359236856265,45.41929425405942,598.88000000000000 
</coordinates></LineString>
<LineString><coordinates>
	5.83357880695179,45.41929144026552,598.99000000000001 	5.83359518569476,45.41927393093673,599.14999999999998 
</coordinates></LineString>
<LineString><coordinates>
	5.83357880695179,45.41929144026552,598.99000000000001 	5.83357796778619,45.41928489006807,599.13000000000000 
</coordinates></LineString>
<LineString><coordinates>
	5.83357880695179,45.41929144026552,598.99000000000001 	5.83355821998259,45.41930914408483,599.35000000000002 
</coordinates></LineString>
<LineString><coordinates>
	5.83357880695179,45.41929144026552,598.99000000000001 	5.83358344764587,45.41929222519025,603.50999999999999 
</coordinates></LineString>
<LineString><coordinates>
	5.83357880695179,45.41929144026552,598.99000000000001 	5.83357289253248,45.41929329737376,598.15999999999997 
</coordinates></LineString>
<LineString><coordinates>
	5.83357880695179,45.41929144026552,598.99000000000001 	5.83356984432260,45.41928347149805,611.23000000000002 
</coordinates></LineString>
<LineString><coordinates>
	5.83357880695179,45.41929144026552,598.99000000000001 	5.83363991398783,45.41922016216405,604.19000000000005 	5.83364524247219,45.41922192016530,604.26999999999998 
</coordinates></LineString>
<LineString><coordinates>
	5.83363991398783,45.41922016216405,604.19000000000005 	5.83363900931167,45.41923017619428,604.13000000000000 
</coordinates></LineString>
<LineString><coordinates>
	5.83363991398783,45.41922016216405,604.19000000000005 	5.83365022240707,45.41919884291884,604.32000000000005 
</coordinates></LineString>
<LineString><coordinates>
	5.83363991398783,45.41922016216405,604.19000000000005 	5.83362041054985,45.41922631728364,604.34000000000003 
</coordinates></LineString>
<LineString><coordinates>
	5.83363991398783,45.41922016216405,604.19000000000005 	5.83361541588610,45.41924399404632,604.74000000000001 
</coordinates></LineString>
<LineString><coordinates>
	5.83363991398783,45.41922016216405,604.19000000000005 	5.83362499030424,45.41921567192455,607.10000000000002 
</coordinates></LineString>
<LineString><coordinates>
	5.83363991398783,45.41922016216405,604.19000000000005 	5.83365023791528,45.41921702538909,602.47000000000003 
</coordinates></LineString>
<LineString><coordinates>
	5.83363991398783,45.41922016216405,604.19000000000005 	5.83368824933819,45.41917206472066,604.62000000000000 	5.83367131178479,45.41916564417737,604.60000000000002 
</coordinates></LineString>
<LineString><coordinates>
	5.83368824933819,45.41917206472066,604.62000000000000 	5.83367868199261,45.41915456947736,604.88999999999999 
</coordinates></LineString>
<LineString><coordinates>
	5.83368824933819,45.41917206472066,604.62000000000000 	5.83371647237283,45.41914093920659,604.98000000000002 
</coordinates></LineString>
<LineString><coordinates>
	5.83368824933819,45.41917206472066,604.62000000000000 	5.83369751148645,45.41916814417643,604.73000000000002 
</coordinates></LineString>
<LineString><coordinates>
	5.83368824933819,45.41917206472066,604.62000000000000 	5.83365950955671,45.41917754902886,604.69000000000005 
</coordinates></LineString>
<LineString><coordinates>
	5.83368824933819,45.41917206472066,604.62000000000000 	5.83363379012383,45.41920762221395,604.52999999999997 
</coordinates></LineString>
<LineString><coordinates>
	5.83368824933819,45.41917206472066,604.62000000000000 	5.83368101213251,45.41916792373013,606.55999999999995 
</coordinates></LineString>
<LineString><coordinates>
	5.83368824933819,45.41917206472066,604.62000000000000 	5.83369190190635,45.41917098387770,603.50999999999999 
</coordinates></LineString>
<LineString><coordinates>
	5.83368824933819,45.41917206472066,604.62000000000000 	5.83371485786086,45.41911379502362,608.54999999999995 	5.83369842073146,45.41910205122542,608.75999999999999 
</coordinates></LineString>
<LineString><coordinates>
	5.83371485786086,45.41911379502362,608.54999999999995 	5.83372508483307,45.41907042433003,608.35000000000002 
</coordinates></LineString>
<LineString><coordinates>
	5.83371485786086,45.41911379502362,608.54999999999995 	5.83372049935591,45.41910393342616,608.87000000000000 
</coordinates></LineString>
<LineString><coordinates>
	5.83371485786086,45.41911379502362,608.54999999999995 	5.83371978124908,45.41913554621760,608.77999999999997 
</coordinates></LineString>
<LineString><coordinates>
	5.83371485786086,45.41911379502362,608.54999999999995 	5.83368923749881,45.41914584607271,609.28999999999996 
</coordinates></LineString>
<LineString><coordinates>
	5.83371485786086,45.41911379502362,608.54999999999995 	5.83370487192241,45.41911602327136,611.51999999999998 
</coordinates></LineString>
<LineString><coordinates>
	5.83371485786086,45.41911379502362,608.54999999999995 	5.83371126666618,45.41911865493722,607.17999999999995 
</coordinates></LineString>
<LineString><coordinates>
	5.83371485786086,45.41911379502362,608.54999999999995 	5.83370885345188,45.41911385409057,607.49000000000001 
</coordinates></LineString>
<LineString><coordinates>
	5.83371485786086,45.41911379502362,608.54999999999995 	5.83371329453133,45.41905703491872,598.53999999999996 	5.83372902218448,45.41905205370077,598.52999999999997 
</coordinates></LineString>
<LineString><coordinates>
	5.83371329453133,45.41905703491872,598.53999999999996 	5.83373151398914,45.41902012682775,598.46000000000004 
</coordinates></LineString>
<LineString><coordinates>
	5.83371329453133,45.41905703491872,598.53999999999996 	5.83370134549362,45.41903536814673,598.49000000000001 
</coordinates></LineString>
<LineString><coordinates>
	5.83371329453133,45.41905703491872,598.53999999999996 	5.83370440065221,45.41905554547249,598.45000000000005 
</coordinates></LineString>
<LineString><coordinates>
	5.83371329453133,45.41905703491872,598.53999999999996 	5.83371442094560,45.41905655688072,600.80999999999995 
</coordinates></LineString>
<LineString><coordinates>
	5.83371329453133,45.41905703491872,598.53999999999996 	5.83371378715876,45.41905666263091,598.13999999999999 
</coordinates></LineString>
<LineString><coordinates>
	5.83371485786086,45.41911379502362,608.54999999999995 	5.83367448898261,45.41912442883299,611.36000000000001 	5.83367907401585,45.41912665536196,611.41999999999996 
</coordinates></LineString>
<LineString><coordinates>
	5.83367448898261,45.41912442883299,611.36000000000001 	5.83367073740431,45.41912353182263,611.39999999999998 
</coordinates></LineString>
<LineString><coordinates>
	5.83367448898261,45.41912442883299,611.36000000000001 	5.83366591299266,45.41913184289056,611.84000000000003 
</coordinates></LineString>
<LineString><coordinates>
	5.83367448898261,45.41912442883299,611.36000000000001 	5.83367875241011,45.41913044394061,611.44000000000005 
</coordinates></LineString>
<LineString><coordinates>
	5.83367448898261,45.41912442883299,611.36000000000001 	5.83367754540622,45.41912165252312,610.27999999999997 
</coordinates></LineString>
<LineString><coordinates>
	5.83367448898261,45.41912442883299,611.36000000000001 	5.83367510476794,45.41912396347340,611.74000000000001 
</coordinates></LineString>
<LineString><coordinates>
	5.83367448898261,45.41912442883299,611.36000000000001 	5.83365506166487,45.41913976351056,612.50999999999999 	5.83365172906329,45.41913957621028,612.52999999999997 
</coordinates></LineString>
<LineString><coordinates>
	5.83365506166487,45.41913976351056,612.50999999999999 	5.83365790899712,45.41914302333969,612.50999999999999 
</coordinates></LineString>
<LineString><coordinates>
	5.83365506166487,45.41913976351056,612.50999999999999 	5.83365398761297,45.41914384081333,612.55999999999995 
</coordinates></LineString>
<LineString><coordinates>
	5.83365506166487,45.41913976351056,612.50999999999999 	5.83366545308556,45.41913797527049,612.61000000000001 
</coordinates></LineString>
<LineString><coordinates>
	5.83365506166487,45.41913976351056,612.50999999999999 	5.83365767660991,45.41913582797854,612.69000000000005 
</coordinates></LineString>
<LineString><coordinates>
	5.83365506166487,45.41913976351056,612.50999999999999 	5.83366204354964,45.41914391084188,614.73000000000002 
</coordinates></LineString>
<LineString><coordinates>
	5.83365506166487,45.41913976351056,612.50999999999999 	5.83365642539442,45.41913891952451,611.10000000000002 
</coordinates></LineString>
<LineString><coordinates>
	5.83365506166487,45.41913976351056,612.50999999999999 	5.83365586154784,45.41915063536141,615.85000000000002 
</coordinates></LineString>
<LineString><coordinates>
	5.83365506166487,45.41913976351056,612.50999999999999 	5.83365528055012,45.41914668916451,614.57000000000005 
</coordinates></LineString>
<LineString><coordinates>
	5.83365506166487,45.41913976351056,612.50999999999999 	5.83365562423466,45.41915100130999,615.85000000000002 	5.83365912499972,45.41915199456218,615.92999999999995 
</coordinates></LineString>
<LineString><coordinates>
	5.83365562423466,45.41915100130999,615.85000000000002 	5.83365178264378,45.41914830625115,615.87000000000000 
</coordinates></LineString>
<LineString><coordinates>
	5.83365562423466,45.41915100130999,615.85000000000002 	5.83365467498187,45.41915246510431,616.75000000000000 
</coordinates></LineString>
<LineString><coordinates>
	5.83365562423466,45.41915100130999,615.85000000000002 	5.83365400518938,45.41915185163503,614.92999999999995 
</coordinates></LineString>
<LineString><coordinates>
	5.83365562423466,45.41915100130999,615.85000000000002 	5.83362803623703,45.41915906742361,615.90999999999997 
</coordinates></LineString>
<LineString><coordinates>
	5.83365562423466,45.41915100130999,615.85000000000002 	5.83360600216578,45.41916573544169,615.96000000000004 	5.83361120584271,45.41917010695316,615.96000000000004 
</coordinates></LineString>
<LineString><coordinates>
	5.83360600216578,45.41916573544169,615.96000000000004 	5.83360425052868,45.41917415024535,616.13999999999999 
</coordinates></LineString>
<LineString><coordinates>
	5.83360600216578,45.41916573544169,615.96000000000004 	5.83360423910394,45.41916370888928,616.02999999999997 
</coordinates></LineString>
<LineString><coordinates>
	5.83360600216578,45.41916573544169,615.96000000000004 	5.83360607417351,45.41916717388008,616.64999999999998 
</coordinates></LineString>
<LineString><coordinates>
	5.83360600216578,45.41916573544169,615.96000000000004 	5.83360676361181,45.41916562652261,615.20000000000005 
</coordinates></LineString>
<LineString><coordinates>
	5.83360600216578,45.41916573544169,615.96000000000004 	5.83357060650793,45.41919145812939,616.58000000000004 	5.83356560985144,45.41919122212654,616.59000000000003 
</coordinates></LineString>
<LineString><coordinates>
	5.83357060650793,45.41919145812939,616.58000000000004 	5.83357629545881,45.41919275711376,616.63000000000000 
</coordinates></LineString>
<LineString><coordinates>
	5.83357060650793,45.41919145812939,616.58000000000004 	5.83358568164561,45.41917344108196,617.09000000000003 
</coordinates></LineString>
<LineString><coordinates>
	5.83357060650793,45.41919145812939,616.58000000000004 	5.83356895595719,45.41919167913647,617.70000000000005 
</coordinates></LineString>
<LineString><coordinates>
	5.83357060650793,45.41919145812939,616.58000000000004 	5.83357274518774,45.41919077493264,615.41999999999996 
</coordinates></LineString>
<LineString><coordinates>
	5.83357060650793,45.41919145812939,616.58000000000004 	5.83355639467069,45.41921395444816,616.60000000000002 
</coordinates></LineString>
<LineString><coordinates>
	5.83357060650793,45.41919145812939,616.58000000000004 	5.83357935508465,45.41921302434565,616.50999999999999 
</coordinates></LineString>
<LineString><coordinates>
	5.83357060650793,45.41919145812939,616.58000000000004 	5.83357560151893,45.41919421456866,616.55999999999995 
</coordinates></LineString>
<LineString><coordinates>
	5.83357060650793,45.41919145812939,616.58000000000004 	5.83357808058709,45.41920288439090,615.19000000000005 	5.83356272355896,45.41921271714955,615.27999999999997 
</coordinates></LineString>
<LineString><coordinates>
	5.83357808058709,45.41920288439090,615.19000000000005 	5.83357871185934,45.41922060150262,615.25999999999999 
</coordinates></LineString>
<LineString><coordinates>
	5.83357808058709,45.41920288439090,615.19000000000005 	5.83359934656538,45.41923449145555,615.35000000000002 
</coordinates></LineString>
<LineString><coordinates>
	5.83357808058709,45.41920288439090,615.19000000000005 	5.83361045773503,45.41922665440384,615.38000000000000 
</coordinates></LineString>
<LineString><coordinates>
	5.83357808058709,45.41920288439090,615.19000000000005 	5.83362171784836,45.41921413291809,615.57000000000005 
</coordinates></LineString>
<LineString><coordinates>
	5.83357808058709,45.41920288439090,615.19000000000005 	5.83361484361814,45.41919171004205,615.79999999999995 
</coordinates></LineString>
<LineString><coordinates>
	5.83357808058709,45.41920288439090,615.19000000000005 	5.83357941204202,45.41918862910094,615.39999999999998 
</coordinates></LineString>
<LineString><coordinates>
	5.83357808058709,45.41920288439090,615.19000000000005 	5.83358390861848,45.41921462156154,618.57000000000005 
</coordinates></LineString>
<LineString><coordinates>
	5.83357808058709,45.41920288439090,615.19000000000005 	5.83358666637598,45.41920843213217,613.37000000000000 
</coordinates></LineString>
<LineString><coordinates>
	5.83357808058709,45.41920288439090,615.19000000000005 	5.83358226827815,45.41922015314926,615.03999999999996 	5.83356770080314,45.41926363159229,614.76999999999998 
</coordinates></LineString>
<LineString><coordinates>
	5.83358226827815,45.41922015314926,615.03999999999996 	5.83358894854545,45.41924636143646,614.80999999999995 
</coordinates></LineString>
<LineString><coordinates>
	5.83358226827815,45.41922015314926,615.03999999999996 	5.83360427286208,45.41923076858185,615.03999999999996 
</coordinates></LineString>
<LineString><coordinates>
	5.83358226827815,45.41922015314926,615.03999999999996 	5.83362342569243,45.41920994986583,615.41999999999996 
</coordinates></LineString>
<LineString><coordinates>
	5.83358226827815,45.41922015314926,615.03999999999996 	5.83361109653667,45.41919090293225,615.88000000000000 
</coordinates></LineString>
<LineString><coordinates>
	5.83358226827815,45.41922015314926,615.03999999999996 	5.83356352594718,45.41920576614002,615.35000000000002 
</coordinates></LineString>
<LineString><coordinates>
	5.83358226827815,45.41922015314926,615.03999999999996 	5.83357704780646,45.41922055280263,615.12000000000000 
</coordinates></LineString>
<LineString><coordinates>
	5.83358226827815,45.41922015314926,615.03999999999996 	5.83358403748662,45.41921974916777,618.26999999999998 
</coordinates></LineString>
<LineString><coordinates>
	5.83358226827815,45.41922015314926,615.03999999999996 	5.83358306122815,45.41922067354716,613.38999999999999 
</coordinates></LineString>
<LineString><coordinates>
	5.83358226827815,45.41922015314926,615.03999999999996 	5.83358094234508,45.41929579794173,609.48000000000002 
</coordinates></LineString>
</MultiGeometry>
</Placemark>
</Folder>
</Folder>
</kml>
