<?xml version="1.0" encoding="UTF-8"?>
<kml xmlns="http://earth.google.com/kml/2.0">
<Folder>
<Style id="ThMapStyle"> <PolyStyle> <fill>1</fill> <outline>0</outline> </PolyStyle> </Style>
<Style id="ThEntranceIcon"> <IconStyle> <Icon> <href>https://therion.speleo.sk/downloads/KmlIconEntrance.png</href> </Icon> <hotSpot x="0.5" y="0" xunits="fraction" yunits="fraction" /> </IconStyle> </Style>
<Icon> <href>https://therion.speleo.sk/downloads/KmlIconMap.png</href> </Icon>
<name><![CDATA[Grotte du Curé (38 - Chartreuse)]]></name>
<description><![CDATA[Length 354 m<br>Depth 27 m<br>]]></description>
<Placemark>
<styleUrl>#ThEntranceIcon</styleUrl><name><![CDATA[Grotte du Curé]]></name>
<Point> <coordinates>5.83470648554243,45.41993620293975,604.00000000000000</coordinates> </Point>
</Placemark>
<Placemark>
<styleUrl>#ThMapStyle</styleUrl>
<name><![CDATA[Grotte du Curé]]></name>
<Style> <PolyStyle> <color>bfff0000</color> </PolyStyle> </Style>
<MultiGeometry>
<Polygon>
<outerBoundaryIs>
<LinearRing>
<coordinates>
	5.83358553603070,45.41927242990511,0.00000000000000 	5.83358506367385,45.41927060084279,0.00000000000000 	5.83358438788569,45.41926750669979,0.00000000000000 	5.83358414674396,45.41926460233957,0.00000000000000 	5.83358436071599,45.41926337644139,0.00000000000000 	5.83358467940612,45.41926058873198,0.00000000000000 	5.83358509473443,45.41925742787180,0.00000000000000 	5.83358589747295,45.41925398354086,0.00000000000000 	5.83358692868229,45.41925126821311,0.00000000000000 	5.83358846403849,45.41924848171181,0.00000000000000 	5.83358939534349,45.41924711573747,0.00000000000000 	5.83359136260941,45.41924454755549,0.00000000000000 	5.83359338739948,45.41924217692482,0.00000000000000 	5.83359584934291,45.41923945341009,0.00000000000000 	5.83359805515826,45.41923695080107,0.00000000000000 	5.83359989970458,45.41923503532845,0.00000000000000 	5.83360275826734,45.41923237425681,0.00000000000000 	5.83360624242848,45.41922926097015,0.00000000000000 	5.83360872094588,45.41922707909615,0.00000000000000 	5.83361238462004,45.41922386408230,0.00000000000000 	5.83361563811171,45.41922097921092,0.00000000000000 	5.83361809300335,45.41921871786617,0.00000000000000 	5.83361978122443,45.41921697480140,0.00000000000000 	5.83362166578924,45.41921446079740,0.00000000000000 	5.83362282697001,45.41921176314209,0.00000000000000 	5.83362336111829,45.41920898157752,0.00000000000000 	5.83362331381117,45.41920731694286,0.00000000000000 	5.83362251682913,45.41920461943591,0.00000000000000 	5.83362100981575,45.41920149842944,0.00000000000000 	5.83361949806898,45.41919896032705,0.00000000000000 	5.83361772515540,45.41919631585453,0.00000000000000 	5.83361575031462,45.41919362151833,0.00000000000000 	5.83361494364006,45.41919281059688,0.00000000000000 	5.83361124393665,45.41919132030197,0.00000000000000 	5.83360606812712,45.41919088213359,0.00000000000000 	5.83360207906084,45.41919094496302,0.00000000000000 	5.83359785624594,45.41919113104466,0.00000000000000 	5.83359356860192,45.41919130263467,0.00000000000000 	5.83358938504829,45.41919132198927,0.00000000000000 	5.83358547450463,45.41919105136473,0.00000000000000 	5.83358049009441,45.41918980040252,0.00000000000000 	5.83358007346459,45.41918882160442,0.00000000000000 	5.83358285589083,45.41918635201989,0.00000000000000 	5.83358638328316,45.41918422913723,0.00000000000000 	5.83359076931740,45.41918187793912,0.00000000000000 	5.83359560315540,45.41917942946469,0.00000000000000 	5.83360047395908,45.41917701475307,0.00000000000000 	5.83360497089052,45.41917476484348,0.00000000000000 	5.83360868311188,45.41917281077522,0.00000000000000 	5.83361188140493,45.41917072102385,0.00000000000000 	5.83361472733108,45.41916883178564,0.00000000000000 	5.83361835790414,45.41916772181040,0.00000000000000 	5.83362241846660,45.41916686406394,0.00000000000000 	5.83362655436085,45.41916573151223,0.00000000000000 	5.83362864377193,45.41916492970097,0.00000000000000 	5.83363320251505,45.41916303125338,0.00000000000000 	5.83363687778750,45.41916143769802,0.00000000000000 	5.83364081103579,45.41915969052122,0.00000000000000 	5.83364478719215,45.41915788290942,0.00000000000000 	5.83364859118885,45.41915610804907,0.00000000000000 	5.83365350392404,45.41915371101300,0.00000000000000 	5.83365744438095,45.41915149933580,0.00000000000000 	5.83366028954169,45.41914905812708,0.00000000000000 	5.83366279298662,45.41914635723280,0.00000000000000 	5.83366477247682,45.41914344659816,0.00000000000000 	5.83366688412367,45.41914163329992,0.00000000000000 	5.83367011921452,45.41913953391963,0.00000000000000 	5.83367411044111,45.41913711284375,0.00000000000000 	5.83367826442278,45.41913465094565,0.00000000000000 	5.83368198777902,45.41913242909879,0.00000000000000 	5.83368525679663,45.41913032550980,0.00000000000000 	5.83368614458436,45.41912977334335,0.00000000000000 	5.83368971241202,45.41913106032234,0.00000000000000 	5.83368467526893,45.41911490796086,0.00000000000000 	5.83368318717559,45.41911624913572,0.00000000000000 	5.83368043294087,45.41911828161167,0.00000000000000 	5.83367731944190,45.41912009808006,0.00000000000000 	5.83367347255410,45.41912175583106,0.00000000000000 	5.83367004330714,45.41912327737796,0.00000000000000 	5.83366728477340,45.41912529193340,0.00000000000000 	5.83366473186635,45.41912784201877,0.00000000000000 	5.83366191664825,45.41913004866343,0.00000000000000 	5.83365988158697,45.41913150227414,0.00000000000000 	5.83365698881649,45.41913421851351,0.00000000000000 	5.83365486737221,45.41913691940849,0.00000000000000 	5.83365351739653,45.41913983502551,0.00000000000000 	5.83365284662366,45.41914182147163,0.00000000000000 	5.83365123659148,45.41914452649766,0.00000000000000 	5.83364872480452,45.41914737350567,0.00000000000000 	5.83364534876737,45.41914978589777,0.00000000000000 	5.83364141620591,45.41915140931170,0.00000000000000 	5.83363729132061,45.41915286736458,0.00000000000000 	5.83363233581501,45.41915452440671,0.00000000000000 	5.83362686847926,45.41915629332466,0.00000000000000 	5.83362120810358,45.41915808700512,0.00000000000000 	5.83361567347830,45.41915981833476,0.00000000000000 	5.83361058339379,45.41916140020038,0.00000000000000 	5.83360625664049,45.41916274548881,0.00000000000000 	5.83360189511076,45.41916412927922,0.00000000000000 	5.83359818944805,45.41916549343652,0.00000000000000 	5.83359450071070,45.41916711512669,0.00000000000000 	5.83359088708261,45.41916895559157,0.00000000000000 	5.83358740674767,45.41917097607316,0.00000000000000 	5.83358411788981,45.41917313781336,0.00000000000000 	5.83358234942513,45.41917446420167,0.00000000000000 	5.83357915873941,45.41917711118170,0.00000000000000 	5.83357558902850,45.41918025488746,0.00000000000000 	5.83357314674130,45.41918246434366,0.00000000000000 	5.83356961172514,45.41918570554718,0.00000000000000 	5.83356649736812,45.41918856702239,0.00000000000000 	5.83356351756509,45.41919122356229,0.00000000000000 	5.83356102091919,45.41919379730280,0.00000000000000 	5.83355884880803,45.41919652349934,0.00000000000000 	5.83355668663276,45.41919961015877,0.00000000000000 	5.83355477447637,45.41920276772468,0.00000000000000 	5.83355335242197,45.41920570664056,0.00000000000000 	5.83355263368888,45.41920878460483,0.00000000000000 	5.83355273545120,45.41920987353694,0.00000000000000 	5.83355447840793,45.41921272117200,0.00000000000000 	5.83355802971009,45.41921442880630,0.00000000000000 	5.83356191659695,45.41921598234327,0.00000000000000 	5.83356514598590,45.41921712878605,0.00000000000000 	5.83356878465338,45.41921808890201,0.00000000000000 	5.83357285241634,45.41921910402131,0.00000000000000 	5.83357556784037,45.41922121665210,0.00000000000000 	5.83357587938951,45.41922234607124,0.00000000000000 	5.83357569438490,45.41922553795341,0.00000000000000 	5.83357505680977,45.41922841409061,0.00000000000000 	5.83357419002402,45.41923138528987,0.00000000000000 	5.83357327254345,45.41923416510447,0.00000000000000 	5.83357211561187,45.41923759482619,0.00000000000000 	5.83357171607568,45.41923909481653,0.00000000000000 	5.83357085798081,45.41924277646032,0.00000000000000 	5.83357017085142,45.41924590124246,0.00000000000000 	5.83356943763786,45.41924933503819,0.00000000000000 	5.83356869774191,45.41925288304569,0.00000000000000 	5.83356799056539,45.41925635046318,0.00000000000000 	5.83356735551013,45.41925954248887,0.00000000000000 	5.83356683197797,45.41926226432097,0.00000000000000 	5.83356634197708,45.41926503932718,0.00000000000000 	5.83356614955118,45.41926768690345,0.00000000000000 	5.83356617172914,45.41927068558351,0.00000000000000 	5.83356620445564,45.41927384830405,0.00000000000000 	5.83356604367532,45.41927698800178,0.00000000000000 	5.83356548533277,45.41927991761335,0.00000000000000 	5.83356506541516,45.41928179255204,0.00000000000000 	5.83356526603119,45.41928473013107,0.00000000000000 	5.83356651334419,45.41928740305021,0.00000000000000 	5.83356805748533,45.41929013683820,0.00000000000000 	5.83356864848958,45.41929261477728,0.00000000000000 	5.83356759021652,45.41929582764200,0.00000000000000 	5.83356543619221,45.41929834625978,0.00000000000000 	5.83358553603070,45.41927242990511,0.00000000000000 </coordinates>
</LinearRing>
</outerBoundaryIs>
</Polygon>
<Polygon>
<outerBoundaryIs>
<LinearRing>
<coordinates>
	5.83372497957538,45.41908489602008,0.00000000000000 	5.83372509313121,45.41908375541361,0.00000000000000 	5.83372721300948,45.41908127856930,0.00000000000000 	5.83373089858417,45.41907907076214,0.00000000000000 	5.83373535159876,45.41907720790888,0.00000000000000 	5.83373591883765,45.41907693315236,0.00000000000000 	5.83373826846899,45.41907466387278,0.00000000000000 	5.83374023699277,45.41907204523594,0.00000000000000 	5.83374251262114,45.41906897525683,0.00000000000000 	5.83374521260230,45.41906575487840,0.00000000000000 	5.83374845418445,45.41906268504354,0.00000000000000 	5.83375235461586,45.41906006669511,0.00000000000000 	5.83375602620622,45.41905817729812,0.00000000000000 	5.83376025663191,45.41905625773921,0.00000000000000 	5.83376368511803,45.41905473328156,0.00000000000000 	5.83376705947025,45.41905291293634,0.00000000000000 	5.83377056312607,45.41905075459688,0.00000000000000 	5.83377315773133,45.41904896526305,0.00000000000000 	5.83377652415458,45.41904612288608,0.00000000000000 	5.83377911652167,45.41904314543582,0.00000000000000 	5.83378077342370,45.41904009476276,0.00000000000000 	5.83378133345186,45.41903703271730,0.00000000000000 	5.83378063519736,45.41903402114989,0.00000000000000 	5.83377851725142,45.41903112191091,0.00000000000000 	5.83377787048633,45.41903052256686,0.00000000000000 	5.83377440028184,45.41902832641767,0.00000000000000 	5.83377040525697,45.41902735978547,0.00000000000000 	5.83376570697255,45.41902747980449,0.00000000000000 	5.83376132208704,45.41902826220277,0.00000000000000 	5.83375906024280,45.41902897377945,0.00000000000000 	5.83375597276789,45.41903063699292,0.00000000000000 	5.83375321427059,45.41903285151934,0.00000000000000 	5.83375074270734,45.41903543319032,0.00000000000000 	5.83374851603459,45.41903819783746,0.00000000000000 	5.83374649220882,45.41904096129240,0.00000000000000 	5.83374462918654,45.41904353938672,0.00000000000000 	5.83374402558831,45.41904433649603,0.00000000000000 	5.83374153476053,45.41904739710116,0.00000000000000 	5.83373897528731,45.41905051020682,0.00000000000000 	5.83373705366588,45.41905308565049,0.00000000000000 	5.83373516384747,45.41905602798001,0.00000000000000 	5.83373333601035,45.41905948177575,0.00000000000000 	5.83373216678919,45.41906213985189,0.00000000000000 	5.83373031932454,45.41906653266527,0.00000000000000 	5.83372886577761,45.41906969728452,0.00000000000000 	5.83372578115880,45.41907244397002,0.00000000000000 	5.83372578115880,45.41907244397002,0.00000000000000 	5.83372569567106,45.41907039817677,0.00000000000000 	5.83372587064965,45.41906705812038,0.00000000000000 	5.83372621139510,45.41906427030381,0.00000000000000 	5.83372672554169,45.41906139137332,0.00000000000000 	5.83372740752729,45.41905855746658,0.00000000000000 	5.83372856831077,45.41905508426088,0.00000000000000 	5.83372934503186,45.41905182809328,0.00000000000000 	5.83372940939539,45.41904848500528,0.00000000000000 	5.83372926459449,45.41904507932465,0.00000000000000 	5.83372941382216,45.41904163537922,0.00000000000000 	5.83373036027128,45.41903817749670,0.00000000000000 	5.83373100704308,45.41903662975906,0.00000000000000 	5.83373208025441,45.41903362973834,0.00000000000000 	5.83373285166316,45.41903080008516,0.00000000000000 	5.83373342182752,45.41902698816819,0.00000000000000 	5.83373325875885,45.41902385046774,0.00000000000000 	5.83373184456538,45.41902101731159,0.00000000000000 	5.83372804509056,45.41902022800263,0.00000000000000 	5.83372453151191,45.41902085905640,0.00000000000000 	5.83371983890697,45.41902178872242,0.00000000000000 	5.83371599167602,45.41902276649706,0.00000000000000 	5.83371221099347,45.41902405061343,0.00000000000000 	5.83370880960962,45.41902570037399,0.00000000000000 	5.83370610027481,45.41902777508129,0.00000000000000 	5.83370328136446,45.41903071686070,0.00000000000000 	5.83370097021630,45.41903348827301,0.00000000000000 	5.83369934947508,45.41903623569995,0.00000000000000 	5.83369860178555,45.41903910552335,0.00000000000000 	5.83369890979254,45.41904224412498,0.00000000000000 	5.83369912895808,45.41904306099006,0.00000000000000 	5.83369992940252,45.41904608167233,0.00000000000000 	5.83370086664666,45.41904941213762,0.00000000000000 	5.83370190182244,45.41905241862585,0.00000000000000 	5.83370321522740,45.41905528424192,0.00000000000000 	5.83370361338451,45.41905856113865,0.00000000000000 	5.83370340269732,45.41906217226881,0.00000000000000 	5.83370291176536,45.41906657702447,0.00000000000000 	5.83370222686474,45.41907147746245,0.00000000000000 	5.83370143427158,45.41907657563953,0.00000000000000 	5.83370062026204,45.41908157361254,0.00000000000000 	5.83369987111234,45.41908617343829,0.00000000000000 	5.83369927309870,45.41909007717363,0.00000000000000 	5.83369884818774,45.41909397585634,0.00000000000000 	5.83369854728536,45.41909619314246,0.00000000000000 	5.83369719926248,45.41909907011572,0.00000000000000 	5.83369482235898,45.41910173383872,0.00000000000000 	5.83369246160868,45.41910428153832,0.00000000000000 	5.83369109541559,45.41910634740368,0.00000000000000 	5.83368933277556,45.41910930570402,0.00000000000000 	5.83368739678227,45.41911220915598,0.00000000000000 	5.83368467526893,45.41911490796086,0.00000000000000 	5.83368971241202,45.41913106032234,0.00000000000000 	5.83368964526753,45.41913397087944,0.00000000000000 	5.83369015909846,45.41913737499215,0.00000000000000 	5.83369049105781,45.41914011403982,0.00000000000000 	5.83369043852287,45.41914290500442,0.00000000000000 	5.83368969665371,45.41914565115393,0.00000000000000 	5.83368796061033,45.41914825575630,0.00000000000000 	5.83368509663460,45.41915085663194,0.00000000000000 	5.83368202220742,45.41915267779852,0.00000000000000 	5.83367862284952,45.41915429429204,0.00000000000000 	5.83367563033977,45.41915652578901,0.00000000000000 	5.83367496549095,45.41915718817796,0.00000000000000 	5.83367271276501,45.41915969156965,0.00000000000000 	5.83367021777075,45.41916274367539,0.00000000000000 	5.83366766693793,45.41916605440809,0.00000000000000 	5.83366524669638,45.41916933368081,0.00000000000000 	5.83366314347603,45.41917229140657,0.00000000000000 	5.83366115455101,45.41917523347183,0.00000000000000 	5.83365943230660,45.41917791257677,0.00000000000000 	5.83365770955798,45.41918058026697,0.00000000000000 	5.83365591429161,45.41918333223384,0.00000000000000 	5.83365397449390,45.41918626416876,0.00000000000000 	5.83365214430830,45.41918875363395,0.00000000000000 	5.83364973420747,45.41919154395882,0.00000000000000 	5.83364738690628,45.41919404830875,0.00000000000000 	5.83364495289167,45.41919678353451,0.00000000000000 	5.83364290538080,45.41919942952143,0.00000000000000 	5.83364072742479,45.41920225622289,0.00000000000000 	5.83363823806658,45.41920540117523,0.00000000000000 	5.83363565255044,45.41920850109842,0.00000000000000 	5.83363318612081,45.41921119271245,0.00000000000000 	5.83363045482118,45.41921351849221,0.00000000000000 	5.83362874275860,45.41921448110460,0.00000000000000 	5.83362528432596,45.41921633973061,0.00000000000000 	5.83362203124427,45.41921857176003,0.00000000000000 	5.83361969459066,45.41922111717014,0.00000000000000 	5.83361824294287,45.41922306939385,0.00000000000000 	5.83361587311984,45.41922609321307,0.00000000000000 	5.83361395132837,45.41922855111832,0.00000000000000 	5.83361206114073,45.41923106425865,0.00000000000000 	5.83361034241337,45.41923353574276,0.00000000000000 	5.83360855922010,45.41923659878987,0.00000000000000 	5.83360777817901,45.41923813668424,0.00000000000000 	5.83360635573530,45.41924074457950,0.00000000000000 	5.83360475159749,45.41924352072292,0.00000000000000 	5.83360310005053,45.41924624797137,0.00000000000000 	5.83360105633793,45.41924943293446,0.00000000000000 	5.83359920380513,45.41925196491452,0.00000000000000 	5.83359764574204,45.41925392537297,0.00000000000000 	5.83359575375289,45.41925660273473,0.00000000000000 	5.83359387358165,45.41925946640243,0.00000000000000 	5.83359235097241,45.41926198577864,0.00000000000000 	5.83359116879365,45.41926392021488,0.00000000000000 	5.83358928914849,45.41926675791331,0.00000000000000 	5.83358735151548,45.41926962195596,0.00000000000000 	5.83358553603070,45.41927242990511,0.00000000000000 	5.83356543619221,45.41929834625978,0.00000000000000 	5.83356311255168,45.41930150671688,0.00000000000000 	5.83356125894122,45.41930465392849,0.00000000000000 	5.83355980835238,45.41930773638730,0.00000000000000 	5.83355869377669,45.41931070258604,0.00000000000000 	5.83355784820568,45.41931350101739,0.00000000000000 	5.83355693765183,45.41931727142841,0.00000000000000 	5.83355625543565,45.41932037463429,0.00000000000000 	5.83355531012289,45.41932317390815,0.00000000000000 	5.83355488766553,45.41932371461021,0.00000000000000 	5.83355210675551,45.41932601085600,0.00000000000000 	5.83354922895152,45.41932801398733,0.00000000000000 	5.83354575364614,45.41933031144255,0.00000000000000 	5.83354187077351,45.41933283163591,0.00000000000000 	5.83353777026780,45.41933550298166,0.00000000000000 	5.83353364206326,45.41933825389409,0.00000000000000 	5.83352967609415,45.41934101278748,0.00000000000000 	5.83352606229483,45.41934370807621,0.00000000000000 	5.83352299059969,45.41934626817459,0.00000000000000 	5.83352163016076,45.41934756218687,0.00000000000000 	5.83351897006733,45.41935046636856,0.00000000000000 	5.83351641581627,45.41935369930725,0.00000000000000 	5.83351399716335,45.41935714965987,0.00000000000000 	5.83351174386438,45.41936070608337,0.00000000000000 	5.83350968567519,45.41936425723470,0.00000000000000 	5.83350785235164,45.41936769177082,0.00000000000000 	5.83350627364960,45.41937089834871,0.00000000000000 	5.83350497932496,45.41937376562531,0.00000000000000 	5.83350363613665,45.41937718678736,0.00000000000000 	5.83350206363296,45.41938074535940,0.00000000000000 	5.83350045451935,45.41938381262116,0.00000000000000 	5.83349853552440,45.41938725628074,0.00000000000000 	5.83349642556894,45.41939092247544,0.00000000000000 	5.83349424357381,45.41939465734254,0.00000000000000 	5.83349210845994,45.41939830701936,0.00000000000000 	5.83349013914830,45.41940171764321,0.00000000000000 	5.83348845455990,45.41940473535142,0.00000000000000 	5.83348672167316,45.41940818862229,0.00000000000000 	5.83348528427282,45.41941154657609,0.00000000000000 	5.83348393710895,45.41941456617108,0.00000000000000 	5.83348254776007,45.41941732614691,0.00000000000000 	5.83348098380466,45.41941990524312,0.00000000000000 	5.83347911282117,45.41942238219929,0.00000000000000 	5.83347706803613,45.41942477605064,0.00000000000000 	5.83347424157551,45.41942805258190,0.00000000000000 	5.83347207488007,45.41943055921281,0.00000000000000 	5.83346978858706,45.41943320599445,0.00000000000000 	5.83346747382204,45.41943589206621,0.00000000000000 	5.83346522171061,45.41943851656756,0.00000000000000 	5.83346216035628,45.41944211724253,0.00000000000000 	5.83345975255433,45.41944501204340,0.00000000000000 	5.83345895584415,45.41944592625206,0.00000000000000 	5.83345662777507,45.41944831597409,0.00000000000000 	5.83345351760722,45.41945130418195,0.00000000000000 	5.83344986226012,45.41945471097097,0.00000000000000 	5.83344589865333,45.41945835643659,0.00000000000000 	5.83344186370653,45.41946206067423,0.00000000000000 	5.83343799433948,45.41946564377938,0.00000000000000 	5.83343452747208,45.41946892584750,0.00000000000000 	5.83343170002429,45.41947172697412,0.00000000000000 	5.83342917602697,45.41947463335771,0.00000000000000 	5.83342754633153,45.41947742641539,0.00000000000000 	5.83342597828200,45.41948047858157,0.00000000000000 	5.83342436707680,45.41948364155885,0.00000000000000 	5.83342260791437,45.41948676704989,0.00000000000000 	5.83342059599314,45.41948970675727,0.00000000000000 	5.83341958061699,45.41949099607140,0.00000000000000 	5.83341728175755,45.41949373952079,0.00000000000000 	5.83341483760597,45.41949627951045,0.00000000000000 	5.83341483760597,45.41949627951045,0.00000000000000 	5.83338532636238,45.41952687246636,0.00000000000000 	5.83339767760819,45.41953042441443,0.00000000000000 	5.83342549361535,45.41950244531823,0.00000000000000 	5.83342549361535,45.41950244531823,0.00000000000000 	5.83342665584969,45.41950109850288,0.00000000000000 	5.83342881877839,45.41949856739623,0.00000000000000 	5.83343138552897,45.41949562117493,0.00000000000000 	5.83343424397191,45.41949248252791,0.00000000000000 	5.83343728197770,45.41948937414411,0.00000000000000 	5.83344038741695,45.41948651871244,0.00000000000000 	5.83344344816030,45.41948413892185,0.00000000000000 	5.83344526505989,45.41948294017510,0.00000000000000 	5.83344916952079,45.41948104551493,0.00000000000000 	5.83345313582693,45.41948044256019,0.00000000000000 	5.83345743403307,45.41947979124017,0.00000000000000 	5.83345850993113,45.41947965597358,0.00000000000000 	5.83346268181506,45.41948055628310,0.00000000000000 	5.83346574944906,45.41948232597974,0.00000000000000 	5.83346884707394,45.41948458488132,0.00000000000000 	5.83347204895377,45.41948692897117,0.00000000000000 	5.83347542935253,45.41948895423258,0.00000000000000 	5.83347906253410,45.41949025664884,0.00000000000000 	5.83348154424088,45.41949077253532,0.00000000000000 	5.83348624436817,45.41949168310268,0.00000000000000 	5.83349055551567,45.41949245112860,0.00000000000000 	5.83349532810379,45.41949324556712,0.00000000000000 	5.83349933288771,45.41949389771925,0.00000000000000 	5.83350177451682,45.41949443359182,0.00000000000000 	5.83350578931443,45.41949569901239,0.00000000000000 	5.83350971013174,45.41949746720765,0.00000000000000 	5.83351248779476,45.41949959979311,0.00000000000000 	5.83351275396139,45.41950256712880,0.00000000000000 	5.83351135451322,45.41950491379583,0.00000000000000 	5.83351092804267,45.41950783206627,0.00000000000000 	5.83351213253145,45.41951044478389,0.00000000000000 	5.83351357002666,45.41951218691618,0.00000000000000 	5.83351604232516,45.41951448827589,0.00000000000000 	5.83351858792587,45.41951688147260,0.00000000000000 	5.83352071783860,45.41951980574102,0.00000000000000 	5.83352116698399,45.41952075954435,0.00000000000000 	5.83352291625360,45.41952337947775,0.00000000000000 	5.83352521989882,45.41952569242358,0.00000000000000 	5.83352801572375,45.41952776938816,0.00000000000000 	5.83353136471797,45.41952957659409,0.00000000000000 	5.83353496662409,45.41953062660684,0.00000000000000 	5.83353894242710,45.41953121339375,0.00000000000000 	5.83354047206463,45.41953131577618,0.00000000000000 	5.83354437238880,45.41953101853105,0.00000000000000 	5.83354859090007,45.41953016132600,0.00000000000000 	5.83355237060460,45.41952926586585,0.00000000000000 	5.83355665532169,45.41952834370277,0.00000000000000 	5.83356100972147,45.41952744207366,0.00000000000000 	5.83356475883857,45.41952662486476,0.00000000000000 	5.83356899032582,45.41952568742336,0.00000000000000 	5.83357353740298,45.41952467489160,0.00000000000000 	5.83357823328982,45.41952363241158,0.00000000000000 	5.83358291120613,45.41952260512544,0.00000000000000 	5.83358740437175,45.41952163817540,0.00000000000000 	5.83359154600652,45.41952077670359,0.00000000000000 	5.83359673450683,45.41951978101631,0.00000000000000 	5.83359834902965,45.41951946163134,0.00000000000000 	5.83360234086552,45.41951849367882,0.00000000000000 	5.83360713444937,45.41951717045661,0.00000000000000 	5.83361247141442,45.41951559233323,0.00000000000000 	5.83361809339394,45.41951385967725,0.00000000000000 	5.83362374202128,45.41951207285728,0.00000000000000 	5.83362915892983,45.41951033224199,0.00000000000000 	5.83363408575307,45.41950873820009,0.00000000000000 	5.83363826412456,45.41950739110032,0.00000000000000 	5.83364256315818,45.41950605302384,0.00000000000000 	5.83364354444952,45.41950577054369,0.00000000000000 	5.83364781825800,45.41950456761904,0.00000000000000 	5.83365246656121,45.41950325205153,0.00000000000000 	5.83365605150136,45.41950219479366,0.00000000000000 	5.83366076697274,45.41950069545961,0.00000000000000 	5.83366518471307,45.41949909874958,0.00000000000000 	5.83366621476822,45.41949870908927,0.00000000000000 	5.83367008913923,45.41949749508133,0.00000000000000 	5.83367380824668,45.41949661067718,0.00000000000000 	5.83367768955162,45.41949576013074,0.00000000000000 	5.83368205051499,45.41949464769583,0.00000000000000 	5.83368582698587,45.41949346359559,0.00000000000000 	5.83368759713822,45.41949281880930,0.00000000000000 	5.83369339372022,45.41949054224877,0.00000000000000 	5.83369723719706,45.41948898835301,0.00000000000000 	5.83370158882923,45.41948720929924,0.00000000000000 	5.83370635714034,45.41948524402672,0.00000000000000 	5.83371145065400,45.41948313147469,0.00000000000000 	5.83371677789384,45.41948091058244,0.00000000000000 	5.83372224738354,45.41947862028925,0.00000000000000 	5.83372776764677,45.41947629953439,0.00000000000000 	5.83373324720726,45.41947398725723,0.00000000000000 	5.83373859458877,45.41947172239705,0.00000000000000 	5.83374371831507,45.41946954389325,0.00000000000000 	5.83374852690996,45.41946749068517,0.00000000000000 	5.83375292889729,45.41946560171216,0.00000000000000 	5.83375683280091,45.41946391591369,0.00000000000000 	5.83376014714467,45.41946247222908,0.00000000000000 	5.83376563805547,45.41945998325249,0.00000000000000 	5.83376624569769,45.41945967354124,0.00000000000000 	5.83376995205917,45.41945811292790,0.00000000000000 	5.83377375106608,45.41945668402676,0.00000000000000 	5.83377808047534,45.41945511869285,0.00000000000000 	5.83378263138154,45.41945349350550,0.00000000000000 	5.83378709487929,45.41945188504420,0.00000000000000 	5.83379116206327,45.41945036988841,0.00000000000000 	5.83379612996410,45.41944888214653,0.00000000000000 	5.83380047187296,45.41944787205620,0.00000000000000 	5.83380529570031,45.41944688261297,0.00000000000000 	5.83381030825063,45.41944594403724,0.00000000000000 	5.83381521632841,45.41944508654939,0.00000000000000 	5.83381972673821,45.41944434036989,0.00000000000000 	5.83382354628458,45.41944373571926,0.00000000000000 	5.83382814852803,45.41944304160376,0.00000000000000 	5.83382508265923,45.41943425348888,0.00000000000000 	5.83382480331640,45.41943435883670,0.00000000000000 	5.83382095340636,45.41943532068592,0.00000000000000 	5.83381630218904,45.41943572713029,0.00000000000000 	5.83381196123965,45.41943546907864,0.00000000000000 	5.83380704902901,45.41943443869416,0.00000000000000 	5.83380352773649,45.41943319387074,0.00000000000000 	5.83379915829206,45.41943124277084,0.00000000000000 	5.83379522746677,45.41942918335328,0.00000000000000 	5.83379120417162,45.41942828130565,0.00000000000000 	5.83378707633911,45.41942858792290,0.00000000000000 	5.83378447950439,45.41942884314765,0.00000000000000 	5.83378016120097,45.41942952813851,0.00000000000000 	5.83377639281677,45.41943061489817,0.00000000000000 	5.83377243366912,45.41943230628304,0.00000000000000 	5.83376889355288,45.41943409363771,0.00000000000000 	5.83376451702247,45.41943642078064,0.00000000000000 	5.83376232327049,45.41943758733719,0.00000000000000 	5.83375908789863,45.41943929397519,0.00000000000000 	5.83375493117963,45.41944147652711,0.00000000000000 	5.83374997338622,45.41944407082544,0.00000000000000 	5.83374433479114,45.41944701270263,0.00000000000000 	5.83373813566715,45.41945023799122,0.00000000000000 	5.83373149628703,45.41945368252366,0.00000000000000 	5.83372453692365,45.41945728213251,0.00000000000000 	5.83371737784989,45.41946097265031,0.00000000000000 	5.83371013933872,45.41946468990965,0.00000000000000 	5.83370294166316,45.41946836974311,0.00000000000000 	5.83369590509630,45.41947194798333,0.00000000000000 	5.83368914991129,45.41947536046300,0.00000000000000 	5.83368279638134,45.41947854301478,0.00000000000000 	5.83367696477971,45.41948143147141,0.00000000000000 	5.83367177537968,45.41948396166558,0.00000000000000 	5.83366734845457,45.41948606943006,0.00000000000000 	5.83366380427771,45.41948769059759,0.00000000000000 	5.83365984526196,45.41948921647272,0.00000000000000 	5.83365776267521,45.41948969958386,0.00000000000000 	5.83365407734697,45.41949137481237,0.00000000000000 	5.83365018502520,45.41949102323057,0.00000000000000 	5.83364888994998,45.41949059975004,0.00000000000000 	5.83364518352880,45.41948963159135,0.00000000000000 	5.83364351831578,45.41948711777980,0.00000000000000 	5.83364306029899,45.41948617691680,0.00000000000000 	5.83364128114141,45.41948366151591,0.00000000000000 	5.83363935737590,45.41948120798691,0.00000000000000 	5.83363788435620,45.41947830344523,0.00000000000000 	5.83363775084509,45.41947775405215,0.00000000000000 	5.83363798707400,45.41947462897113,0.00000000000000 	5.83363702061019,45.41947155492421,0.00000000000000 	5.83363269744389,45.41947073534409,0.00000000000000 	5.83363019002492,45.41947074692463,0.00000000000000 	5.83362579430193,45.41947140542810,0.00000000000000 	5.83362216633819,45.41947271333685,0.00000000000000 	5.83361860551232,45.41947489999593,0.00000000000000 	5.83361600077356,45.41947726722823,0.00000000000000 	5.83361557871487,45.41947771403235,0.00000000000000 	5.83361298114443,45.41948026022177,0.00000000000000 	5.83360991925448,45.41948241742125,0.00000000000000 	5.83360660354494,45.41948420755126,0.00000000000000 	5.83360580459518,45.41948460550930,0.00000000000000 	5.83360185497870,45.41948642985603,0.00000000000000 	5.83359788768580,45.41948806051972,0.00000000000000 	5.83359377603886,45.41948960939491,0.00000000000000 	5.83359029765898,45.41949086480052,0.00000000000000 	5.83358912656998,45.41949128800148,0.00000000000000 	5.83358536880076,45.41949265920982,0.00000000000000 	5.83358145673600,45.41949402012443,0.00000000000000 	5.83357766353575,45.41949516155712,0.00000000000000 	5.83357326296440,45.41949598049139,0.00000000000000 	5.83356938524231,45.41949469531368,0.00000000000000 	5.83356881735019,45.41949360418479,0.00000000000000 	5.83356652845704,45.41949019835369,0.00000000000000 	5.83356303392824,45.41948784755320,0.00000000000000 	5.83355911336626,45.41948723152987,0.00000000000000 	5.83355518384860,45.41948736689674,0.00000000000000 	5.83355016876147,45.41948791408660,0.00000000000000 	5.83354763960207,45.41948804437855,0.00000000000000 	5.83354322428585,45.41948726948097,0.00000000000000 	5.83353968467484,45.41948558820899,0.00000000000000 	5.83353704281091,45.41948356968378,0.00000000000000 	5.83353481150705,45.41948115449866,0.00000000000000 	5.83353413834356,45.41947889861567,0.00000000000000 	5.83353373804164,45.41947594445226,0.00000000000000 	5.83353338185032,45.41947236605598,0.00000000000000 	5.83353302880032,45.41946857535396,0.00000000000000 	5.83353263792234,45.41946498427322,0.00000000000000 	5.83353198709705,45.41946121866026,0.00000000000000 	5.83353164815681,45.41945915352044,0.00000000000000 	5.83353161551763,45.41945616564119,0.00000000000000 	5.83353109146864,45.41945326436191,0.00000000000000 	5.83352823277561,45.41945102340803,0.00000000000000 	5.83352629590754,45.41945087987597,0.00000000000000 	5.83352222761250,45.41945223381161,0.00000000000000 	5.83351899331542,45.41945388495989,0.00000000000000 	5.83351554392069,45.41945589682283,0.00000000000000 	5.83351205307066,45.41945806531039,0.00000000000000 	5.83350869440772,45.41946018633266,0.00000000000000 	5.83350428410707,45.41946283242182,0.00000000000000 	5.83350048702468,45.41946428957271,0.00000000000000 	5.83349755093117,45.41946303199715,0.00000000000000 	5.83349468048373,45.41946102745528,0.00000000000000 	5.83349159939555,45.41945850925781,0.00000000000000 	5.83348863369524,45.41945583387825,0.00000000000000 	5.83348610941123,45.41945335779018,0.00000000000000 	5.83348399385256,45.41945098247566,0.00000000000000 	5.83348347594855,45.41945012906661,0.00000000000000 	5.83348275161706,45.41944711091157,0.00000000000000 	5.83348324449739,45.41944389266246,0.00000000000000 	5.83348492005656,45.41944110020209,0.00000000000000 	5.83348716217854,45.41943877304260,0.00000000000000 	5.83348959510436,45.41943631055931,0.00000000000000 	5.83349240508322,45.41943355512217,0.00000000000000 	5.83349535186217,45.41943079627467,0.00000000000000 	5.83349819518837,45.41942832356036,0.00000000000000 	5.83350141011181,45.41942597214972,0.00000000000000 	5.83350472456942,45.41942349927664,0.00000000000000 	5.83350773796651,45.41942081899079,0.00000000000000 	5.83351089355925,45.41941780527522,0.00000000000000 	5.83351391235371,45.41941479495859,0.00000000000000 	5.83351651535608,45.41941212486961,0.00000000000000 	5.83351885702689,45.41940967616701,0.00000000000000 	5.83351935826921,45.41940918215725,0.00000000000000 	5.83352219780925,45.41940665730990,0.00000000000000 	5.83352499381137,45.41940428391651,0.00000000000000 	5.83352831600514,45.41940152532337,0.00000000000000 	5.83353199622891,45.41939852461307,0.00000000000000 	5.83353586632103,45.41939542486823,0.00000000000000 	5.83353975811997,45.41939236917150,0.00000000000000 	5.83354350346425,45.41938950060556,0.00000000000000 	5.83354693419247,45.41938696225304,0.00000000000000 	5.83354988214327,45.41938489719669,0.00000000000000 	5.83355121201228,45.41938397555959,0.00000000000000 	5.83355387362899,45.41938196375387,0.00000000000000 	5.83355648100560,45.41937976938229,0.00000000000000 	5.83355896604805,45.41937744301613,0.00000000000000 	5.83356126066235,45.41937503522671,0.00000000000000 	5.83356329675450,45.41937259658540,0.00000000000000 	5.83356571720815,45.41936899140080,0.00000000000000 	5.83356717295844,45.41936560126312,0.00000000000000 	5.83356743418837,45.41936259685050,0.00000000000000 	5.83356746456492,45.41935924046999,0.00000000000000 	5.83356789659357,45.41935647467132,0.00000000000000 	5.83356856793997,45.41935344357860,0.00000000000000 	5.83356940137185,45.41935028199915,0.00000000000000 	5.83357031965695,45.41934712474034,0.00000000000000 	5.83357124556305,45.41934410660954,0.00000000000000 	5.83357247976611,45.41934013516945,0.00000000000000 	5.83357343120990,45.41933658506606,0.00000000000000 	5.83357366556260,45.41933544037217,0.00000000000000 	5.83357465297869,45.41933239973755,0.00000000000000 	5.83357618899672,45.41932921132258,0.00000000000000 	5.83357779178891,45.41932664473322,0.00000000000000 	5.83357970965957,45.41932413878351,0.00000000000000 	5.83358090549058,45.41932274597529,0.00000000000000 	5.83358317242906,45.41932012809230,0.00000000000000 	5.83358575987214,45.41931705727969,0.00000000000000 	5.83358838957842,45.41931373769698,0.00000000000000 	5.83359078330659,45.41931037350373,0.00000000000000 	5.83359266281545,45.41930716885950,0.00000000000000 	5.83359374986386,45.41930432792388,0.00000000000000 	5.83359400035729,45.41930271657397,0.00000000000000 	5.83359364656138,45.41929951947652,0.00000000000000 	5.83359247303682,45.41929665346142,0.00000000000000 	5.83359216950982,45.41929350807129,0.00000000000000 	5.83359306888935,45.41929185786974,0.00000000000000 	5.83359497843459,45.41928909479506,0.00000000000000 	5.83359764777193,45.41928551100683,0.00000000000000 	5.83360082652780,45.41928139866464,0.00000000000000 	5.83360426432872,45.41927704992813,0.00000000000000 	5.83360771080135,45.41927275695690,0.00000000000000 	5.83361091557249,45.41926881191062,0.00000000000000 	5.83361362826905,45.41926550694900,0.00000000000000 	5.83361657594653,45.41926198591854,0.00000000000000 	5.83361735335072,45.41926096454554,0.00000000000000 	5.83361971082280,45.41925762137078,0.00000000000000 	5.83362185919871,45.41925453407762,0.00000000000000 	5.83362429494411,45.41925103909665,0.00000000000000 	5.83362686890526,45.41924737567374,0.00000000000000 	5.83362943192847,45.41924378305480,0.00000000000000 	5.83363183486017,45.41924050048571,0.00000000000000 	5.83363392854680,45.41923776721237,0.00000000000000 	5.83363616296905,45.41923522058237,0.00000000000000 	5.83363768537022,45.41923367548753,0.00000000000000 	5.83363962759855,45.41923124036808,0.00000000000000 	5.83364145985171,45.41922857830620,0.00000000000000 	5.83364317142214,45.41922590925218,0.00000000000000 	5.83364512486283,45.41922289818235,0.00000000000000 	5.83364548042697,45.41922236492169,0.00000000000000 	5.83364718238829,45.41921952669747,0.00000000000000 	5.83364911508864,45.41921677177638,0.00000000000000 	5.83365175212977,45.41921462372648,0.00000000000000 	5.83365371221150,45.41921312324722,0.00000000000000 	5.83365707732058,45.41921026308390,0.00000000000000 	5.83366148810201,45.41920637241032,0.00000000000000 	5.83366397332143,45.41920414349899,0.00000000000000 	5.83366658520084,45.41920178040029,0.00000000000000 	5.83366927882090,45.41919932426093,0.00000000000000 	5.83367200926228,45.41919681622766,0.00000000000000 	5.83367473160568,45.41919429744721,0.00000000000000 	5.83367740093179,45.41919180906633,0.00000000000000 	5.83367997232134,45.41918939223177,0.00000000000000 	5.83368464161368,45.41918493778864,0.00000000000000 	5.83368838012871,45.41918126329183,0.00000000000000 	5.83369145660721,45.41917793401429,0.00000000000000 	5.83369332011397,45.41917496003045,0.00000000000000 	5.83369475581504,45.41917215824234,0.00000000000000 	5.83369656421239,45.41916934614032,0.00000000000000 	5.83369761988459,45.41916807152092,0.00000000000000 	5.83370033623697,45.41916491528209,0.00000000000000 	5.83370266238408,45.41916221641075,0.00000000000000 	5.83370520874059,45.41915922963195,0.00000000000000 	5.83370781074623,45.41915611597042,0.00000000000000 	5.83371030384078,45.41915303645096,0.00000000000000 	5.83371252346411,45.41915015209835,0.00000000000000 	5.83371430505614,45.41914762393736,0.00000000000000 	5.83371579616038,45.41914485179693,0.00000000000000 	5.83371602006874,45.41914421075758,0.00000000000000 	5.83371777371848,45.41914128482544,0.00000000000000 	5.83371983710172,45.41913863504236,0.00000000000000 	5.83372060711913,45.41913558745475,0.00000000000000 	5.83372072682904,45.41913270702609,0.00000000000000 	5.83372091830619,45.41912992024305,0.00000000000000 	5.83372116840842,45.41912665405891,0.00000000000000 	5.83372145081173,45.41912309172807,0.00000000000000 	5.83372173919211,45.41911941650485,0.00000000000000 	5.83372200722557,45.41911581164366,0.00000000000000 	5.83372222858811,45.41911246039881,0.00000000000000 	5.83372237695576,45.41910954602471,0.00000000000000 	5.83372240505809,45.41910639446505,0.00000000000000 	5.83372241599109,45.41910457870467,0.00000000000000 	5.83372270115723,45.41910092803455,0.00000000000000 	5.83372301878559,45.41909812133677,0.00000000000000 	5.83372339709988,45.41909521238640,0.00000000000000 	5.83372380067601,45.41909236925341,0.00000000000000 	5.83372437591593,45.41908859561448,0.00000000000000 	5.83372497957538,45.41908489602008,0.00000000000000 	5.83372497957538,45.41908489602008,0.00000000000000 </coordinates>
</LinearRing>
</outerBoundaryIs>
<innerBoundaryIs>
<LinearRing>
<coordinates>
	5.83359715179296,45.41950735962791,0.00000000000000 	5.83359369941719,45.41950870138659,0.00000000000000 	5.83358963065877,45.41950988511784,0.00000000000000 	5.83358677184150,45.41951035840147,0.00000000000000 	5.83358229115049,45.41951150088311,0.00000000000000 	5.83357717843111,45.41951304597269,0.00000000000000 	5.83357096465938,45.41951490899125,0.00000000000000 	5.83356416362512,45.41951682523681,0.00000000000000 	5.83355728911830,45.41951853000744,0.00000000000000 	5.83355085492912,45.41951975860136,0.00000000000000 	5.83354537484791,45.41952024631686,0.00000000000000 	5.83354136266509,45.41951972845233,0.00000000000000 	5.83353922061664,45.41951648715826,0.00000000000000 	5.83354288362821,45.41951461343415,0.00000000000000 	5.83354676249021,45.41951337620709,0.00000000000000 	5.83355150426472,45.41951202380451,0.00000000000000 	5.83355673245805,45.41951062002733,0.00000000000000 	5.83356207057660,45.41950922867647,0.00000000000000 	5.83356714212680,45.41950791355296,0.00000000000000 	5.83357157061515,45.41950673845791,0.00000000000000 	5.83357618402731,45.41950537793364,0.00000000000000 	5.83357699243255,45.41950506355769,0.00000000000000 	5.83358075073876,45.41950364846690,0.00000000000000 	5.83358436484473,45.41950261305051,0.00000000000000 	5.83358866891621,45.41950143356188,0.00000000000000 	5.83359276746679,45.41950021310042,0.00000000000000 	5.83359676861148,45.41949893973653,0.00000000000000 	5.83360175488661,45.41949735194116,0.00000000000000 	5.83360535328392,45.41949622548010,0.00000000000000 	5.83360897989583,45.41949511940179,0.00000000000000 	5.83361411429769,45.41949363861571,0.00000000000000 	5.83361839053522,45.41949256398357,0.00000000000000 	5.83362180148093,45.41949213657295,0.00000000000000 	5.83362560469926,45.41949357623621,0.00000000000000 	5.83362844938083,45.41949549192543,0.00000000000000 	5.83363067072758,45.41949778341391,0.00000000000000 	5.83362991367759,45.41950048685978,0.00000000000000 	5.83362633352256,45.41950198337167,0.00000000000000 	5.83362228025951,45.41950297441974,0.00000000000000 	5.83362141508893,45.41950315101393,0.00000000000000 	5.83361750825871,45.41950380762063,0.00000000000000 	5.83361317857947,45.41950438583338,0.00000000000000 	5.83360907628555,45.41950488187229,0.00000000000000 	5.83360477157984,45.41950546358657,0.00000000000000 	5.83360415479117,45.41950561230973,0.00000000000000 	5.83360020569087,45.41950665736309,0.00000000000000 	5.83359715179296,45.41950735962791,0.00000000000000 	5.83359715179296,45.41950735962791,0.00000000000000 </coordinates>
</LinearRing>
</innerBoundaryIs>
</Polygon>
<Polygon>
<outerBoundaryIs>
<LinearRing>
<coordinates>
	5.83382814852803,45.41944304160376,0.00000000000000 	5.83382973201684,45.41944300212491,0.00000000000000 	5.83383355033130,45.41944392385844,0.00000000000000 	5.83383736142997,45.41944479540923,0.00000000000000 	5.83384031982862,45.41944494230184,0.00000000000000 	5.83384467660586,45.41944429699297,0.00000000000000 	5.83384716706160,45.41944211497777,0.00000000000000 	5.83384761276727,45.41944089428982,0.00000000000000 	5.83384825178809,45.41943807340577,0.00000000000000 	5.83385112194986,45.41943601466193,0.00000000000000 	5.83385371350706,45.41943501661959,0.00000000000000 	5.83385826814421,45.41943393847322,0.00000000000000 	5.83386217262984,45.41943331262549,0.00000000000000 	5.83386620791111,45.41943283771330,0.00000000000000 	5.83387011485525,45.41943250859089,0.00000000000000 	5.83387467659480,45.41943228765123,0.00000000000000 	5.83387681649038,45.41943225731566,0.00000000000000 	5.83388165516224,45.41943227179372,0.00000000000000 	5.83388669859408,45.41943229137637,0.00000000000000 	5.83389129828875,45.41943220195057,0.00000000000000 	5.83389594723593,45.41943161379890,0.00000000000000 	5.83389782990888,45.41943075680530,0.00000000000000 	5.83390158797982,45.41942872270057,0.00000000000000 	5.83390488819822,45.41942681748802,0.00000000000000 	5.83390821194539,45.41942483454719,0.00000000000000 	5.83391120882703,45.41942299678320,0.00000000000000 	5.83391409059212,45.41942115752997,0.00000000000000 	5.83391795375680,45.41942011036691,0.00000000000000 	5.83392266419221,45.41941966183790,0.00000000000000 	5.83392815903634,45.41941945038446,0.00000000000000 	5.83393374560933,45.41941942952413,0.00000000000000 	5.83393873123131,45.41941955277467,0.00000000000000 	5.83394324669009,45.41941986094155,0.00000000000000 	5.83394519139766,45.41942038399409,0.00000000000000 	5.83394823478465,45.41942259666439,0.00000000000000 	5.83395017380948,45.41942505855864,0.00000000000000 	5.83395216959003,45.41942792362115,0.00000000000000 	5.83395262549072,45.41942900955775,0.00000000000000 	5.83395257694102,45.41943233392586,0.00000000000000 	5.83395197198490,45.41943542032923,0.00000000000000 	5.83395113852775,45.41943861959821,0.00000000000000 	5.83395030950968,45.41944157575647,0.00000000000000 	5.83394957035456,45.41944499559160,0.00000000000000 	5.83394950377913,45.41944593282188,0.00000000000000 	5.83394897964085,45.41944910060872,0.00000000000000 	5.83394827305612,45.41945209198246,0.00000000000000 	5.83394739583523,45.41945507882264,0.00000000000000 	5.83394617848754,45.41945822819178,0.00000000000000 	5.83394443721341,45.41946118788623,0.00000000000000 	5.83394251145373,45.41946375091815,0.00000000000000 	5.83394050012157,45.41946637033462,0.00000000000000 	5.83393987152730,45.41946714757342,0.00000000000000 	5.83393722506123,45.41946988854450,0.00000000000000 	5.83393448156826,45.41947253572787,0.00000000000000 	5.83393152302331,45.41947526441869,0.00000000000000 	5.83392874111897,45.41947769170842,0.00000000000000 	5.83392556100326,45.41948002741266,0.00000000000000 	5.83392517633537,45.41948017067457,0.00000000000000 	5.83392132072006,45.41948066550460,0.00000000000000 	5.83391729936840,45.41948127619710,0.00000000000000 	5.83391374816645,45.41948317920924,0.00000000000000 	5.83391234030926,45.41948483007777,0.00000000000000 	5.83391072806100,45.41948749985481,0.00000000000000 	5.83390949421221,45.41949043292578,0.00000000000000 	5.83390872130405,45.41949333226815,0.00000000000000 	5.83390852911302,45.41949645652004,0.00000000000000 	5.83390984131425,45.41949822708116,0.00000000000000 	5.83391390052091,45.41949792930402,0.00000000000000 	5.83391792226132,45.41949765161849,0.00000000000000 	5.83392064167432,45.41949936793474,0.00000000000000 	5.83392066430201,45.41950215047883,0.00000000000000 	5.83392013264005,45.41950531314914,0.00000000000000 	5.83391969927858,45.41950712443548,0.00000000000000 	5.83391843846552,45.41951004540941,0.00000000000000 	5.83391700645488,45.41951311797571,0.00000000000000 	5.83391600916516,45.41951613281267,0.00000000000000 	5.83391625154821,45.41951734078380,0.00000000000000 	5.83392007980005,45.41951834497908,0.00000000000000 	5.83392424364033,45.41951849981092,0.00000000000000 	5.83392706623068,45.41951836897385,0.00000000000000 	5.83393072839510,45.41951720218501,0.00000000000000 	5.83393445646061,45.41951581643094,0.00000000000000 	5.83393532489194,45.41951563334349,0.00000000000000 	5.83393881314568,45.41951419370507,0.00000000000000 	5.83394257839729,45.41951280121403,0.00000000000000 	5.83394644873393,45.41951223177474,0.00000000000000 	5.83394725293482,45.41951222964646,0.00000000000000 	5.83395120498864,45.41951354312786,0.00000000000000 	5.83395253107176,45.41951622591556,0.00000000000000 	5.83395328900696,45.41951768530065,0.00000000000000 	5.83395421364120,45.41952058470009,0.00000000000000 	5.83395471295003,45.41952331688319,0.00000000000000 	5.83395498081283,45.41952459744720,0.00000000000000 	5.83395601803491,45.41952765540671,0.00000000000000 	5.83395705971246,45.41953029165730,0.00000000000000 	5.83395803662100,45.41953295149547,0.00000000000000 	5.83395907138673,45.41953458921454,0.00000000000000 	5.83396159229864,45.41953696765238,0.00000000000000 	5.83396469586707,45.41953935844613,0.00000000000000 	5.83396801078654,45.41954170704496,0.00000000000000 	5.83397057813925,45.41954387161057,0.00000000000000 	5.83397331553434,45.41954639363716,0.00000000000000 	5.83397645583475,45.41954930408803,0.00000000000000 	5.83397973534731,45.41955225933760,0.00000000000000 	5.83398289037871,45.41955491576030,0.00000000000000 	5.83398644768346,45.41955739889470,0.00000000000000 	5.83398980224998,45.41955890734248,0.00000000000000 	5.83399373097490,45.41956020946197,0.00000000000000 	5.83399804344291,45.41956139226695,0.00000000000000 	5.83400254923868,45.41956254277121,0.00000000000000 	5.83400705794692,45.41956374798858,0.00000000000000 	5.83400988975230,45.41956453208269,0.00000000000000 	5.83401361720271,45.41956555018507,0.00000000000000 	5.83401697343861,45.41956721730114,0.00000000000000 	5.83401849143238,45.41956929267182,0.00000000000000 	5.83401867276558,45.41957214197343,0.00000000000000 	5.83401998874457,45.41957471617234,0.00000000000000 	5.83402089658406,45.41957530431607,0.00000000000000 	5.83402443232119,45.41957675699668,0.00000000000000 	5.83402863721842,45.41957800782473,0.00000000000000 	5.83403280520274,45.41957939850889,0.00000000000000 	5.83403620359514,45.41958030293517,0.00000000000000 	5.83404044760699,45.41958031565293,0.00000000000000 	5.83404482676984,45.41958038550868,0.00000000000000 	5.83404792807118,45.41958024170139,0.00000000000000 	5.83405334303976,45.41957962290243,0.00000000000000 	5.83406055324971,45.41957863029346,0.00000000000000 	5.83406466956210,45.41957802542947,0.00000000000000 	5.83406904027514,45.41957736505609,0.00000000000000 	5.83407360058560,45.41957666182105,0.00000000000000 	5.83407828569025,45.41957592837206,0.00000000000000 	5.83408303078590,45.41957517735689,0.00000000000000 	5.83408777106933,45.41957442142326,0.00000000000000 	5.83409244173735,45.41957367321893,0.00000000000000 	5.83409697798678,45.41957294539172,0.00000000000000 	5.83410131501443,45.41957225058937,0.00000000000000 	5.83410538801714,45.41957160145964,0.00000000000000 	5.83411248273507,45.41957049080939,0.00000000000000 	5.83411774371529,45.41956971462339,0.00000000000000 	5.83412182937015,45.41956927212892,0.00000000000000 	5.83412573833492,45.41956906894178,0.00000000000000 	5.83413125286402,45.41956912702577,0.00000000000000 	5.83413632452113,45.41956950282871,0.00000000000000 	5.83414092611462,45.41957006391711,0.00000000000000 	5.83414503045278,45.41957067785741,0.00000000000000 	5.83414968239727,45.41957134976116,0.00000000000000 	5.83415313881435,45.41957204516675,0.00000000000000 	5.83415704403938,45.41957325120631,0.00000000000000 	5.83416107150799,45.41957476477721,0.00000000000000 	5.83416489465573,45.41957638277690,0.00000000000000 	5.83416818691805,45.41957790210284,0.00000000000000 	5.83417160731086,45.41957966340135,0.00000000000000 	5.83417418910517,45.41958065450232,0.00000000000000 	5.83417917446687,45.41958224651802,0.00000000000000 	5.83418332269183,45.41958353295228,0.00000000000000 	5.83418777317185,45.41958492333326,0.00000000000000 	5.83419221950800,45.41958635241042,0.00000000000000 	5.83419635530133,45.41958775493327,0.00000000000000 	5.83419987415282,45.41958906565135,0.00000000000000 	5.83420383543410,45.41959115067160,0.00000000000000 	5.83420511814792,45.41959253844657,0.00000000000000 	5.83420757407780,45.41959481043399,0.00000000000000 	5.83421049184513,45.41959725957440,0.00000000000000 	5.83421344563745,45.41959955346852,0.00000000000000 	5.83421653983905,45.41960169613167,0.00000000000000 	5.83421890991023,45.41960289712039,0.00000000000000 	5.83422255435576,45.41960424970414,0.00000000000000 	5.83422638399073,45.41960535121991,0.00000000000000 	5.83423036045268,45.41960621204448,0.00000000000000 	5.83423151227575,45.41960642994541,0.00000000000000 	5.83423537079378,45.41960735670592,0.00000000000000 	5.83423941203364,45.41960843340175,0.00000000000000 	5.83424309361485,45.41960932619568,0.00000000000000 	5.83424611214172,45.41961026231711,0.00000000000000 	5.83424922739050,45.41961218941616,0.00000000000000 	5.83425226574565,45.41961424454489,0.00000000000000 	5.83425439098943,45.41961564007023,0.00000000000000 	5.83425735890727,45.41961766780509,0.00000000000000 	5.83426012300071,45.41961992979763,0.00000000000000 	5.83426221582715,45.41962242967683,0.00000000000000 	5.83426415571544,45.41962525960827,0.00000000000000 	5.83426770555831,45.41962983106467,0.00000000000000 	5.83427082333909,45.41963311410093,0.00000000000000 	5.83427351847728,45.41963530406330,0.00000000000000 	5.83427678933517,45.41963696681324,0.00000000000000 	5.83428138551059,45.41963638624161,0.00000000000000 	5.83428138551059,45.41963638624161,0.00000000000000 	5.83428333460291,45.41963350551627,0.00000000000000 	5.83428151092928,45.41963020315590,0.00000000000000 	5.83427929222164,45.41962773004622,0.00000000000000 	5.83427662061075,45.41962520906775,0.00000000000000 	5.83427379561394,45.41962278538637,0.00000000000000 	5.83426992571397,45.41961964984672,0.00000000000000 	5.83426702449007,45.41961716454887,0.00000000000000 	5.83426889316200,45.41961610996745,0.00000000000000 	5.83427312439672,45.41961649024296,0.00000000000000 	5.83427735846692,45.41961690746199,0.00000000000000 	5.83428229337500,45.41961726048977,0.00000000000000 	5.83428774056390,45.41961764297132,0.00000000000000 	5.83429438205147,45.41961810935668,0.00000000000000 	5.83430176226500,45.41961863067457,0.00000000000000 	5.83430942563177,45.41961917795378,0.00000000000000 	5.83431691657902,45.41961972222320,0.00000000000000 	5.83432377953398,45.41962023451188,0.00000000000000 	5.83432955892383,45.41962068584893,0.00000000000000 	5.83433519975850,45.41962118519664,0.00000000000000 	5.83433959859713,45.41962146866991,0.00000000000000 	5.83434356746888,45.41962099549865,0.00000000000000 	5.83434733028236,45.41962031172844,0.00000000000000 	5.83434968652404,45.41961980318067,0.00000000000000 	5.83435317949473,45.41961848125953,0.00000000000000 	5.83435671423384,45.41961672794308,0.00000000000000 	5.83435989830378,45.41961487534970,0.00000000000000 	5.83436278740873,45.41961292596137,0.00000000000000 	5.83436485024069,45.41961152261911,0.00000000000000 	5.83436825359172,45.41960955194504,0.00000000000000 	5.83437195489312,45.41960775609319,0.00000000000000 	5.83437585668857,45.41960645845720,0.00000000000000 	5.83437878602773,45.41960653915660,0.00000000000000 	5.83438284064508,45.41960730528297,0.00000000000000 	5.83438743542318,45.41960835289854,0.00000000000000 	5.83439198524448,45.41960927806569,0.00000000000000 	5.83439590499123,45.41960967684682,0.00000000000000 	5.83439815995624,45.41960975980479,0.00000000000000 	5.83440202490564,45.41961067882742,0.00000000000000 	5.83440518251074,45.41961258949610,0.00000000000000 	5.83440558354203,45.41961285141846,0.00000000000000 	5.83440792294540,45.41961538370703,0.00000000000000 	5.83440909397173,45.41961820056905,0.00000000000000 	5.83440926626711,45.41962120433840,0.00000000000000 	5.83440863304503,45.41962359075330,0.00000000000000 	5.83440733203227,45.41962733157241,0.00000000000000 	5.83440624136496,45.41963024414341,0.00000000000000 	5.83440507540586,45.41963325803898,0.00000000000000 	5.83440392275666,45.41963617300602,0.00000000000000 	5.83440241255514,45.41963992191184,0.00000000000000 	5.83440121729326,45.41964283852615,0.00000000000000 	5.83441987413060,45.41964666207692,0.00000000000000 	5.83442000537636,45.41964587516410,0.00000000000000 	5.83442060683964,45.41964223636709,0.00000000000000 	5.83442119580643,45.41963863121282,0.00000000000000 	5.83442186977546,45.41963445035668,0.00000000000000 	5.83442257269749,45.41963000899568,0.00000000000000 	5.83442324852334,45.41962562232680,0.00000000000000 	5.83442384120382,45.41962160554702,0.00000000000000 	5.83442429468980,45.41961827385331,0.00000000000000 	5.83442459132160,45.41961525034259,0.00000000000000 	5.83442465018616,45.41961434823494,0.00000000000000 	5.83442532729806,45.41961128141151,0.00000000000000 	5.83442492706282,45.41960855673090,0.00000000000000 	5.83442411912754,45.41960583135872,0.00000000000000 	5.83442373733999,45.41960476397360,0.00000000000000 	5.83442233452886,45.41960176862881,0.00000000000000 	5.83442059739864,45.41959909795972,0.00000000000000 	5.83441787640333,45.41959607425141,0.00000000000000 	5.83441483761549,45.41959370486293,0.00000000000000 	5.83441083298363,45.41959173039910,0.00000000000000 	5.83440899151742,45.41959091559279,0.00000000000000 	5.83440644723347,45.41958857697065,0.00000000000000 	5.83440252757859,45.41958793612955,0.00000000000000 	5.83440149958741,45.41958788233831,0.00000000000000 	5.83439667713669,45.41958779624634,0.00000000000000 	5.83439248165098,45.41958824537097,0.00000000000000 	5.83438838493202,45.41958914421279,0.00000000000000 	5.83438519933610,45.41959084601032,0.00000000000000 	5.83438370259231,45.41959351754031,0.00000000000000 	5.83438120710686,45.41959575173227,0.00000000000000 	5.83437983984908,45.41959627140066,0.00000000000000 	5.83437629644717,45.41959754507519,0.00000000000000 	5.83437217909281,45.41959883293502,0.00000000000000 	5.83436809326135,45.41959977706222,0.00000000000000 	5.83436334809729,45.41959976580892,0.00000000000000 	5.83436143912511,45.41959882645587,0.00000000000000 	5.83435851548023,45.41959691201042,0.00000000000000 	5.83435446890480,45.41959669908091,0.00000000000000 	5.83435380216055,45.41959687088426,0.00000000000000 	5.83435005767486,45.41959828775952,0.00000000000000 	5.83434635462975,45.41959993487393,0.00000000000000 	5.83434251483840,45.41960114012920,0.00000000000000 	5.83433864797018,45.41960221078452,0.00000000000000 	5.83433450964014,45.41960272037254,0.00000000000000 	5.83432982550501,45.41960302782523,0.00000000000000 	5.83432653436286,45.41960322858244,0.00000000000000 	5.83432101276466,45.41960349708842,0.00000000000000 	5.83431708491127,45.41960364077902,0.00000000000000 	5.83431307413585,45.41960374537079,0.00000000000000 	5.83430907858838,45.41960380156541,0.00000000000000 	5.83430332852270,45.41960377477248,0.00000000000000 	5.83429816481363,45.41960358678278,0.00000000000000 	5.83429391871740,45.41960320621448,0.00000000000000 	5.83429265560326,45.41960305619403,0.00000000000000 	5.83428848485338,45.41960273886591,0.00000000000000 	5.83428392201529,45.41960257790119,0.00000000000000 	5.83427919854718,45.41960251835302,0.00000000000000 	5.83427454590724,45.41960250527460,0.00000000000000 	5.83427019555369,45.41960248371915,0.00000000000000 	5.83426526535683,45.41960234682238,0.00000000000000 	5.83426055752821,45.41960190252383,0.00000000000000 	5.83425671081440,45.41960134034162,0.00000000000000 	5.83425290637747,45.41960063525163,0.00000000000000 	5.83424838644603,45.41959955580744,0.00000000000000 	5.83424414712950,45.41959786923908,0.00000000000000 	5.83424329855679,45.41959725554328,0.00000000000000 	5.83424014946013,45.41959519707260,0.00000000000000 	5.83423706484760,45.41959320410322,0.00000000000000 	5.83423399423928,45.41959110617159,0.00000000000000 	5.83423090203451,45.41958862129189,0.00000000000000 	5.83423012988045,45.41958766285428,0.00000000000000 	5.83422947726293,45.41958493503013,0.00000000000000 	5.83422976836671,45.41958175513577,0.00000000000000 	5.83422994013396,45.41957890406683,0.00000000000000 	5.83422944629134,45.41957579510799,0.00000000000000 	5.83422718291921,45.41957271186861,0.00000000000000 	5.83422345710046,45.41957119219196,0.00000000000000 	5.83421906032081,45.41957070740888,0.00000000000000 	5.83421478406596,45.41957072885022,0.00000000000000 	5.83421054445318,45.41957051436169,0.00000000000000 	5.83420630640308,45.41957001234250,0.00000000000000 	5.83420159759151,45.41956927130713,0.00000000000000 	5.83419681076727,45.41956833931606,0.00000000000000 	5.83419233867910,45.41956726442986,0.00000000000000 	5.83418754430923,45.41956569203472,0.00000000000000 	5.83418349023851,45.41956405653281,0.00000000000000 	5.83417921907560,45.41956236469653,0.00000000000000 	5.83417500180911,45.41956058234860,0.00000000000000 	5.83417110942764,45.41955867531176,0.00000000000000 	5.83416781291974,45.41955660940877,0.00000000000000 	5.83416538565923,45.41955472081052,0.00000000000000 	5.83416244859737,45.41955281345583,0.00000000000000 	5.83415824474811,45.41955186350142,0.00000000000000 	5.83415356542116,45.41955167694790,0.00000000000000 	5.83415211717680,45.41955169624345,0.00000000000000 	5.83414761182568,45.41955204103051,0.00000000000000 	5.83414299235041,45.41955273200185,0.00000000000000 	5.83413842178326,45.41955366094374,0.00000000000000 	5.83413406315659,45.41955471964249,0.00000000000000 	5.83413007950277,45.41955579988439,0.00000000000000 	5.83412563303990,45.41955708668251,0.00000000000000 	5.83412082813133,45.41955822368084,0.00000000000000 	5.83411589664613,45.41955923539560,0.00000000000000 	5.83411004295831,45.41956036862365,0.00000000000000 	5.83410366166876,45.41956155354270,0.00000000000000 	5.83409714737843,45.41956272033060,0.00000000000000 	5.83409089468834,45.41956379916518,0.00000000000000 	5.83408529819958,45.41956472022445,0.00000000000000 	5.83408075251326,45.41956541368639,0.00000000000000 	5.83407676742840,45.41956587439892,0.00000000000000 	5.83407344915667,45.41956596481424,0.00000000000000 	5.83406903694429,45.41956599321643,0.00000000000000 	5.83406418436911,45.41956578560507,0.00000000000000 	5.83405954500902,45.41956516797978,0.00000000000000 	5.83405577244194,45.41956396634032,0.00000000000000 	5.83405308272360,45.41956295581357,0.00000000000000 	5.83404880253144,45.41956193577758,0.00000000000000 	5.83404443013651,45.41956102094838,0.00000000000000 	5.83404073007735,45.41955991799355,0.00000000000000 	5.83403821520227,45.41955782787509,0.00000000000000 	5.83403795600268,45.41955726962370,0.00000000000000 	5.83403549174226,45.41955461559814,0.00000000000000 	5.83403244424525,45.41955237659344,0.00000000000000 	5.83402868970400,45.41955013201412,0.00000000000000 	5.83402451695417,45.41954806853194,0.00000000000000 	5.83402021483136,45.41954637281864,0.00000000000000 	5.83401607217104,45.41954523154602,0.00000000000000 	5.83401338431903,45.41954458980248,0.00000000000000 	5.83400928901893,45.41954329218456,0.00000000000000 	5.83400531019776,45.41954172155172,0.00000000000000 	5.83400166464905,45.41954002301578,0.00000000000000 	5.83399769704604,45.41953781015134,0.00000000000000 	5.83399489557218,45.41953561110753,0.00000000000000 	5.83399303156938,45.41953394366575,0.00000000000000 	5.83398990855620,45.41953183409879,0.00000000000000 	5.83398610647285,45.41952958355174,0.00000000000000 	5.83398220525937,45.41952749316973,0.00000000000000 	5.83397878485569,45.41952586409798,0.00000000000000 	5.83397734081808,45.41952521281554,0.00000000000000 	5.83397363790301,45.41952318333446,0.00000000000000 	5.83397097460728,45.41952091203444,0.00000000000000 	5.83396947413151,45.41951823387057,0.00000000000000 	5.83396895865536,45.41951608357259,0.00000000000000 	5.83396840803768,45.41951305898016,0.00000000000000 	5.83396778412973,45.41951001481415,0.00000000000000 	5.83396667102835,45.41950687085645,0.00000000000000 	5.83396429058289,45.41950504797430,0.00000000000000 	5.83396023066746,45.41950386974206,0.00000000000000 	5.83395558309683,45.41950310805225,0.00000000000000 	5.83395143968574,45.41950253479756,0.00000000000000 	5.83394815396271,45.41950218354415,0.00000000000000 	5.83394389041905,45.41950155198774,0.00000000000000 	5.83394114507911,45.41949950418876,0.00000000000000 	5.83393984228579,45.41949818283762,0.00000000000000 	5.83393678605854,45.41949620058693,0.00000000000000 	5.83393371927413,45.41949431515421,0.00000000000000 	5.83393181493180,45.41949144674737,0.00000000000000 	5.83393251682132,45.41948997275780,0.00000000000000 	5.83393550569794,45.41948814473776,0.00000000000000 	5.83393843224285,45.41948585204822,0.00000000000000 	5.83394057800896,45.41948349952770,0.00000000000000 	5.83394326358773,45.41948092140422,0.00000000000000 	5.83394663355245,45.41947778840378,0.00000000000000 	5.83395041390164,45.41947431733576,0.00000000000000 	5.83395433063394,45.41947072500951,0.00000000000000 	5.83395810974807,45.41946722823445,0.00000000000000 	5.83396147724292,45.41946404382001,0.00000000000000 	5.83396415911745,45.41946138857566,0.00000000000000 	5.83396629701404,45.41945887217384,0.00000000000000 	5.83396718309325,45.41945601127735,0.00000000000000 	5.83396772946781,45.41945295184526,0.00000000000000 	5.83396821317922,45.41944951667237,0.00000000000000 	5.83396866900183,45.41944607249233,0.00000000000000 	5.83396913171000,45.41944298603875,0.00000000000000 	5.83396981946889,45.41944006109134,0.00000000000000 	5.83397023026594,45.41943906552121,0.00000000000000 	5.83397179349726,45.41943611363295,0.00000000000000 	5.83397362748123,45.41943330957346,0.00000000000000 	5.83397544227954,45.41943077625133,0.00000000000000 	5.83397667472984,45.41942887096041,0.00000000000000 	5.83397660428788,45.41942604626668,0.00000000000000 	5.83397547743645,45.41942334640272,0.00000000000000 	5.83397428865193,45.41942036864153,0.00000000000000 	5.83397302756397,45.41941711129276,0.00000000000000 	5.83397145962459,45.41941395058603,0.00000000000000 	5.83396935028578,45.41941126275078,0.00000000000000 	5.83396646499952,45.41940942401659,0.00000000000000 	5.83396342338967,45.41940832532558,0.00000000000000 	5.83395941091299,45.41940733024983,0.00000000000000 	5.83395488381154,45.41940700395572,0.00000000000000 	5.83395092731325,45.41940709420971,0.00000000000000 	5.83394854052638,45.41940715626032,0.00000000000000 	5.83394452130599,45.41940713520913,0.00000000000000 	5.83394013453379,45.41940702208008,0.00000000000000 	5.83393555941813,45.41940686735721,0.00000000000000 	5.83393097516734,45.41940672152455,0.00000000000000 	5.83392656098972,45.41940663506622,0.00000000000000 	5.83392249609358,45.41940665846631,0.00000000000000 	5.83391875111031,45.41940694485638,0.00000000000000 	5.83391407189275,45.41940778396092,0.00000000000000 	5.83390983749424,45.41940889835658,0.00000000000000 	5.83390614157499,45.41941001828169,0.00000000000000 	5.83390242159797,45.41941101499877,0.00000000000000 	5.83390059652636,45.41941132746418,0.00000000000000 	5.83389608010771,45.41941200850379,0.00000000000000 	5.83389217977597,45.41941256914011,0.00000000000000 	5.83388780512603,45.41941318710354,0.00000000000000 	5.83388315946409,45.41941383842765,0.00000000000000 	5.83387844609639,45.41941449914604,0.00000000000000 	5.83387386832917,45.41941514529238,0.00000000000000 	5.83386962946870,45.41941575290035,0.00000000000000 	5.83386435136065,45.41941653962658,0.00000000000000 	5.83386289361418,45.41941678747950,0.00000000000000 	5.83385877904310,45.41941771414953,0.00000000000000 	5.83385503534743,45.41941882820142,0.00000000000000 	5.83385058261039,45.41942041111960,0.00000000000000 	5.83384669786319,45.41942186163993,0.00000000000000 	5.83384256114663,45.41942308335294,0.00000000000000 	5.83384183317310,45.41942323961155,0.00000000000000 	5.83383829530365,45.41942450142007,0.00000000000000 	5.83383492329089,45.41942647582239,0.00000000000000 	5.83383146754828,45.41942836574297,0.00000000000000 	5.83382959768211,45.41942976328944,0.00000000000000 	5.83382846135025,45.41943266343389,0.00000000000000 	5.83382508265923,45.41943425348888,0.00000000000000 	5.83382814852803,45.41944304160376,0.00000000000000 </coordinates>
</LinearRing>
</outerBoundaryIs>
</Polygon>
<Polygon>
<outerBoundaryIs>
<LinearRing>
<coordinates>
	5.83440121729326,45.41964283852615,0.00000000000000 	5.83440091819309,45.41964414094123,0.00000000000000 	5.83439990285340,45.41964727704072,0.00000000000000 	5.83439876380005,45.41964994684546,0.00000000000000 	5.83439723764861,45.41965251197225,0.00000000000000 	5.83439654204994,45.41965339192431,0.00000000000000 	5.83439432669719,45.41965619946634,0.00000000000000 	5.83439228407197,45.41965883187261,0.00000000000000 	5.83439023861421,45.41966154441345,0.00000000000000 	5.83438848177440,45.41966400286027,0.00000000000000 	5.83438698667537,45.41966662783677,0.00000000000000 	5.83438693279974,45.41966694336408,0.00000000000000 	5.83438652664811,45.41966987642747,0.00000000000000 	5.83438612044073,45.41967313353561,0.00000000000000 	5.83438573770778,45.41967637290711,0.00000000000000 	5.83438540092134,45.41967952838039,0.00000000000000 	5.83438489960176,45.41968180422413,0.00000000000000 	5.83438403200001,45.41968486070908,0.00000000000000 	5.83438337680883,45.41968772328101,0.00000000000000 	5.83438083426640,45.41968957370219,0.00000000000000 	5.83437734723759,45.41969140892594,0.00000000000000 	5.83437363961777,45.41969321531900,0.00000000000000 	5.83436993897315,45.41969491437928,0.00000000000000 	5.83436930007618,45.41969525269953,0.00000000000000 	5.83436650594287,45.41969722393380,0.00000000000000 	5.83436382657967,45.41969926928105,0.00000000000000 	5.83436092355049,45.41970128208473,0.00000000000000 	5.83435927430699,45.41970366297943,0.00000000000000 	5.83435815343190,45.41970681109678,0.00000000000000 	5.83435708179855,45.41970966537890,0.00000000000000 	5.83435620988879,45.41971115262320,0.00000000000000 	5.83435454878100,45.41971400329636,0.00000000000000 	5.83435277788722,45.41971709247487,0.00000000000000 	5.83435129975190,45.41971981197819,0.00000000000000 	5.83435051504727,45.41972099874585,0.00000000000000 	5.83434857128630,45.41972337860927,0.00000000000000 	5.83434606037453,45.41972619953369,0.00000000000000 	5.83434348254837,45.41972894838275,0.00000000000000 	5.83434092824650,45.41973150135691,0.00000000000000 	5.83434011656279,45.41973243990691,0.00000000000000 	5.83433824688716,45.41973542741686,0.00000000000000 	5.83433674407972,45.41973825532569,0.00000000000000 	5.83433526458030,45.41974122058349,0.00000000000000 	5.83433390693381,45.41974399376260,0.00000000000000 	5.83433218262707,45.41974729414439,0.00000000000000 	5.83433110427447,45.41975015420694,0.00000000000000 	5.83433183505051,45.41975326122891,0.00000000000000 	5.83433353980410,45.41975614544616,0.00000000000000 	5.83433560566037,45.41975892674444,0.00000000000000 	5.83433650860883,45.41975988337189,0.00000000000000 	5.83434015136189,45.41976195307407,0.00000000000000 	5.83434479665838,45.41976303720033,0.00000000000000 	5.83434993237497,45.41976341178626,0.00000000000000 	5.83435504638840,45.41976335286748,0.00000000000000 	5.83435962657549,45.41976313647977,0.00000000000000 	5.83436401794408,45.41976308011007,0.00000000000000 	5.83436621056772,45.41976313232404,0.00000000000000 	5.83437152240091,45.41976295201334,0.00000000000000 	5.83437597584737,45.41976270271868,0.00000000000000 	5.83438080997398,45.41976238482084,0.00000000000000 	5.83438572555276,45.41976202803438,0.00000000000000 	5.83439042335576,45.41976166207390,0.00000000000000 	5.83439640716959,45.41976116093255,0.00000000000000 	5.83440083057890,45.41976073797170,0.00000000000000 	5.83440280044186,45.41976059536159,0.00000000000000 	5.83440669453550,45.41976039129504,0.00000000000000 	5.83441203028296,45.41976014117294,0.00000000000000 	5.83441832510737,45.41975986039613,0.00000000000000 	5.83442509643190,45.41975956436554,0.00000000000000 	5.83443186167973,45.41975926848224,0.00000000000000 	5.83443813827405,45.41975898814736,0.00000000000000 	5.83444344363810,45.41975873876216,0.00000000000000 	5.83444921036833,45.41975839444611,0.00000000000000 	5.83445095702909,45.41975829616904,0.00000000000000 	5.83445502702935,45.41975872314043,0.00000000000000 	5.83445882149282,45.41975987025580,0.00000000000000 	5.83445971244309,45.41976042322386,0.00000000000000 	5.83446240850121,45.41976307858300,0.00000000000000 	5.83446465614163,45.41976592073901,0.00000000000000 	5.83446657344657,45.41976877968993,0.00000000000000 	5.83446792751652,45.41977150327835,0.00000000000000 	5.83446910355465,45.41977343391685,0.00000000000000 	5.83447217358716,45.41977537060920,0.00000000000000 	5.83447550195876,45.41977688764074,0.00000000000000 	5.83447682626109,45.41977734495671,0.00000000000000 	5.83448140374022,45.41977766453115,0.00000000000000 	5.83448528527955,45.41977726415035,0.00000000000000 	5.83448949842433,45.41977682553210,0.00000000000000 	5.83449228220810,45.41977691159424,0.00000000000000 	5.83449838165570,45.41977710909553,0.00000000000000 	5.83450241907569,45.41977724151629,0.00000000000000 	5.83450697859835,45.41977739205330,0.00000000000000 	5.83451195795258,45.41977755745877,0.00000000000000 	5.83451725486728,45.41977773448487,0.00000000000000 	5.83452276707135,45.41977791988381,0.00000000000000 	5.83452839229369,45.41977811040780,0.00000000000000 	5.83453402826319,45.41977830280909,0.00000000000000 	5.83453957270876,45.41977849383994,0.00000000000000 	5.83454492335927,45.41977868025261,0.00000000000000 	5.83454997794364,45.41977885879941,0.00000000000000 	5.83455463419074,45.41977902623263,0.00000000000000 	5.83456234258872,45.41977931476772,0.00000000000000 	5.83456836087841,45.41977958302699,0.00000000000000 	5.83457157833613,45.41977976225938,0.00000000000000 	5.83457575620673,45.41977975261545,0.00000000000000 	5.83457985543207,45.41977948567301,0.00000000000000 	5.83458375606372,45.41977905869439,0.00000000000000 	5.83458726356450,45.41977832935708,0.00000000000000 	5.83459073420393,45.41977643828550,0.00000000000000 	5.83459303952893,45.41977397026579,0.00000000000000 	5.83459331503020,45.41977372958087,0.00000000000000 	5.83459591037527,45.41977132001465,0.00000000000000 	5.83459897217511,45.41976918368579,0.00000000000000 	5.83460269205398,45.41976815755557,0.00000000000000 	5.83460461152846,45.41976820313491,0.00000000000000 	5.83460926972272,45.41976852758067,0.00000000000000 	5.83461318476450,45.41976887770100,0.00000000000000 	5.83461744634191,45.41976930536413,0.00000000000000 	5.83462179634564,45.41976978527089,0.00000000000000 	5.83462597666634,45.41977029212222,0.00000000000000 	5.83463136437755,45.41977104757849,0.00000000000000 	5.83463554508123,45.41977191303494,0.00000000000000 	5.83463848550600,45.41977297436389,0.00000000000000 	5.83464220090371,45.41977423153264,0.00000000000000 	5.83464608119310,45.41977565267060,0.00000000000000 	5.83464775052555,45.41977638226640,0.00000000000000 	5.83465108860809,45.41977815398137,0.00000000000000 	5.83465452764980,45.41978018551552,0.00000000000000 	5.83465755871615,45.41978194111738,0.00000000000000 	5.83466055348637,45.41978415062685,0.00000000000000 	5.83466085799251,45.41978700285512,0.00000000000000 	5.83466084103534,45.41978730329774,0.00000000000000 	5.83466036920822,45.41979029165369,0.00000000000000 	5.83465912528616,45.41979290375963,0.00000000000000 	5.83465772375369,45.41979556090947,0.00000000000000 	5.83465634563746,45.41979826086226,0.00000000000000 	5.83465424259100,45.41980074056176,0.00000000000000 	5.83465228541633,45.41980246842549,0.00000000000000 	5.83464961252173,45.41980527033329,0.00000000000000 	5.83464747634358,45.41980769273931,0.00000000000000 	5.83464490367526,45.41981083875934,0.00000000000000 	5.83464292127953,45.41981373916841,0.00000000000000 	5.83464264182076,45.41981451861503,0.00000000000000 	5.83464323294278,45.41981728204428,0.00000000000000 	5.83464542199697,45.41981982637422,0.00000000000000 	5.83464821209901,45.41982218212242,0.00000000000000 	5.83464948504570,45.41982308279541,0.00000000000000 	5.83465330942888,45.41982491870674,0.00000000000000 	5.83465697645035,45.41982623378310,0.00000000000000 	5.83466027309780,45.41982802873006,0.00000000000000 	5.83466077830858,45.41982842764150,0.00000000000000 	5.83466367549286,45.41983095043255,0.00000000000000 	5.83466612185611,45.41983354992242,0.00000000000000 	5.83466799798025,45.41983641175819,0.00000000000000 	5.83466908679996,45.41983871519394,0.00000000000000 	5.83467024569346,45.41984152880840,0.00000000000000 	5.83467084462794,45.41984462933990,0.00000000000000 	5.83467090272666,45.41984635411511,0.00000000000000 	5.83467092315965,45.41984936543354,0.00000000000000 	5.83467084637111,45.41985272558554,0.00000000000000 	5.83467063740600,45.41985592790456,0.00000000000000 	5.83467013707444,45.41985893697604,0.00000000000000 	5.83466946595339,45.41986129004317,0.00000000000000 	5.83466815712950,45.41986398932293,0.00000000000000 	5.83466655891216,45.41986669113684,0.00000000000000 	5.83466530806524,45.41986945704434,0.00000000000000 	5.83466430978031,45.41987223192886,0.00000000000000 	5.83466420015880,45.41987379227313,0.00000000000000 	5.83466478155447,45.41987649963129,0.00000000000000 	5.83466592672729,45.41987957179389,0.00000000000000 	5.83466734362189,45.41988262514092,0.00000000000000 	5.83466905192066,45.41988583094426,0.00000000000000 	5.83466987293009,45.41988721380428,0.00000000000000 	5.83467177403274,45.41989028874182,0.00000000000000 	5.83467334247111,45.41989279811441,0.00000000000000 	5.83467503545414,45.41989550887111,0.00000000000000 	5.83467675330928,45.41989827859999,0.00000000000000 	5.83467839636394,45.41990096488910,0.00000000000000 	5.83468050266111,45.41990452634713,0.00000000000000 	5.83468211897750,45.41990765374072,0.00000000000000 	5.83468236250838,45.41990857161025,0.00000000000000 	5.83468209563067,45.41991167250845,0.00000000000000 	5.83468167327243,45.41991449680425,0.00000000000000 	5.83468219350275,45.41991722545274,0.00000000000000 	5.83468393996877,45.41992203705632,0.00000000000000 	5.83468495618495,45.41992585345437,0.00000000000000 	5.83468537085133,45.41992878975887,0.00000000000000 	5.83468514647659,45.41993179584762,0.00000000000000 	5.83468224093902,45.41993437067490,0.00000000000000 	5.83468224093902,45.41993437067490,0.00000000000000 	5.83468331651934,45.41993478661012,0.00000000000000 	5.83468739118675,45.41993632866751,0.00000000000000 	5.83469167151164,45.41993789737882,0.00000000000000 	5.83469635317506,45.41993953785760,0.00000000000000 	5.83470085290278,45.41994099673635,0.00000000000000 	5.83470556140014,45.41994222150004,0.00000000000000 	5.83470707981900,45.41994245575187,0.00000000000000 	5.83471203332703,45.41994284414025,0.00000000000000 	5.83471723121939,45.41994285980022,0.00000000000000 	5.83472221964819,45.41994262978898,0.00000000000000 	5.83472654476559,45.41994228116386,0.00000000000000 	5.83473150777014,45.41994172014601,0.00000000000000 	5.83473150777014,45.41994172014601,0.00000000000000 	5.83473355519319,45.41993971714404,0.00000000000000 	5.83473563516354,45.41993724264060,0.00000000000000 	5.83473799325442,45.41993381213462,0.00000000000000 	5.83473956202941,45.41993100364743,0.00000000000000 	5.83474101771802,45.41992778471420,0.00000000000000 	5.83474226564209,45.41992416111254,0.00000000000000 	5.83474321112349,45.41992013862002,0.00000000000000 	5.83474339530470,45.41991911888316,0.00000000000000 	5.83474387827930,45.41991583282905,0.00000000000000 	5.83474403959620,45.41991283971567,0.00000000000000 	5.83474374009272,45.41990993617067,0.00000000000000 	5.83474235098460,45.41990701398817,0.00000000000000 	5.83473933963461,45.41990522892334,0.00000000000000 	5.83473577322649,45.41990393871872,0.00000000000000 	5.83473163182993,45.41990265410341,0.00000000000000 	5.83472740690336,45.41990134262109,0.00000000000000 	5.83472358990518,45.41989997181546,0.00000000000000 	5.83471998456375,45.41989799569677,0.00000000000000 	5.83471792575810,45.41989606938433,0.00000000000000 	5.83471551606576,45.41989359142472,0.00000000000000 	5.83471296594831,45.41989082568606,0.00000000000000 	5.83471048586724,45.41988803603639,0.00000000000000 	5.83470828628396,45.41988548634384,0.00000000000000 	5.83470581526359,45.41988248677314,0.00000000000000 	5.83470367934087,45.41987980865419,0.00000000000000 	5.83470192186358,45.41987693732606,0.00000000000000 	5.83470134225115,45.41987416756616,0.00000000000000 	5.83470125992107,45.41987239580748,0.00000000000000 	5.83470092479043,45.41986936364183,0.00000000000000 	5.83470048745464,45.41986599605379,0.00000000000000 	5.83470011738193,45.41986276222911,0.00000000000000 	5.83470000755394,45.41985962282826,0.00000000000000 	5.83470004102251,45.41985905003425,0.00000000000000 	5.83470010177585,45.41985629963828,0.00000000000000 	5.83470011287207,45.41985245104758,0.00000000000000 	5.83470009891814,45.41984956081623,0.00000000000000 	5.83470007224820,45.41984661090427,0.00000000000000 	5.83470003660376,45.41984377267410,0.00000000000000 	5.83469997449449,45.41984009958736,0.00000000000000 	5.83469989519221,45.41983719240675,0.00000000000000 	5.83470073085891,45.41983418413673,0.00000000000000 	5.83470184515883,45.41983155315575,0.00000000000000 	5.83470286132744,45.41982890744448,0.00000000000000 	5.83470318180504,45.41982582184060,0.00000000000000 	5.83470230379646,45.41982449577322,0.00000000000000 	5.83469935545455,45.41982234652561,0.00000000000000 	5.83469641813283,45.41982041647854,0.00000000000000 	5.83469342796149,45.41981857682449,0.00000000000000 	5.83468962943222,45.41981666153877,0.00000000000000 	5.83468630289070,45.41981500010201,0.00000000000000 	5.83468244725372,45.41981290294578,0.00000000000000 	5.83467964551777,45.41981137984353,0.00000000000000 	5.83467633626793,45.41980961266670,0.00000000000000 	5.83467340074874,45.41980717870239,0.00000000000000 	5.83467248647199,45.41980443251924,0.00000000000000 	5.83467249766759,45.41980374696195,0.00000000000000 	5.83467280065319,45.41980033399689,0.00000000000000 	5.83467329711338,45.41979737010419,0.00000000000000 	5.83467402230685,45.41979438132077,0.00000000000000 	5.83467534188488,45.41979085773021,0.00000000000000 	5.83467755203925,45.41978815948386,0.00000000000000 	5.83467946935527,45.41978746864935,0.00000000000000 	5.83468384296997,45.41978666378203,0.00000000000000 	5.83468841802275,45.41978592888869,0.00000000000000 	5.83469236884560,45.41978421971512,0.00000000000000 	5.83469296981176,45.41978140777187,0.00000000000000 	5.83469174716157,45.41977836284540,0.00000000000000 	5.83468892136904,45.41977616071325,0.00000000000000 	5.83468609533195,45.41977373481549,0.00000000000000 	5.83468433682088,45.41977096599107,0.00000000000000 	5.83468165947692,45.41976891077157,0.00000000000000 	5.83468089760989,45.41976894752325,0.00000000000000 	5.83467828390568,45.41977115991240,0.00000000000000 	5.83467408025444,45.41977152773831,0.00000000000000 	5.83467302641210,45.41977144972839,0.00000000000000 	5.83466825339005,45.41977110639704,0.00000000000000 	5.83466439997337,45.41977074033569,0.00000000000000 	5.83466018438998,45.41976958628846,0.00000000000000 	5.83465836126437,45.41976761591417,0.00000000000000 	5.83465756855126,45.41976477967244,0.00000000000000 	5.83465900169006,45.41976218467266,0.00000000000000 	5.83465997178743,45.41976134290906,0.00000000000000 	5.83466260224697,45.41975924090478,0.00000000000000 	5.83466569546726,45.41975685682723,0.00000000000000 	5.83466835722117,45.41975452155077,0.00000000000000 	5.83466991198980,45.41975305738598,0.00000000000000 	5.83467284063741,45.41975063927206,0.00000000000000 	5.83467605746171,45.41974812561078,0.00000000000000 	5.83467908141875,45.41974582440052,0.00000000000000 	5.83468151612677,45.41974416033963,0.00000000000000 	5.83468438598542,45.41974230779995,0.00000000000000 	5.83468777821606,45.41974016171174,0.00000000000000 	5.83469135771510,45.41973792420534,0.00000000000000 	5.83469478937904,45.41973579741105,0.00000000000000 	5.83469855577421,45.41973348326535,0.00000000000000 	5.83470005096215,45.41973262877609,0.00000000000000 	5.83470333763437,45.41973100442207,0.00000000000000 	5.83470641499997,45.41972889839618,0.00000000000000 	5.83470711128743,45.41972598328873,0.00000000000000 	5.83470698335337,45.41972291485720,0.00000000000000 	5.83470664347514,45.41971998822275,0.00000000000000 	5.83470525591050,45.41971731103818,0.00000000000000 	5.83470388242318,45.41971415120823,0.00000000000000 	5.83470296575020,45.41971101842035,0.00000000000000 	5.83470056843393,45.41970885216401,0.00000000000000 	5.83469870426482,45.41970838263011,0.00000000000000 	5.83469425195420,45.41970841094386,0.00000000000000 	5.83469043225519,45.41970908777193,0.00000000000000 	5.83468663228535,45.41971019998283,0.00000000000000 	5.83468610968546,45.41971037335218,0.00000000000000 	5.83468229797239,45.41971124558294,0.00000000000000 	5.83468175156087,45.41971403763821,0.00000000000000 	5.83468456481696,45.41971594167802,0.00000000000000 	5.83468771074400,45.41971805677436,0.00000000000000 	5.83468979134747,45.41972055455084,0.00000000000000 	5.83469019373447,45.41972168483953,0.00000000000000 	5.83469082331718,45.41972442204555,0.00000000000000 	5.83469012886739,45.41972726059197,0.00000000000000 	5.83468874719919,45.41972836586671,0.00000000000000 	5.83468588156679,45.41973060835722,0.00000000000000 	5.83468250661766,45.41973293846743,0.00000000000000 	5.83467892446222,45.41973453941081,0.00000000000000 	5.83467646448545,45.41973462540987,0.00000000000000 	5.83467241081569,45.41973427273833,0.00000000000000 	5.83466813891637,45.41973367800867,0.00000000000000 	5.83466403584474,45.41973305098774,0.00000000000000 	5.83466349076617,45.41973296531098,0.00000000000000 	5.83465949752549,45.41973214332410,0.00000000000000 	5.83465517963850,45.41973151589917,0.00000000000000 	5.83465142086188,45.41973236430759,0.00000000000000 	5.83465008893861,45.41973437602833,0.00000000000000 	5.83464886889493,45.41973710820088,0.00000000000000 	5.83464711945810,45.41973990700873,0.00000000000000 	5.83464419935534,45.41974211863528,0.00000000000000 	5.83464204311898,45.41974316478249,0.00000000000000 	5.83463868033212,45.41974490117349,0.00000000000000 	5.83463472698118,45.41974661733285,0.00000000000000 	5.83463046692232,45.41974746145134,0.00000000000000 	5.83462749290749,45.41974764118228,0.00000000000000 	5.83462345946595,45.41974791682296,0.00000000000000 	5.83461886966239,45.41974825577494,0.00000000000000 	5.83461422656153,45.41974862543974,0.00000000000000 	5.83461003322811,45.41974899321907,0.00000000000000 	5.83460541017102,45.41974951345608,0.00000000000000 	5.83460489306739,45.41974962079285,0.00000000000000 	5.83460080733436,45.41975090914335,0.00000000000000 	5.83459660443590,45.41975244751696,0.00000000000000 	5.83459257168647,45.41975398153011,0.00000000000000 	5.83458886213284,45.41975535432520,0.00000000000000 	5.83458753406924,45.41975615453228,0.00000000000000 	5.83458429072033,45.41975859326601,0.00000000000000 	5.83458120307799,45.41976095616933,0.00000000000000 	5.83457793902441,45.41976335238360,0.00000000000000 	5.83457484517615,45.41976540005927,0.00000000000000 	5.83457158389952,45.41976692813552,0.00000000000000 	5.83456915759651,45.41976729929246,0.00000000000000 	5.83456475775664,45.41976715938593,0.00000000000000 	5.83456061125451,45.41976662915248,0.00000000000000 	5.83455886240500,45.41976635809322,0.00000000000000 	5.83455460643972,45.41976533819779,0.00000000000000 	5.83455088184618,45.41976435628873,0.00000000000000 	5.83454706484320,45.41976353634678,0.00000000000000 	5.83454464116609,45.41976314141102,0.00000000000000 	5.83454017070459,45.41976134801492,0.00000000000000 	5.83454246586632,45.41975881032716,0.00000000000000 	5.83454658241723,45.41975673558987,0.00000000000000 	5.83454881531414,45.41975391872440,0.00000000000000 	5.83454501619975,45.41975274674748,0.00000000000000 	5.83454049426260,45.41975205553549,0.00000000000000 	5.83453487146422,45.41975144523700,0.00000000000000 	5.83452856822814,45.41975092341958,0.00000000000000 	5.83452200497786,45.41975049765085,0.00000000000000 	5.83451560213687,45.41975017549852,0.00000000000000 	5.83450978012865,45.41974996453041,0.00000000000000 	5.83450495937668,45.41974987231438,0.00000000000000 	5.83450052528056,45.41974997320540,0.00000000000000 	5.83449793675493,45.41975057325058,0.00000000000000 	5.83449397761409,45.41975214112419,0.00000000000000 	5.83448979319880,45.41975401810893,0.00000000000000 	5.83448577082336,45.41975558414320,0.00000000000000 	5.83448156077207,45.41975615978691,0.00000000000000 	5.83448037871227,45.41975588162940,0.00000000000000 	5.83447928017618,45.41975323890506,0.00000000000000 	5.83448005655907,45.41975048211603,0.00000000000000 	5.83447937042839,45.41974792763165,0.00000000000000 	5.83447657845230,45.41974585415902,0.00000000000000 	5.83447414008281,45.41974564399535,0.00000000000000 	5.83446975317393,45.41974616920108,0.00000000000000 	5.83446497750135,45.41974682994544,0.00000000000000 	5.83446039137900,45.41974668553193,0.00000000000000 	5.83445697817427,45.41974569416766,0.00000000000000 	5.83445270330140,45.41974459021402,0.00000000000000 	5.83444816239812,45.41974349281573,0.00000000000000 	5.83444395110209,45.41974252111761,0.00000000000000 	5.83444285778629,45.41974238546674,0.00000000000000 	5.83443892046371,45.41974232176709,0.00000000000000 	5.83443307464440,45.41974248715943,0.00000000000000 	5.83442583123788,45.41974282439087,0.00000000000000 	5.83442184509864,45.41974303955471,0.00000000000000 	5.83441770115366,45.41974327620853,0.00000000000000 	5.83441346326666,45.41974352719574,0.00000000000000 	5.83440919530132,45.41974378535974,0.00000000000000 	5.83440496112135,45.41974404354396,0.00000000000000 	5.83440082459046,45.41974429459189,0.00000000000000 	5.83439309993075,45.41974474665252,0.00000000000000 	5.83438653223193,45.41974508428935,0.00000000000000 	5.83437996760046,45.41974525096074,0.00000000000000 	5.83437494482253,45.41974534122142,0.00000000000000 	5.83437079013374,45.41974564997358,0.00000000000000 	5.83436669012181,45.41974587617575,0.00000000000000 	5.83436269832730,45.41974482179764,0.00000000000000 	5.83436105732037,45.41974194560665,0.00000000000000 	5.83436094746120,45.41973863388012,0.00000000000000 	5.83436161780059,45.41973592385495,0.00000000000000 	5.83436332772139,45.41973308841862,0.00000000000000 	5.83436490518112,45.41973124937331,0.00000000000000 	5.83436687760740,45.41972870989503,0.00000000000000 	5.83436900620315,45.41972578843187,0.00000000000000 	5.83437105217140,45.41972280343190,0.00000000000000 	5.83437277671528,45.41972007334321,0.00000000000000 	5.83437428809476,45.41971695458570,0.00000000000000 	5.83437454453439,45.41971624159932,0.00000000000000 	5.83437673940863,45.41971380963523,0.00000000000000 	5.83437931183170,45.41971130400275,0.00000000000000 	5.83438116849879,45.41970849623197,0.00000000000000 	5.83438146354545,45.41970784943515,0.00000000000000 	5.83438277174887,45.41970477229162,0.00000000000000 	5.83438418524264,45.41970163171939,0.00000000000000 	5.83438637181877,45.41969893706615,0.00000000000000 	5.83438981251367,45.41969811422358,0.00000000000000 	5.83439378016573,45.41969799672160,0.00000000000000 	5.83439808966325,45.41969793260256,0.00000000000000 	5.83439977952415,45.41969761671478,0.00000000000000 	5.83440358331060,45.41969593271718,0.00000000000000 	5.83440649998182,45.41969381847786,0.00000000000000 	5.83440869796383,45.41969095403767,0.00000000000000 	5.83440946303719,45.41968859383305,0.00000000000000 	5.83441018481896,45.41968556243302,0.00000000000000 	5.83441077409632,45.41968221874510,0.00000000000000 	5.83441114165650,45.41967892167681,0.00000000000000 	5.83441119828674,45.41967603013562,0.00000000000000 	5.83441113415955,45.41967482174918,0.00000000000000 	5.83441104772629,45.41967185418750,0.00000000000000 	5.83441151762219,45.41966872737559,0.00000000000000 	5.83441252221850,45.41966599397428,0.00000000000000 	5.83441387685381,45.41966290579299,0.00000000000000 	5.83441516084866,45.41965992653218,0.00000000000000 	5.83441629819064,45.41965705807321,0.00000000000000 	5.83441721286736,45.41965430229746,0.00000000000000 	5.83441768102823,45.41965275094629,0.00000000000000 	5.83441873130076,45.41964967363121,0.00000000000000 	5.83441987413060,45.41964666207692,0.00000000000000 	5.83440121729326,45.41964283852615,0.00000000000000 </coordinates>
</LinearRing>
</outerBoundaryIs>
</Polygon>
</MultiGeometry>
</Placemark>
</Folder>
</kml>
