<?xml version="1.0" encoding="UTF-8"?>
<kml xmlns="http://earth.google.com/kml/2.1">
<Document>
  <name>Balme de Valfin (39)</name>
  <open>0</open>
  <Style id = "VTStyle01">
    <PolyStyle>
      <color>ff0000ff</color>
    </PolyStyle>
    <LineStyle>
      <width>1</width>
      <color>ff0000ff</color>
    </LineStyle>
  </Style>
  <Placemark>
    <name>Balme de Valfin (39)</name>
    <styleUrl>#VTStyle01</styleUrl>
    <MultiGeometry>
      <Polygon>
        <altitudeMode>clampToGround</altitudeMode>
        <extrude>1</extrude>
        <tessellate>1</tessellate>
        <outerBoundaryIs>
          <LinearRing>
            <coordinates>
              5.5104461,46.3703416
              5.5104455,46.3703784
              5.5104223,46.3703723
              5.5104201,46.3703403
              5.5104461,46.3703416
            </coordinates>
          </LinearRing>
        </outerBoundaryIs>
      </Polygon>
      <Polygon>
        <altitudeMode>clampToGround</altitudeMode>
        <extrude>1</extrude>
        <tessellate>1</tessellate>
        <outerBoundaryIs>
          <LinearRing>
            <coordinates>
              5.5104455,46.3703784
              5.5103896,46.3704182
              5.5103818,46.3704136
              5.5104223,46.3703723
              5.5104455,46.3703784
            </coordinates>
          </LinearRing>
        </outerBoundaryIs>
      </Polygon>
      <Polygon>
        <altitudeMode>clampToGround</altitudeMode>
        <extrude>1</extrude>
        <tessellate>1</tessellate>
        <outerBoundaryIs>
          <LinearRing>
            <coordinates>
              5.5103896,46.3704182
              5.5103684,46.3704418
              5.5103526,46.3704387
              5.5103818,46.3704136
              5.5103896,46.3704182
            </coordinates>
          </LinearRing>
        </outerBoundaryIs>
      </Polygon>
      <Polygon>
        <altitudeMode>clampToGround</altitudeMode>
        <extrude>1</extrude>
        <tessellate>1</tessellate>
        <outerBoundaryIs>
          <LinearRing>
            <coordinates>
              5.5103684,46.3704418
              5.5103767,46.3704681
              5.5103624,46.3704756
              5.5103526,46.3704387
              5.5103684,46.3704418
            </coordinates>
          </LinearRing>
        </outerBoundaryIs>
      </Polygon>
      <Polygon>
        <altitudeMode>clampToGround</altitudeMode>
        <extrude>1</extrude>
        <tessellate>1</tessellate>
        <outerBoundaryIs>
          <LinearRing>
            <coordinates>
              5.5103767,46.3704681
              5.5104055,46.3704863
              5.5103920,46.3704917
              5.5103624,46.3704756
              5.5103767,46.3704681
            </coordinates>
          </LinearRing>
        </outerBoundaryIs>
      </Polygon>
      <Polygon>
        <altitudeMode>clampToGround</altitudeMode>
        <extrude>1</extrude>
        <tessellate>1</tessellate>
        <outerBoundaryIs>
          <LinearRing>
            <coordinates>
              5.5104055,46.3704863
              5.5104044,46.3705201
              5.5103876,46.3705165
              5.5103920,46.3704917
              5.5104055,46.3704863
            </coordinates>
          </LinearRing>
        </outerBoundaryIs>
      </Polygon>
      <Polygon>
        <altitudeMode>clampToGround</altitudeMode>
        <extrude>1</extrude>
        <tessellate>1</tessellate>
        <outerBoundaryIs>
          <LinearRing>
            <coordinates>
              5.5104044,46.3705201
              5.5103819,46.3705531
              5.5103739,46.3705451
              5.5103876,46.3705165
              5.5104044,46.3705201
            </coordinates>
          </LinearRing>
        </outerBoundaryIs>
      </Polygon>
      <Polygon>
        <altitudeMode>clampToGround</altitudeMode>
        <extrude>1</extrude>
        <tessellate>1</tessellate>
        <outerBoundaryIs>
          <LinearRing>
            <coordinates>
              5.5103819,46.3705531
              5.5103411,46.3705560
              5.5103337,46.3705518
              5.5103739,46.3705451
              5.5103819,46.3705531
            </coordinates>
          </LinearRing>
        </outerBoundaryIs>
      </Polygon>
      <Polygon>
        <altitudeMode>clampToGround</altitudeMode>
        <extrude>1</extrude>
        <tessellate>1</tessellate>
        <outerBoundaryIs>
          <LinearRing>
            <coordinates>
              5.5103411,46.3705560
              5.5103490,46.3706068
              5.5103312,46.3706087
              5.5103337,46.3705518
              5.5103411,46.3705560
            </coordinates>
          </LinearRing>
        </outerBoundaryIs>
      </Polygon>
      <Polygon>
        <altitudeMode>clampToGround</altitudeMode>
        <extrude>1</extrude>
        <tessellate>1</tessellate>
        <outerBoundaryIs>
          <LinearRing>
            <coordinates>
              5.5103490,46.3706068
              5.5103646,46.3706570
              5.5103443,46.3706583
              5.5103312,46.3706087
              5.5103490,46.3706068
            </coordinates>
          </LinearRing>
        </outerBoundaryIs>
      </Polygon>
      <Polygon>
        <altitudeMode>clampToGround</altitudeMode>
        <extrude>1</extrude>
        <tessellate>1</tessellate>
        <outerBoundaryIs>
          <LinearRing>
            <coordinates>
              5.5103646,46.3706570
              5.5103554,46.3707127
              5.5103398,46.3707127
              5.5103443,46.3706583
              5.5103646,46.3706570
            </coordinates>
          </LinearRing>
        </outerBoundaryIs>
      </Polygon>
      <Polygon>
        <altitudeMode>clampToGround</altitudeMode>
        <extrude>1</extrude>
        <tessellate>1</tessellate>
        <outerBoundaryIs>
          <LinearRing>
            <coordinates>
              5.5103554,46.3707127
              5.5103588,46.3707558
              5.5103384,46.3707555
              5.5103398,46.3707127
              5.5103554,46.3707127
            </coordinates>
          </LinearRing>
        </outerBoundaryIs>
      </Polygon>
      <Polygon>
        <altitudeMode>clampToGround</altitudeMode>
        <extrude>1</extrude>
        <tessellate>1</tessellate>
        <outerBoundaryIs>
          <LinearRing>
            <coordinates>
              5.5103588,46.3707558
              5.5103638,46.3707867
              5.5103363,46.3707794
              5.5103384,46.3707555
              5.5103588,46.3707558
            </coordinates>
          </LinearRing>
        </outerBoundaryIs>
      </Polygon>
      <Polygon>
        <altitudeMode>clampToGround</altitudeMode>
        <extrude>1</extrude>
        <tessellate>1</tessellate>
        <outerBoundaryIs>
          <LinearRing>
            <coordinates>
              5.5103638,46.3707867
              5.5103313,46.3708202
              5.5103077,46.3708178
              5.5103363,46.3707794
              5.5103638,46.3707867
            </coordinates>
          </LinearRing>
        </outerBoundaryIs>
      </Polygon>
      <Polygon>
        <altitudeMode>clampToGround</altitudeMode>
        <extrude>1</extrude>
        <tessellate>1</tessellate>
        <outerBoundaryIs>
          <LinearRing>
            <coordinates>
              5.5103313,46.3708202
              5.5103286,46.3708413
              5.5103166,46.3708420
              5.5103077,46.3708178
              5.5103313,46.3708202
            </coordinates>
          </LinearRing>
        </outerBoundaryIs>
      </Polygon>
      <Polygon>
        <altitudeMode>clampToGround</altitudeMode>
        <extrude>1</extrude>
        <tessellate>1</tessellate>
        <outerBoundaryIs>
          <LinearRing>
            <coordinates>
              5.5103286,46.3708413
              5.5103348,46.3708587
              5.5103217,46.3708601
              5.5103166,46.3708420
              5.5103286,46.3708413
            </coordinates>
          </LinearRing>
        </outerBoundaryIs>
      </Polygon>
      <Polygon>
        <altitudeMode>clampToGround</altitudeMode>
        <extrude>1</extrude>
        <tessellate>1</tessellate>
        <outerBoundaryIs>
          <LinearRing>
            <coordinates>
              5.5103348,46.3708587
              5.5103516,46.3708867
              5.5103382,46.3708950
              5.5103217,46.3708601
              5.5103348,46.3708587
            </coordinates>
          </LinearRing>
        </outerBoundaryIs>
      </Polygon>
      <Polygon>
        <altitudeMode>clampToGround</altitudeMode>
        <extrude>1</extrude>
        <tessellate>1</tessellate>
        <outerBoundaryIs>
          <LinearRing>
            <coordinates>
              5.5103516,46.3708867
              5.5103754,46.3709004
              5.5103632,46.3709054
              5.5103382,46.3708950
              5.5103516,46.3708867
            </coordinates>
          </LinearRing>
        </outerBoundaryIs>
      </Polygon>
      <Polygon>
        <altitudeMode>clampToGround</altitudeMode>
        <extrude>1</extrude>
        <tessellate>1</tessellate>
        <outerBoundaryIs>
          <LinearRing>
            <coordinates>
              5.5103754,46.3709004
              5.5103815,46.3709312
              5.5103660,46.3709343
              5.5103632,46.3709054
              5.5103754,46.3709004
            </coordinates>
          </LinearRing>
        </outerBoundaryIs>
      </Polygon>
      <Polygon>
        <altitudeMode>clampToGround</altitudeMode>
        <extrude>1</extrude>
        <tessellate>1</tessellate>
        <outerBoundaryIs>
          <LinearRing>
            <coordinates>
              5.5103815,46.3709312
              5.5104004,46.3709506
              5.5103856,46.3709595
              5.5103660,46.3709343
              5.5103815,46.3709312
            </coordinates>
          </LinearRing>
        </outerBoundaryIs>
      </Polygon>
      <Polygon>
        <altitudeMode>clampToGround</altitudeMode>
        <extrude>1</extrude>
        <tessellate>1</tessellate>
        <outerBoundaryIs>
          <LinearRing>
            <coordinates>
              5.5104004,46.3709506
              5.5104329,46.3709732
              5.5104108,46.3709810
              5.5103856,46.3709595
              5.5104004,46.3709506
            </coordinates>
          </LinearRing>
        </outerBoundaryIs>
      </Polygon>
      <Polygon>
        <altitudeMode>clampToGround</altitudeMode>
        <extrude>1</extrude>
        <tessellate>1</tessellate>
        <outerBoundaryIs>
          <LinearRing>
            <coordinates>
              5.5104329,46.3709732
              5.5104387,46.3710219
              5.5104214,46.3710250
              5.5104108,46.3709810
              5.5104329,46.3709732
            </coordinates>
          </LinearRing>
        </outerBoundaryIs>
      </Polygon>
      <Polygon>
        <altitudeMode>clampToGround</altitudeMode>
        <extrude>1</extrude>
        <tessellate>1</tessellate>
        <outerBoundaryIs>
          <LinearRing>
            <coordinates>
              5.5104387,46.3710219
              5.5104512,46.3710416
              5.5104227,46.3710453
              5.5104214,46.3710250
              5.5104387,46.3710219
            </coordinates>
          </LinearRing>
        </outerBoundaryIs>
      </Polygon>
      <Polygon>
        <altitudeMode>clampToGround</altitudeMode>
        <extrude>1</extrude>
        <tessellate>1</tessellate>
        <outerBoundaryIs>
          <LinearRing>
            <coordinates>
              5.5104512,46.3710416
              5.5104551,46.3710664
              5.5104382,46.3710690
              5.5104227,46.3710453
              5.5104512,46.3710416
            </coordinates>
          </LinearRing>
        </outerBoundaryIs>
      </Polygon>
      <Polygon>
        <altitudeMode>clampToGround</altitudeMode>
        <extrude>1</extrude>
        <tessellate>1</tessellate>
        <outerBoundaryIs>
          <LinearRing>
            <coordinates>
              5.5104551,46.3710664
              5.5104706,46.3710857
              5.5104428,46.3710841
              5.5104382,46.3710690
              5.5104551,46.3710664
            </coordinates>
          </LinearRing>
        </outerBoundaryIs>
      </Polygon>
      <Polygon>
        <altitudeMode>clampToGround</altitudeMode>
        <extrude>1</extrude>
        <tessellate>1</tessellate>
        <outerBoundaryIs>
          <LinearRing>
            <coordinates>
              5.5104706,46.3710857
              5.5104177,46.3711214
              5.5104076,46.3711179
              5.5104428,46.3710841
              5.5104706,46.3710857
            </coordinates>
          </LinearRing>
        </outerBoundaryIs>
      </Polygon>
      <Polygon>
        <altitudeMode>clampToGround</altitudeMode>
        <extrude>1</extrude>
        <tessellate>1</tessellate>
        <outerBoundaryIs>
          <LinearRing>
            <coordinates>
              5.5104177,46.3711214
              5.5104090,46.3711396
              5.5103989,46.3711454
              5.5104076,46.3711179
              5.5104177,46.3711214
            </coordinates>
          </LinearRing>
        </outerBoundaryIs>
      </Polygon>
      <Polygon>
        <altitudeMode>clampToGround</altitudeMode>
        <extrude>1</extrude>
        <tessellate>1</tessellate>
        <outerBoundaryIs>
          <LinearRing>
            <coordinates>
              5.5104090,46.3711396
              5.5104850,46.3711332
              5.5104857,46.3711379
              5.5103989,46.3711454
              5.5104090,46.3711396
            </coordinates>
          </LinearRing>
        </outerBoundaryIs>
      </Polygon>
      <Polygon>
        <altitudeMode>clampToGround</altitudeMode>
        <extrude>1</extrude>
        <tessellate>1</tessellate>
        <outerBoundaryIs>
          <LinearRing>
            <coordinates>
              5.5103989,46.3711454
              5.5103789,46.3711314
              5.5103776,46.3711287
              5.5104090,46.3711396
              5.5103989,46.3711454
            </coordinates>
          </LinearRing>
        </outerBoundaryIs>
      </Polygon>
      <Polygon>
        <altitudeMode>clampToGround</altitudeMode>
        <extrude>1</extrude>
        <tessellate>1</tessellate>
        <outerBoundaryIs>
          <LinearRing>
            <coordinates>
              5.5103789,46.3711314
              5.5103689,46.3711569
              5.5103625,46.3711536
              5.5103776,46.3711287
              5.5103789,46.3711314
            </coordinates>
          </LinearRing>
        </outerBoundaryIs>
      </Polygon>
      <Polygon>
        <altitudeMode>clampToGround</altitudeMode>
        <extrude>1</extrude>
        <tessellate>1</tessellate>
        <outerBoundaryIs>
          <LinearRing>
            <coordinates>
              5.5103689,46.3711569
              5.5103325,46.3711752
              5.5103229,46.3711659
              5.5103625,46.3711536
              5.5103689,46.3711569
            </coordinates>
          </LinearRing>
        </outerBoundaryIs>
      </Polygon>
    </MultiGeometry>
  </Placemark>
</Document>
</kml>
