<?xml version="1.0" encoding="UTF-8"?>
<kml xmlns="http://earth.google.com/kml/2.1">
<Document>
  <name>Grotte du PRAYET (38)</name>
  <open>0</open>
  <Style id = "VTStyle01">
    <PolyStyle>
      <color>ff0000ff</color>
    </PolyStyle>
    <LineStyle>
      <width>1</width>
      <color>ff0000ff</color>
    </LineStyle>
  </Style>
  <Placemark>
    <name>Grotte du PRAYET (38)</name>
    <styleUrl>#VTStyle01</styleUrl>
    <MultiGeometry>
      <Polygon>
        <altitudeMode>clampToGround</altitudeMode>
        <extrude>1</extrude>
        <tessellate>1</tessellate>
        <outerBoundaryIs>
          <LinearRing>
            <coordinates>
              5.8617594,45.3302108
              5.8620066,45.3302131
              5.8618242,45.3303185
              5.8617080,45.3302398
              5.8617594,45.3302108
            </coordinates>
          </LinearRing>
        </outerBoundaryIs>
      </Polygon>
      <Polygon>
        <altitudeMode>clampToGround</altitudeMode>
        <extrude>1</extrude>
        <tessellate>1</tessellate>
        <outerBoundaryIs>
          <LinearRing>
            <coordinates>
              5.8620066,45.3302131
              5.8620243,45.3302416
              5.8618834,45.3303677
              5.8618242,45.3303185
              5.8620066,45.3302131
            </coordinates>
          </LinearRing>
        </outerBoundaryIs>
      </Polygon>
      <Polygon>
        <altitudeMode>clampToGround</altitudeMode>
        <extrude>1</extrude>
        <tessellate>1</tessellate>
        <outerBoundaryIs>
          <LinearRing>
            <coordinates>
              5.8620243,45.3302416
              5.8620354,45.3303213
              5.8619786,45.3304075
              5.8618834,45.3303677
              5.8620243,45.3302416
            </coordinates>
          </LinearRing>
        </outerBoundaryIs>
      </Polygon>
      <Polygon>
        <altitudeMode>clampToGround</altitudeMode>
        <extrude>1</extrude>
        <tessellate>1</tessellate>
        <outerBoundaryIs>
          <LinearRing>
            <coordinates>
              5.8620354,45.3303213
              5.8620441,45.3303576
              5.8620852,45.3304233
              5.8619786,45.3304075
              5.8620354,45.3303213
            </coordinates>
          </LinearRing>
        </outerBoundaryIs>
      </Polygon>
      <Polygon>
        <altitudeMode>clampToGround</altitudeMode>
        <extrude>1</extrude>
        <tessellate>1</tessellate>
        <outerBoundaryIs>
          <LinearRing>
            <coordinates>
              5.8620441,45.3303576
              5.8620090,45.3303804
              5.8621162,45.3303644
              5.8620852,45.3304233
              5.8620441,45.3303576
            </coordinates>
          </LinearRing>
        </outerBoundaryIs>
      </Polygon>
      <Polygon>
        <altitudeMode>clampToGround</altitudeMode>
        <extrude>1</extrude>
        <tessellate>1</tessellate>
        <outerBoundaryIs>
          <LinearRing>
            <coordinates>
              5.8620090,45.3303804
              5.8618362,45.3303262
              5.8620639,45.3302857
              5.8621162,45.3303644
              5.8620090,45.3303804
            </coordinates>
          </LinearRing>
        </outerBoundaryIs>
      </Polygon>
      <Polygon>
        <altitudeMode>clampToGround</altitudeMode>
        <extrude>1</extrude>
        <tessellate>1</tessellate>
        <outerBoundaryIs>
          <LinearRing>
            <coordinates>
              5.8618362,45.3303262
              5.8618091,45.3302756
              5.8620307,45.3302358
              5.8620639,45.3302857
              5.8618362,45.3303262
            </coordinates>
          </LinearRing>
        </outerBoundaryIs>
      </Polygon>
      <Polygon>
        <altitudeMode>clampToGround</altitudeMode>
        <extrude>1</extrude>
        <tessellate>1</tessellate>
        <outerBoundaryIs>
          <LinearRing>
            <coordinates>
              5.8618091,45.3302756
              5.8618815,45.3301685
              5.8619449,45.3301442
              5.8620307,45.3302358
              5.8618091,45.3302756
            </coordinates>
          </LinearRing>
        </outerBoundaryIs>
      </Polygon>
      <Polygon>
        <altitudeMode>clampToGround</altitudeMode>
        <extrude>1</extrude>
        <tessellate>1</tessellate>
        <outerBoundaryIs>
          <LinearRing>
            <coordinates>
              5.8618815,45.3301685
              5.8618677,45.3301141
              5.8619438,45.3300983
              5.8619449,45.3301442
              5.8618815,45.3301685
            </coordinates>
          </LinearRing>
        </outerBoundaryIs>
      </Polygon>
      <Polygon>
        <altitudeMode>clampToGround</altitudeMode>
        <extrude>1</extrude>
        <tessellate>1</tessellate>
        <outerBoundaryIs>
          <LinearRing>
            <coordinates>
              5.8618677,45.3301141
              5.8618540,45.3300563
              5.8619164,45.3300411
              5.8619438,45.3300983
              5.8618677,45.3301141
            </coordinates>
          </LinearRing>
        </outerBoundaryIs>
      </Polygon>
      <Polygon>
        <altitudeMode>clampToGround</altitudeMode>
        <extrude>1</extrude>
        <tessellate>1</tessellate>
        <outerBoundaryIs>
          <LinearRing>
            <coordinates>
              5.8618815,45.3301685
              5.8619124,45.3302936
              5.8618157,45.3301645
              5.8619449,45.3301442
              5.8618815,45.3301685
            </coordinates>
          </LinearRing>
        </outerBoundaryIs>
      </Polygon>
      <Polygon>
        <altitudeMode>clampToGround</altitudeMode>
        <extrude>1</extrude>
        <tessellate>1</tessellate>
        <outerBoundaryIs>
          <LinearRing>
            <coordinates>
              5.8619124,45.3302936
              5.8617451,45.3302189
              5.8617451,45.3302189
              5.8618157,45.3301645
              5.8619124,45.3302936
            </coordinates>
          </LinearRing>
        </outerBoundaryIs>
      </Polygon>
    </MultiGeometry>
  </Placemark>
</Document>
</kml>
