<?xml version="1.0" encoding="UTF-8"?>
<kml xmlns="http://earth.google.com/kml/2.1">
<Document>
  <name>Grotte En sait tout (39)</name>
  <open>0</open>
  <Style id = "VTStyle01">
    <PolyStyle>
      <color>ff000080</color>
    </PolyStyle>
    <LineStyle>
      <width>1</width>
      <color>ff000080</color>
    </LineStyle>
  </Style>
  <Style id = "VTStyle02">
    <PolyStyle>
      <color>ff0000ff</color>
    </PolyStyle>
    <LineStyle>
      <width>1</width>
      <color>ff0000ff</color>
    </LineStyle>
  </Style>
  <Style id = "VTStyle03">
    <PolyStyle>
      <color>ff00ffff</color>
    </PolyStyle>
    <LineStyle>
      <width>1</width>
      <color>ff00ffff</color>
    </LineStyle>
  </Style>
  <Style id = "VTStyle04">
    <PolyStyle>
      <color>ff008080</color>
    </PolyStyle>
    <LineStyle>
      <width>1</width>
      <color>ff008080</color>
    </LineStyle>
  </Style>
  <Placemark>
    <name>Grotte En sait tout (39)</name>
    <styleUrl>#VTStyle02</styleUrl>
    <MultiGeometry>
      <Polygon>
        <altitudeMode>clampToGround</altitudeMode>
        <extrude>1</extrude>
        <tessellate>1</tessellate>
        <outerBoundaryIs>
          <LinearRing>
            <coordinates>
              5.4752344,46.3502839
              5.4753526,46.3503012
              5.4753563,46.3503266
              5.4752253,46.3503003
              5.4752344,46.3502839
            </coordinates>
          </LinearRing>
        </outerBoundaryIs>
      </Polygon>
      <Polygon>
        <altitudeMode>clampToGround</altitudeMode>
        <extrude>1</extrude>
        <tessellate>1</tessellate>
        <outerBoundaryIs>
          <LinearRing>
            <coordinates>
              5.4753526,46.3503012
              5.4754038,46.3502927
              5.4754163,46.3503035
              5.4753563,46.3503266
              5.4753526,46.3503012
            </coordinates>
          </LinearRing>
        </outerBoundaryIs>
      </Polygon>
      <Polygon>
        <altitudeMode>clampToGround</altitudeMode>
        <extrude>1</extrude>
        <tessellate>1</tessellate>
        <outerBoundaryIs>
          <LinearRing>
            <coordinates>
              5.4754038,46.3502927
              5.4754616,46.3502543
              5.4754835,46.3502610
              5.4754163,46.3503035
              5.4754038,46.3502927
            </coordinates>
          </LinearRing>
        </outerBoundaryIs>
      </Polygon>
      <Polygon>
        <altitudeMode>clampToGround</altitudeMode>
        <extrude>1</extrude>
        <tessellate>1</tessellate>
        <outerBoundaryIs>
          <LinearRing>
            <coordinates>
              5.4754616,46.3502543
              5.4754552,46.3502154
              5.4754786,46.3502222
              5.4754835,46.3502610
              5.4754616,46.3502543
            </coordinates>
          </LinearRing>
        </outerBoundaryIs>
      </Polygon>
      <Polygon>
        <altitudeMode>clampToGround</altitudeMode>
        <extrude>1</extrude>
        <tessellate>1</tessellate>
        <outerBoundaryIs>
          <LinearRing>
            <coordinates>
              5.4754552,46.3502154
              5.4755025,46.3501991
              5.4755135,46.3502072
              5.4754786,46.3502222
              5.4754552,46.3502154
            </coordinates>
          </LinearRing>
        </outerBoundaryIs>
      </Polygon>
      <Polygon>
        <altitudeMode>clampToGround</altitudeMode>
        <extrude>1</extrude>
        <tessellate>1</tessellate>
        <outerBoundaryIs>
          <LinearRing>
            <coordinates>
              5.4755025,46.3501991
              5.4755425,46.3501729
              5.4755508,46.3501766
              5.4755135,46.3502072
              5.4755025,46.3501991
            </coordinates>
          </LinearRing>
        </outerBoundaryIs>
      </Polygon>
      <Polygon>
        <altitudeMode>clampToGround</altitudeMode>
        <extrude>1</extrude>
        <tessellate>1</tessellate>
        <outerBoundaryIs>
          <LinearRing>
            <coordinates>
              5.4755425,46.3501729
              5.4755594,46.3501385
              5.4755688,46.3501393
              5.4755508,46.3501766
              5.4755425,46.3501729
            </coordinates>
          </LinearRing>
        </outerBoundaryIs>
      </Polygon>
      <Polygon>
        <altitudeMode>clampToGround</altitudeMode>
        <extrude>1</extrude>
        <tessellate>1</tessellate>
        <outerBoundaryIs>
          <LinearRing>
            <coordinates>
              5.4755594,46.3501385
              5.4755497,46.3501012
              5.4755652,46.3501055
              5.4755688,46.3501393
              5.4755594,46.3501385
            </coordinates>
          </LinearRing>
        </outerBoundaryIs>
      </Polygon>
      <Polygon>
        <altitudeMode>clampToGround</altitudeMode>
        <extrude>1</extrude>
        <tessellate>1</tessellate>
        <outerBoundaryIs>
          <LinearRing>
            <coordinates>
              5.4755497,46.3501012
              5.4755892,46.3500784
              5.4755932,46.3500842
              5.4755652,46.3501055
              5.4755497,46.3501012
            </coordinates>
          </LinearRing>
        </outerBoundaryIs>
      </Polygon>
      <Polygon>
        <altitudeMode>clampToGround</altitudeMode>
        <extrude>1</extrude>
        <tessellate>1</tessellate>
        <outerBoundaryIs>
          <LinearRing>
            <coordinates>
              5.4755497,46.3501012
              5.4756163,46.3500939
              5.4756180,46.3500986
              5.4755652,46.3501055
              5.4755497,46.3501012
            </coordinates>
          </LinearRing>
        </outerBoundaryIs>
      </Polygon>
      <Polygon>
        <altitudeMode>clampToGround</altitudeMode>
        <extrude>1</extrude>
        <tessellate>1</tessellate>
        <outerBoundaryIs>
          <LinearRing>
            <coordinates>
              5.4755892,46.3500784
              5.4756079,46.3500781
              5.4756156,46.3500827
              5.4755932,46.3500842
              5.4755892,46.3500784
            </coordinates>
          </LinearRing>
        </outerBoundaryIs>
      </Polygon>
      <Polygon>
        <altitudeMode>clampToGround</altitudeMode>
        <extrude>1</extrude>
        <tessellate>1</tessellate>
        <outerBoundaryIs>
          <LinearRing>
            <coordinates>
              5.4756079,46.3500781
              5.4756091,46.3500525
              5.4756153,46.3500560
              5.4756156,46.3500827
              5.4756079,46.3500781
            </coordinates>
          </LinearRing>
        </outerBoundaryIs>
      </Polygon>
      <Polygon>
        <altitudeMode>clampToGround</altitudeMode>
        <extrude>1</extrude>
        <tessellate>1</tessellate>
        <outerBoundaryIs>
          <LinearRing>
            <coordinates>
              5.4756091,46.3500525
              5.4756455,46.3500482
              5.4756456,46.3500516
              5.4756153,46.3500560
              5.4756091,46.3500525
            </coordinates>
          </LinearRing>
        </outerBoundaryIs>
      </Polygon>
      <Polygon>
        <altitudeMode>clampToGround</altitudeMode>
        <extrude>1</extrude>
        <tessellate>1</tessellate>
        <outerBoundaryIs>
          <LinearRing>
            <coordinates>
              5.4756455,46.3500482
              5.4756636,46.3500500
              5.4756631,46.3500536
              5.4756456,46.3500516
              5.4756455,46.3500482
            </coordinates>
          </LinearRing>
        </outerBoundaryIs>
      </Polygon>
      <Polygon>
        <altitudeMode>clampToGround</altitudeMode>
        <extrude>1</extrude>
        <tessellate>1</tessellate>
        <outerBoundaryIs>
          <LinearRing>
            <coordinates>
              5.4756455,46.3500482
              5.4756457,46.3500256
              5.4756524,46.3500287
              5.4756456,46.3500516
              5.4756455,46.3500482
            </coordinates>
          </LinearRing>
        </outerBoundaryIs>
      </Polygon>
      <Polygon>
        <altitudeMode>clampToGround</altitudeMode>
        <extrude>1</extrude>
        <tessellate>1</tessellate>
        <outerBoundaryIs>
          <LinearRing>
            <coordinates>
              5.4756457,46.3500256
              5.4756826,46.3500104
              5.4756879,46.3500147
              5.4756524,46.3500287
              5.4756457,46.3500256
            </coordinates>
          </LinearRing>
        </outerBoundaryIs>
      </Polygon>
      <Polygon>
        <altitudeMode>clampToGround</altitudeMode>
        <extrude>1</extrude>
        <tessellate>1</tessellate>
        <outerBoundaryIs>
          <LinearRing>
            <coordinates>
              5.4756826,46.3500104
              5.4757095,46.3499883
              5.4757152,46.3499944
              5.4756879,46.3500147
              5.4756826,46.3500104
            </coordinates>
          </LinearRing>
        </outerBoundaryIs>
      </Polygon>
      <Polygon>
        <altitudeMode>clampToGround</altitudeMode>
        <extrude>1</extrude>
        <tessellate>1</tessellate>
        <outerBoundaryIs>
          <LinearRing>
            <coordinates>
              5.4757095,46.3499883
              5.4757472,46.3499824
              5.4757503,46.3499866
              5.4757152,46.3499944
              5.4757095,46.3499883
            </coordinates>
          </LinearRing>
        </outerBoundaryIs>
      </Polygon>
      <Polygon>
        <altitudeMode>clampToGround</altitudeMode>
        <extrude>1</extrude>
        <tessellate>1</tessellate>
        <outerBoundaryIs>
          <LinearRing>
            <coordinates>
              5.4757472,46.3499824
              5.4757642,46.3499698
              5.4757743,46.3499700
              5.4757503,46.3499866
              5.4757472,46.3499824
            </coordinates>
          </LinearRing>
        </outerBoundaryIs>
      </Polygon>
      <Polygon>
        <altitudeMode>clampToGround</altitudeMode>
        <extrude>1</extrude>
        <tessellate>1</tessellate>
        <outerBoundaryIs>
          <LinearRing>
            <coordinates>
              5.4757642,46.3499698
              5.4757567,46.3499730
              5.4757732,46.3499672
              5.4757743,46.3499700
              5.4757642,46.3499698
            </coordinates>
          </LinearRing>
        </outerBoundaryIs>
      </Polygon>
      <Polygon>
        <altitudeMode>clampToGround</altitudeMode>
        <extrude>1</extrude>
        <tessellate>1</tessellate>
        <outerBoundaryIs>
          <LinearRing>
            <coordinates>
              5.4757567,46.3499730
              5.4757615,46.3499470
              5.4757709,46.3499476
              5.4757732,46.3499672
              5.4757567,46.3499730
            </coordinates>
          </LinearRing>
        </outerBoundaryIs>
      </Polygon>
      <Polygon>
        <altitudeMode>clampToGround</altitudeMode>
        <extrude>1</extrude>
        <tessellate>1</tessellate>
        <outerBoundaryIs>
          <LinearRing>
            <coordinates>
              5.4757615,46.3499470
              5.4757706,46.3499313
              5.4757756,46.3499341
              5.4757709,46.3499476
              5.4757615,46.3499470
            </coordinates>
          </LinearRing>
        </outerBoundaryIs>
      </Polygon>
      <Polygon>
        <altitudeMode>clampToGround</altitudeMode>
        <extrude>1</extrude>
        <tessellate>1</tessellate>
        <outerBoundaryIs>
          <LinearRing>
            <coordinates>
              5.4757706,46.3499313
              5.4757962,46.3499177
              5.4758071,46.3499187
              5.4757756,46.3499341
              5.4757706,46.3499313
            </coordinates>
          </LinearRing>
        </outerBoundaryIs>
      </Polygon>
      <Polygon>
        <altitudeMode>clampToGround</altitudeMode>
        <extrude>1</extrude>
        <tessellate>1</tessellate>
        <outerBoundaryIs>
          <LinearRing>
            <coordinates>
              5.4757962,46.3499177
              5.4757901,46.3499078
              5.4758085,46.3498962
              5.4758071,46.3499187
              5.4757962,46.3499177
            </coordinates>
          </LinearRing>
        </outerBoundaryIs>
      </Polygon>
      <Polygon>
        <altitudeMode>clampToGround</altitudeMode>
        <extrude>1</extrude>
        <tessellate>1</tessellate>
        <outerBoundaryIs>
          <LinearRing>
            <coordinates>
              5.4757901,46.3499078
              5.4757676,46.3498928
              5.4757775,46.3498890
              5.4758085,46.3498962
              5.4757901,46.3499078
            </coordinates>
          </LinearRing>
        </outerBoundaryIs>
      </Polygon>
      <Polygon>
        <altitudeMode>clampToGround</altitudeMode>
        <extrude>1</extrude>
        <tessellate>1</tessellate>
        <outerBoundaryIs>
          <LinearRing>
            <coordinates>
              5.4757676,46.3498928
              5.4757422,46.3498337
              5.4757488,46.3498336
              5.4757775,46.3498890
              5.4757676,46.3498928
            </coordinates>
          </LinearRing>
        </outerBoundaryIs>
      </Polygon>
      <Polygon>
        <altitudeMode>clampToGround</altitudeMode>
        <extrude>1</extrude>
        <tessellate>1</tessellate>
        <outerBoundaryIs>
          <LinearRing>
            <coordinates>
              5.4757422,46.3498337
              5.4757522,46.3498133
              5.4757522,46.3498133
              5.4757488,46.3498336
              5.4757422,46.3498337
            </coordinates>
          </LinearRing>
        </outerBoundaryIs>
      </Polygon>
      <Polygon>
        <altitudeMode>clampToGround</altitudeMode>
        <extrude>1</extrude>
        <tessellate>1</tessellate>
        <outerBoundaryIs>
          <LinearRing>
            <coordinates>
              5.4757422,46.3498337
              5.4757326,46.3498205
              5.4757413,46.3498195
              5.4757488,46.3498336
              5.4757422,46.3498337
            </coordinates>
          </LinearRing>
        </outerBoundaryIs>
      </Polygon>
      <Polygon>
        <altitudeMode>clampToGround</altitudeMode>
        <extrude>1</extrude>
        <tessellate>1</tessellate>
        <outerBoundaryIs>
          <LinearRing>
            <coordinates>
              5.4757326,46.3498205
              5.4757381,46.3497827
              5.4757491,46.3497803
              5.4757413,46.3498195
              5.4757326,46.3498205
            </coordinates>
          </LinearRing>
        </outerBoundaryIs>
      </Polygon>
      <Polygon>
        <altitudeMode>clampToGround</altitudeMode>
        <extrude>1</extrude>
        <tessellate>1</tessellate>
        <outerBoundaryIs>
          <LinearRing>
            <coordinates>
              5.4757381,46.3497827
              5.4756980,46.3497547
              5.4757100,46.3497467
              5.4757491,46.3497803
              5.4757381,46.3497827
            </coordinates>
          </LinearRing>
        </outerBoundaryIs>
      </Polygon>
      <Polygon>
        <altitudeMode>clampToGround</altitudeMode>
        <extrude>1</extrude>
        <tessellate>1</tessellate>
        <outerBoundaryIs>
          <LinearRing>
            <coordinates>
              5.4758085,46.3498962
              5.4758168,46.3498972
              5.4758102,46.3499080
              5.4757901,46.3499078
              5.4758085,46.3498962
            </coordinates>
          </LinearRing>
        </outerBoundaryIs>
      </Polygon>
      <Polygon>
        <altitudeMode>clampToGround</altitudeMode>
        <extrude>1</extrude>
        <tessellate>1</tessellate>
        <outerBoundaryIs>
          <LinearRing>
            <coordinates>
              5.4758168,46.3498972
              5.4758233,46.3499066
              5.4758184,46.3499254
              5.4758102,46.3499080
              5.4758168,46.3498972
            </coordinates>
          </LinearRing>
        </outerBoundaryIs>
      </Polygon>
      <Polygon>
        <altitudeMode>clampToGround</altitudeMode>
        <extrude>1</extrude>
        <tessellate>1</tessellate>
        <outerBoundaryIs>
          <LinearRing>
            <coordinates>
              5.4758233,46.3499066
              5.4758372,46.3498940
              5.4758391,46.3499012
              5.4758184,46.3499254
              5.4758233,46.3499066
            </coordinates>
          </LinearRing>
        </outerBoundaryIs>
      </Polygon>
      <Polygon>
        <altitudeMode>clampToGround</altitudeMode>
        <extrude>1</extrude>
        <tessellate>1</tessellate>
        <outerBoundaryIs>
          <LinearRing>
            <coordinates>
              5.4758372,46.3498940
              5.4758493,46.3499023
              5.4758493,46.3499023
              5.4758391,46.3499012
              5.4758372,46.3498940
            </coordinates>
          </LinearRing>
        </outerBoundaryIs>
      </Polygon>
      <Polygon>
        <altitudeMode>clampToGround</altitudeMode>
        <extrude>1</extrude>
        <tessellate>1</tessellate>
        <outerBoundaryIs>
          <LinearRing>
            <coordinates>
              5.4758493,46.3499023
              5.4758471,46.3498656
              5.4758598,46.3498649
              5.4758493,46.3499023
              5.4758493,46.3499023
            </coordinates>
          </LinearRing>
        </outerBoundaryIs>
      </Polygon>
      <Polygon>
        <altitudeMode>clampToGround</altitudeMode>
        <extrude>1</extrude>
        <tessellate>1</tessellate>
        <outerBoundaryIs>
          <LinearRing>
            <coordinates>
              5.4758471,46.3498656
              5.4758418,46.3498406
              5.4758559,46.3498380
              5.4758598,46.3498649
              5.4758471,46.3498656
            </coordinates>
          </LinearRing>
        </outerBoundaryIs>
      </Polygon>
      <Polygon>
        <altitudeMode>clampToGround</altitudeMode>
        <extrude>1</extrude>
        <tessellate>1</tessellate>
        <outerBoundaryIs>
          <LinearRing>
            <coordinates>
              5.4758418,46.3498406
              5.4758299,46.3498177
              5.4758468,46.3498259
              5.4758559,46.3498380
              5.4758418,46.3498406
            </coordinates>
          </LinearRing>
        </outerBoundaryIs>
      </Polygon>
    </MultiGeometry>
  </Placemark>
  <Placemark>
    <name>Grotte En sait tout (39)</name>
    <styleUrl>#VTStyle03</styleUrl>
    <MultiGeometry>
      <Polygon>
        <altitudeMode>clampToGround</altitudeMode>
        <extrude>1</extrude>
        <tessellate>1</tessellate>
        <outerBoundaryIs>
          <LinearRing>
            <coordinates>
              5.4758299,46.3498177
              5.4758599,46.3498063
              5.4758618,46.3498333
              5.4758468,46.3498259
              5.4758299,46.3498177
            </coordinates>
          </LinearRing>
        </outerBoundaryIs>
      </Polygon>
    </MultiGeometry>
  </Placemark>
  <Placemark>
    <name>Grotte En sait tout (39)</name>
    <styleUrl>#VTStyle02</styleUrl>
    <MultiGeometry>
      <Polygon>
        <altitudeMode>clampToGround</altitudeMode>
        <extrude>1</extrude>
        <tessellate>1</tessellate>
        <outerBoundaryIs>
          <LinearRing>
            <coordinates>
              5.4758299,46.3498177
              5.4758602,46.3498138
              5.4758602,46.3498138
              5.4758468,46.3498259
              5.4758299,46.3498177
            </coordinates>
          </LinearRing>
        </outerBoundaryIs>
      </Polygon>
    </MultiGeometry>
  </Placemark>
  <Placemark>
    <name>Grotte En sait tout (39)</name>
    <styleUrl>#VTStyle01</styleUrl>
    <MultiGeometry>
      <Polygon>
        <altitudeMode>clampToGround</altitudeMode>
        <extrude>1</extrude>
        <tessellate>1</tessellate>
        <outerBoundaryIs>
          <LinearRing>
            <coordinates>
              5.4758602,46.3498138
              5.4758524,46.3498379
              5.4758265,46.3498250
              5.4758602,46.3498138
              5.4758602,46.3498138
            </coordinates>
          </LinearRing>
        </outerBoundaryIs>
      </Polygon>
      <Polygon>
        <altitudeMode>clampToGround</altitudeMode>
        <extrude>1</extrude>
        <tessellate>1</tessellate>
        <outerBoundaryIs>
          <LinearRing>
            <coordinates>
              5.4758233,46.3499066
              5.4758155,46.3499146
              5.4758100,46.3499123
              5.4758184,46.3499254
              5.4758233,46.3499066
            </coordinates>
          </LinearRing>
        </outerBoundaryIs>
      </Polygon>
      <Polygon>
        <altitudeMode>clampToGround</altitudeMode>
        <extrude>1</extrude>
        <tessellate>1</tessellate>
        <outerBoundaryIs>
          <LinearRing>
            <coordinates>
              5.4758155,46.3499146
              5.4758287,46.3499239
              5.4758060,46.3499298
              5.4758100,46.3499123
              5.4758155,46.3499146
            </coordinates>
          </LinearRing>
        </outerBoundaryIs>
      </Polygon>
      <Polygon>
        <altitudeMode>clampToGround</altitudeMode>
        <extrude>1</extrude>
        <tessellate>1</tessellate>
        <outerBoundaryIs>
          <LinearRing>
            <coordinates>
              5.4758287,46.3499239
              5.4758493,46.3499512
              5.4758353,46.3499581
              5.4758060,46.3499298
              5.4758287,46.3499239
            </coordinates>
          </LinearRing>
        </outerBoundaryIs>
      </Polygon>
    </MultiGeometry>
  </Placemark>
  <Placemark>
    <name>Grotte En sait tout (39)</name>
    <styleUrl>#VTStyle02</styleUrl>
    <MultiGeometry>
      <Polygon>
        <altitudeMode>clampToGround</altitudeMode>
        <extrude>1</extrude>
        <tessellate>1</tessellate>
        <outerBoundaryIs>
          <LinearRing>
            <coordinates>
              5.4758493,46.3499512
              5.4758668,46.3499765
              5.4758628,46.3499720
              5.4758353,46.3499581
              5.4758493,46.3499512
            </coordinates>
          </LinearRing>
        </outerBoundaryIs>
      </Polygon>
      <Polygon>
        <altitudeMode>clampToGround</altitudeMode>
        <extrude>1</extrude>
        <tessellate>1</tessellate>
        <outerBoundaryIs>
          <LinearRing>
            <coordinates>
              5.4758668,46.3499765
              5.4758512,46.3499604
              5.4758581,46.3499608
              5.4758628,46.3499720
              5.4758668,46.3499765
            </coordinates>
          </LinearRing>
        </outerBoundaryIs>
      </Polygon>
      <Polygon>
        <altitudeMode>clampToGround</altitudeMode>
        <extrude>1</extrude>
        <tessellate>1</tessellate>
        <outerBoundaryIs>
          <LinearRing>
            <coordinates>
              5.4758512,46.3499604
              5.4758901,46.3499269
              5.4758840,46.3499377
              5.4758581,46.3499608
              5.4758512,46.3499604
            </coordinates>
          </LinearRing>
        </outerBoundaryIs>
      </Polygon>
    </MultiGeometry>
  </Placemark>
  <Placemark>
    <name>Grotte En sait tout (39)</name>
    <styleUrl>#VTStyle03</styleUrl>
    <MultiGeometry>
      <Polygon>
        <altitudeMode>clampToGround</altitudeMode>
        <extrude>1</extrude>
        <tessellate>1</tessellate>
        <outerBoundaryIs>
          <LinearRing>
            <coordinates>
              5.4758901,46.3499269
              5.4758999,46.3499696
              5.4758792,46.3499776
              5.4758840,46.3499377
              5.4758901,46.3499269
            </coordinates>
          </LinearRing>
        </outerBoundaryIs>
      </Polygon>
      <Polygon>
        <altitudeMode>clampToGround</altitudeMode>
        <extrude>1</extrude>
        <tessellate>1</tessellate>
        <outerBoundaryIs>
          <LinearRing>
            <coordinates>
              5.4758999,46.3499696
              5.4759121,46.3499792
              5.4759038,46.3499884
              5.4758792,46.3499776
              5.4758999,46.3499696
            </coordinates>
          </LinearRing>
        </outerBoundaryIs>
      </Polygon>
      <Polygon>
        <altitudeMode>clampToGround</altitudeMode>
        <extrude>1</extrude>
        <tessellate>1</tessellate>
        <outerBoundaryIs>
          <LinearRing>
            <coordinates>
              5.4758901,46.3499269
              5.4758744,46.3499317
              5.4758904,46.3499354
              5.4758840,46.3499377
              5.4758901,46.3499269
            </coordinates>
          </LinearRing>
        </outerBoundaryIs>
      </Polygon>
      <Polygon>
        <altitudeMode>clampToGround</altitudeMode>
        <extrude>1</extrude>
        <tessellate>1</tessellate>
        <outerBoundaryIs>
          <LinearRing>
            <coordinates>
              5.4758744,46.3499317
              5.4758656,46.3499168
              5.4758795,46.3499149
              5.4758904,46.3499354
              5.4758744,46.3499317
            </coordinates>
          </LinearRing>
        </outerBoundaryIs>
      </Polygon>
      <Polygon>
        <altitudeMode>clampToGround</altitudeMode>
        <extrude>1</extrude>
        <tessellate>1</tessellate>
        <outerBoundaryIs>
          <LinearRing>
            <coordinates>
              5.4758656,46.3499168
              5.4758716,46.3498898
              5.4758822,46.3498899
              5.4758795,46.3499149
              5.4758656,46.3499168
            </coordinates>
          </LinearRing>
        </outerBoundaryIs>
      </Polygon>
      <Polygon>
        <altitudeMode>clampToGround</altitudeMode>
        <extrude>1</extrude>
        <tessellate>1</tessellate>
        <outerBoundaryIs>
          <LinearRing>
            <coordinates>
              5.4758716,46.3498898
              5.4758598,46.3498352
              5.4758979,46.3498348
              5.4758822,46.3498899
              5.4758716,46.3498898
            </coordinates>
          </LinearRing>
        </outerBoundaryIs>
      </Polygon>
      <Polygon>
        <altitudeMode>clampToGround</altitudeMode>
        <extrude>1</extrude>
        <tessellate>1</tessellate>
        <outerBoundaryIs>
          <LinearRing>
            <coordinates>
              5.4758598,46.3498352
              5.4758687,46.3498052
              5.4758783,46.3498010
              5.4758979,46.3498348
              5.4758598,46.3498352
            </coordinates>
          </LinearRing>
        </outerBoundaryIs>
      </Polygon>
      <Polygon>
        <altitudeMode>clampToGround</altitudeMode>
        <extrude>1</extrude>
        <tessellate>1</tessellate>
        <outerBoundaryIs>
          <LinearRing>
            <coordinates>
              5.4758687,46.3498052
              5.4758134,46.3497827
              5.4758316,46.3497772
              5.4758783,46.3498010
              5.4758687,46.3498052
            </coordinates>
          </LinearRing>
        </outerBoundaryIs>
      </Polygon>
      <Polygon>
        <altitudeMode>clampToGround</altitudeMode>
        <extrude>1</extrude>
        <tessellate>1</tessellate>
        <outerBoundaryIs>
          <LinearRing>
            <coordinates>
              5.4758134,46.3497827
              5.4758267,46.3497300
              5.4758394,46.3497330
              5.4758316,46.3497772
              5.4758134,46.3497827
            </coordinates>
          </LinearRing>
        </outerBoundaryIs>
      </Polygon>
    </MultiGeometry>
  </Placemark>
  <Placemark>
    <name>Grotte En sait tout (39)</name>
    <styleUrl>#VTStyle04</styleUrl>
    <MultiGeometry>
      <Polygon>
        <altitudeMode>clampToGround</altitudeMode>
        <extrude>1</extrude>
        <tessellate>1</tessellate>
        <outerBoundaryIs>
          <LinearRing>
            <coordinates>
              5.4758267,46.3497300
              5.4758713,46.3496730
              5.4758772,46.3496748
              5.4758394,46.3497330
              5.4758267,46.3497300
            </coordinates>
          </LinearRing>
        </outerBoundaryIs>
      </Polygon>
    </MultiGeometry>
  </Placemark>
  <Placemark>
    <name>Grotte En sait tout (39)</name>
    <styleUrl>#VTStyle03</styleUrl>
    <MultiGeometry>
      <Polygon>
        <altitudeMode>clampToGround</altitudeMode>
        <extrude>1</extrude>
        <tessellate>1</tessellate>
        <outerBoundaryIs>
          <LinearRing>
            <coordinates>
              5.4758267,46.3497300
              5.4758519,46.3496646
              5.4758682,46.3496664
              5.4758394,46.3497330
              5.4758267,46.3497300
            </coordinates>
          </LinearRing>
        </outerBoundaryIs>
      </Polygon>
      <Polygon>
        <altitudeMode>clampToGround</altitudeMode>
        <extrude>1</extrude>
        <tessellate>1</tessellate>
        <outerBoundaryIs>
          <LinearRing>
            <coordinates>
              5.4758519,46.3496646
              5.4758616,46.3496126
              5.4758690,46.3496131
              5.4758682,46.3496664
              5.4758519,46.3496646
            </coordinates>
          </LinearRing>
        </outerBoundaryIs>
      </Polygon>
      <Polygon>
        <altitudeMode>clampToGround</altitudeMode>
        <extrude>1</extrude>
        <tessellate>1</tessellate>
        <outerBoundaryIs>
          <LinearRing>
            <coordinates>
              5.4758519,46.3496646
              5.4758683,46.3496520
              5.4758819,46.3496548
              5.4758682,46.3496664
              5.4758519,46.3496646
            </coordinates>
          </LinearRing>
        </outerBoundaryIs>
      </Polygon>
      <Polygon>
        <altitudeMode>clampToGround</altitudeMode>
        <extrude>1</extrude>
        <tessellate>1</tessellate>
        <outerBoundaryIs>
          <LinearRing>
            <coordinates>
              5.4758683,46.3496520
              5.4758666,46.3496309
              5.4758723,46.3496298
              5.4758819,46.3496548
              5.4758683,46.3496520
            </coordinates>
          </LinearRing>
        </outerBoundaryIs>
      </Polygon>
      <Polygon>
        <altitudeMode>clampToGround</altitudeMode>
        <extrude>1</extrude>
        <tessellate>1</tessellate>
        <outerBoundaryIs>
          <LinearRing>
            <coordinates>
              5.4758666,46.3496309
              5.4758440,46.3495861
              5.4758485,46.3495850
              5.4758723,46.3496298
              5.4758666,46.3496309
            </coordinates>
          </LinearRing>
        </outerBoundaryIs>
      </Polygon>
      <Polygon>
        <altitudeMode>clampToGround</altitudeMode>
        <extrude>1</extrude>
        <tessellate>1</tessellate>
        <outerBoundaryIs>
          <LinearRing>
            <coordinates>
              5.4758316,46.3497772
              5.4758295,46.3498179
              5.4758183,46.3498124
              5.4758134,46.3497827
              5.4758316,46.3497772
            </coordinates>
          </LinearRing>
        </outerBoundaryIs>
      </Polygon>
      <Polygon>
        <altitudeMode>clampToGround</altitudeMode>
        <extrude>1</extrude>
        <tessellate>1</tessellate>
        <outerBoundaryIs>
          <LinearRing>
            <coordinates>
              5.4758295,46.3498179
              5.4758199,46.3498213
              5.4758160,46.3498144
              5.4758183,46.3498124
              5.4758295,46.3498179
            </coordinates>
          </LinearRing>
        </outerBoundaryIs>
      </Polygon>
      <Polygon>
        <altitudeMode>clampToGround</altitudeMode>
        <extrude>1</extrude>
        <tessellate>1</tessellate>
        <outerBoundaryIs>
          <LinearRing>
            <coordinates>
              5.4758199,46.3498213
              5.4757907,46.3498283
              5.4757873,46.3498233
              5.4758160,46.3498144
              5.4758199,46.3498213
            </coordinates>
          </LinearRing>
        </outerBoundaryIs>
      </Polygon>
      <Polygon>
        <altitudeMode>clampToGround</altitudeMode>
        <extrude>1</extrude>
        <tessellate>1</tessellate>
        <outerBoundaryIs>
          <LinearRing>
            <coordinates>
              5.4757907,46.3498283
              5.4757620,46.3498356
              5.4757537,46.3498324
              5.4757873,46.3498233
              5.4757907,46.3498283
            </coordinates>
          </LinearRing>
        </outerBoundaryIs>
      </Polygon>
      <Polygon>
        <altitudeMode>clampToGround</altitudeMode>
        <extrude>1</extrude>
        <tessellate>1</tessellate>
        <outerBoundaryIs>
          <LinearRing>
            <coordinates>
              5.4757620,46.3498356
              5.4757687,46.3498482
              5.4757583,46.3498517
              5.4757537,46.3498324
              5.4757620,46.3498356
            </coordinates>
          </LinearRing>
        </outerBoundaryIs>
      </Polygon>
      <Polygon>
        <altitudeMode>clampToGround</altitudeMode>
        <extrude>1</extrude>
        <tessellate>1</tessellate>
        <outerBoundaryIs>
          <LinearRing>
            <coordinates>
              5.4757687,46.3498482
              5.4757875,46.3498661
              5.4757774,46.3498663
              5.4757583,46.3498517
              5.4757687,46.3498482
            </coordinates>
          </LinearRing>
        </outerBoundaryIs>
      </Polygon>
      <Polygon>
        <altitudeMode>clampToGround</altitudeMode>
        <extrude>1</extrude>
        <tessellate>1</tessellate>
        <outerBoundaryIs>
          <LinearRing>
            <coordinates>
              5.4757875,46.3498661
              5.4757648,46.3498841
              5.4757555,46.3498825
              5.4757774,46.3498663
              5.4757875,46.3498661
            </coordinates>
          </LinearRing>
        </outerBoundaryIs>
      </Polygon>
      <Polygon>
        <altitudeMode>clampToGround</altitudeMode>
        <extrude>1</extrude>
        <tessellate>1</tessellate>
        <outerBoundaryIs>
          <LinearRing>
            <coordinates>
              5.4757648,46.3498841
              5.4757708,46.3498878
              5.4757624,46.3498917
              5.4757555,46.3498825
              5.4757648,46.3498841
            </coordinates>
          </LinearRing>
        </outerBoundaryIs>
      </Polygon>
      <Polygon>
        <altitudeMode>clampToGround</altitudeMode>
        <extrude>1</extrude>
        <tessellate>1</tessellate>
        <outerBoundaryIs>
          <LinearRing>
            <coordinates>
              5.4757708,46.3498878
              5.4757900,46.3498997
              5.4757871,46.3499051
              5.4757624,46.3498917
              5.4757708,46.3498878
            </coordinates>
          </LinearRing>
        </outerBoundaryIs>
      </Polygon>
      <Polygon>
        <altitudeMode>clampToGround</altitudeMode>
        <extrude>1</extrude>
        <tessellate>1</tessellate>
        <outerBoundaryIs>
          <LinearRing>
            <coordinates>
              5.4757900,46.3498997
              5.4758270,46.3499033
              5.4758188,46.3499074
              5.4757871,46.3499051
              5.4757900,46.3498997
            </coordinates>
          </LinearRing>
        </outerBoundaryIs>
      </Polygon>
      <Polygon>
        <altitudeMode>clampToGround</altitudeMode>
        <extrude>1</extrude>
        <tessellate>1</tessellate>
        <outerBoundaryIs>
          <LinearRing>
            <coordinates>
              5.4758270,46.3499033
              5.4758165,46.3499454
              5.4758081,46.3499466
              5.4758188,46.3499074
              5.4758270,46.3499033
            </coordinates>
          </LinearRing>
        </outerBoundaryIs>
      </Polygon>
      <Polygon>
        <altitudeMode>clampToGround</altitudeMode>
        <extrude>1</extrude>
        <tessellate>1</tessellate>
        <outerBoundaryIs>
          <LinearRing>
            <coordinates>
              5.4758165,46.3499454
              5.4758314,46.3499624
              5.4758172,46.3499573
              5.4758081,46.3499466
              5.4758165,46.3499454
            </coordinates>
          </LinearRing>
        </outerBoundaryIs>
      </Polygon>
      <Polygon>
        <altitudeMode>clampToGround</altitudeMode>
        <extrude>1</extrude>
        <tessellate>1</tessellate>
        <outerBoundaryIs>
          <LinearRing>
            <coordinates>
              5.4758314,46.3499624
              5.4758047,46.3499646
              5.4757941,46.3499598
              5.4758172,46.3499573
              5.4758314,46.3499624
            </coordinates>
          </LinearRing>
        </outerBoundaryIs>
      </Polygon>
      <Polygon>
        <altitudeMode>clampToGround</altitudeMode>
        <extrude>1</extrude>
        <tessellate>1</tessellate>
        <outerBoundaryIs>
          <LinearRing>
            <coordinates>
              5.4758047,46.3499646
              5.4758211,46.3499872
              5.4758133,46.3499912
              5.4757941,46.3499598
              5.4758047,46.3499646
            </coordinates>
          </LinearRing>
        </outerBoundaryIs>
      </Polygon>
      <Polygon>
        <altitudeMode>clampToGround</altitudeMode>
        <extrude>1</extrude>
        <tessellate>1</tessellate>
        <outerBoundaryIs>
          <LinearRing>
            <coordinates>
              5.4758211,46.3499872
              5.4758388,46.3500026
              5.4758293,46.3500020
              5.4758133,46.3499912
              5.4758211,46.3499872
            </coordinates>
          </LinearRing>
        </outerBoundaryIs>
      </Polygon>
      <Polygon>
        <altitudeMode>clampToGround</altitudeMode>
        <extrude>1</extrude>
        <tessellate>1</tessellate>
        <outerBoundaryIs>
          <LinearRing>
            <coordinates>
              5.4758388,46.3500026
              5.4757817,46.3500271
              5.4757817,46.3500271
              5.4758293,46.3500020
              5.4758388,46.3500026
            </coordinates>
          </LinearRing>
        </outerBoundaryIs>
      </Polygon>
      <Polygon>
        <altitudeMode>clampToGround</altitudeMode>
        <extrude>1</extrude>
        <tessellate>1</tessellate>
        <outerBoundaryIs>
          <LinearRing>
            <coordinates>
              5.4757817,46.3500271
              5.4758024,46.3500235
              5.4758030,46.3500303
              5.4757817,46.3500271
              5.4757817,46.3500271
            </coordinates>
          </LinearRing>
        </outerBoundaryIs>
      </Polygon>
      <Polygon>
        <altitudeMode>clampToGround</altitudeMode>
        <extrude>1</extrude>
        <tessellate>1</tessellate>
        <outerBoundaryIs>
          <LinearRing>
            <coordinates>
              5.4758024,46.3500235
              5.4758521,46.3500187
              5.4758612,46.3500244
              5.4758030,46.3500303
              5.4758024,46.3500235
            </coordinates>
          </LinearRing>
        </outerBoundaryIs>
      </Polygon>
      <Polygon>
        <altitudeMode>clampToGround</altitudeMode>
        <extrude>1</extrude>
        <tessellate>1</tessellate>
        <outerBoundaryIs>
          <LinearRing>
            <coordinates>
              5.4758521,46.3500187
              5.4758459,46.3499970
              5.4758617,46.3499979
              5.4758612,46.3500244
              5.4758521,46.3500187
            </coordinates>
          </LinearRing>
        </outerBoundaryIs>
      </Polygon>
      <Polygon>
        <altitudeMode>clampToGround</altitudeMode>
        <extrude>1</extrude>
        <tessellate>1</tessellate>
        <outerBoundaryIs>
          <LinearRing>
            <coordinates>
              5.4758459,46.3499970
              5.4758608,46.3499802
              5.4758704,46.3499857
              5.4758617,46.3499979
              5.4758459,46.3499970
            </coordinates>
          </LinearRing>
        </outerBoundaryIs>
      </Polygon>
      <Polygon>
        <altitudeMode>clampToGround</altitudeMode>
        <extrude>1</extrude>
        <tessellate>1</tessellate>
        <outerBoundaryIs>
          <LinearRing>
            <coordinates>
              5.4758608,46.3499802
              5.4758945,46.3499686
              5.4758984,46.3499759
              5.4758704,46.3499857
              5.4758608,46.3499802
            </coordinates>
          </LinearRing>
        </outerBoundaryIs>
      </Polygon>
      <Polygon>
        <altitudeMode>clampToGround</altitudeMode>
        <extrude>1</extrude>
        <tessellate>1</tessellate>
        <outerBoundaryIs>
          <LinearRing>
            <coordinates>
              5.4758030,46.3500303
              5.4757480,46.3500582
              5.4757430,46.3500524
              5.4758024,46.3500235
              5.4758030,46.3500303
            </coordinates>
          </LinearRing>
        </outerBoundaryIs>
      </Polygon>
      <Polygon>
        <altitudeMode>clampToGround</altitudeMode>
        <extrude>1</extrude>
        <tessellate>1</tessellate>
        <outerBoundaryIs>
          <LinearRing>
            <coordinates>
              5.4757480,46.3500582
              5.4756841,46.3500783
              5.4756795,46.3500702
              5.4757430,46.3500524
              5.4757480,46.3500582
            </coordinates>
          </LinearRing>
        </outerBoundaryIs>
      </Polygon>
      <Polygon>
        <altitudeMode>clampToGround</altitudeMode>
        <extrude>1</extrude>
        <tessellate>1</tessellate>
        <outerBoundaryIs>
          <LinearRing>
            <coordinates>
              5.4756841,46.3500783
              5.4756517,46.3500889
              5.4756542,46.3500769
              5.4756795,46.3500702
              5.4756841,46.3500783
            </coordinates>
          </LinearRing>
        </outerBoundaryIs>
      </Polygon>
      <Polygon>
        <altitudeMode>clampToGround</altitudeMode>
        <extrude>1</extrude>
        <tessellate>1</tessellate>
        <outerBoundaryIs>
          <LinearRing>
            <coordinates>
              5.4756517,46.3500889
              5.4756385,46.3500805
              5.4756391,46.3500745
              5.4756542,46.3500769
              5.4756517,46.3500889
            </coordinates>
          </LinearRing>
        </outerBoundaryIs>
      </Polygon>
      <Polygon>
        <altitudeMode>clampToGround</altitudeMode>
        <extrude>1</extrude>
        <tessellate>1</tessellate>
        <outerBoundaryIs>
          <LinearRing>
            <coordinates>
              5.4756385,46.3500805
              5.4756224,46.3500889
              5.4756134,46.3500833
              5.4756391,46.3500745
              5.4756385,46.3500805
            </coordinates>
          </LinearRing>
        </outerBoundaryIs>
      </Polygon>
      <Polygon>
        <altitudeMode>clampToGround</altitudeMode>
        <extrude>1</extrude>
        <tessellate>1</tessellate>
        <outerBoundaryIs>
          <LinearRing>
            <coordinates>
              5.4756224,46.3500889
              5.4756149,46.3501108
              5.4755906,46.3501045
              5.4756134,46.3500833
              5.4756224,46.3500889
            </coordinates>
          </LinearRing>
        </outerBoundaryIs>
      </Polygon>
      <Polygon>
        <altitudeMode>clampToGround</altitudeMode>
        <extrude>1</extrude>
        <tessellate>1</tessellate>
        <outerBoundaryIs>
          <LinearRing>
            <coordinates>
              5.4756224,46.3500889
              5.4756735,46.3501175
              5.4756735,46.3501175
              5.4756134,46.3500833
              5.4756224,46.3500889
            </coordinates>
          </LinearRing>
        </outerBoundaryIs>
      </Polygon>
      <Polygon>
        <altitudeMode>clampToGround</altitudeMode>
        <extrude>1</extrude>
        <tessellate>1</tessellate>
        <outerBoundaryIs>
          <LinearRing>
            <coordinates>
              5.4756735,46.3501175
              5.4756311,46.3501253
              5.4756297,46.3501086
              5.4756735,46.3501175
              5.4756735,46.3501175
            </coordinates>
          </LinearRing>
        </outerBoundaryIs>
      </Polygon>
      <Polygon>
        <altitudeMode>clampToGround</altitudeMode>
        <extrude>1</extrude>
        <tessellate>1</tessellate>
        <outerBoundaryIs>
          <LinearRing>
            <coordinates>
              5.4756224,46.3500889
              5.4756172,46.3501043
              5.4756122,46.3500976
              5.4756134,46.3500833
              5.4756224,46.3500889
            </coordinates>
          </LinearRing>
        </outerBoundaryIs>
      </Polygon>
      <Polygon>
        <altitudeMode>clampToGround</altitudeMode>
        <extrude>1</extrude>
        <tessellate>1</tessellate>
        <outerBoundaryIs>
          <LinearRing>
            <coordinates>
              5.4756172,46.3501043
              5.4755736,46.3500878
              5.4755706,46.3500821
              5.4756122,46.3500976
              5.4756172,46.3501043
            </coordinates>
          </LinearRing>
        </outerBoundaryIs>
      </Polygon>
      <Polygon>
        <altitudeMode>clampToGround</altitudeMode>
        <extrude>1</extrude>
        <tessellate>1</tessellate>
        <outerBoundaryIs>
          <LinearRing>
            <coordinates>
              5.4755736,46.3500878
              5.4755619,46.3501039
              5.4755543,46.3500981
              5.4755706,46.3500821
              5.4755736,46.3500878
            </coordinates>
          </LinearRing>
        </outerBoundaryIs>
      </Polygon>
      <Polygon>
        <altitudeMode>clampToGround</altitudeMode>
        <extrude>1</extrude>
        <tessellate>1</tessellate>
        <outerBoundaryIs>
          <LinearRing>
            <coordinates>
              5.4755619,46.3501039
              5.4755258,46.3501123
              5.4755257,46.3501066
              5.4755543,46.3500981
              5.4755619,46.3501039
            </coordinates>
          </LinearRing>
        </outerBoundaryIs>
      </Polygon>
      <Polygon>
        <altitudeMode>clampToGround</altitudeMode>
        <extrude>1</extrude>
        <tessellate>1</tessellate>
        <outerBoundaryIs>
          <LinearRing>
            <coordinates>
              5.4755258,46.3501123
              5.4755040,46.3501070
              5.4755134,46.3501039
              5.4755257,46.3501066
              5.4755258,46.3501123
            </coordinates>
          </LinearRing>
        </outerBoundaryIs>
      </Polygon>
      <Polygon>
        <altitudeMode>clampToGround</altitudeMode>
        <extrude>1</extrude>
        <tessellate>1</tessellate>
        <outerBoundaryIs>
          <LinearRing>
            <coordinates>
              5.4755040,46.3501070
              5.4755168,46.3500829
              5.4755227,46.3500887
              5.4755134,46.3501039
              5.4755040,46.3501070
            </coordinates>
          </LinearRing>
        </outerBoundaryIs>
      </Polygon>
      <Polygon>
        <altitudeMode>clampToGround</altitudeMode>
        <extrude>1</extrude>
        <tessellate>1</tessellate>
        <outerBoundaryIs>
          <LinearRing>
            <coordinates>
              5.4755168,46.3500829
              5.4755559,46.3500803
              5.4755648,46.3500851
              5.4755227,46.3500887
              5.4755168,46.3500829
            </coordinates>
          </LinearRing>
        </outerBoundaryIs>
      </Polygon>
      <Polygon>
        <altitudeMode>clampToGround</altitudeMode>
        <extrude>1</extrude>
        <tessellate>1</tessellate>
        <outerBoundaryIs>
          <LinearRing>
            <coordinates>
              5.4755559,46.3500803
              5.4755557,46.3500738
              5.4755600,46.3500693
              5.4755648,46.3500851
              5.4755559,46.3500803
            </coordinates>
          </LinearRing>
        </outerBoundaryIs>
      </Polygon>
      <Polygon>
        <altitudeMode>clampToGround</altitudeMode>
        <extrude>1</extrude>
        <tessellate>1</tessellate>
        <outerBoundaryIs>
          <LinearRing>
            <coordinates>
              5.4755557,46.3500738
              5.4755319,46.3500762
              5.4755345,46.3500698
              5.4755600,46.3500693
              5.4755557,46.3500738
            </coordinates>
          </LinearRing>
        </outerBoundaryIs>
      </Polygon>
      <Polygon>
        <altitudeMode>clampToGround</altitudeMode>
        <extrude>1</extrude>
        <tessellate>1</tessellate>
        <outerBoundaryIs>
          <LinearRing>
            <coordinates>
              5.4755319,46.3500762
              5.4754909,46.3500499
              5.4754958,46.3500473
              5.4755345,46.3500698
              5.4755319,46.3500762
            </coordinates>
          </LinearRing>
        </outerBoundaryIs>
      </Polygon>
      <Polygon>
        <altitudeMode>clampToGround</altitudeMode>
        <extrude>1</extrude>
        <tessellate>1</tessellate>
        <outerBoundaryIs>
          <LinearRing>
            <coordinates>
              5.4754909,46.3500499
              5.4754787,46.3500349
              5.4754801,46.3500312
              5.4754958,46.3500473
              5.4754909,46.3500499
            </coordinates>
          </LinearRing>
        </outerBoundaryIs>
      </Polygon>
      <Polygon>
        <altitudeMode>clampToGround</altitudeMode>
        <extrude>1</extrude>
        <tessellate>1</tessellate>
        <outerBoundaryIs>
          <LinearRing>
            <coordinates>
              5.4754787,46.3500349
              5.4754493,46.3500484
              5.4754491,46.3500405
              5.4754801,46.3500312
              5.4754787,46.3500349
            </coordinates>
          </LinearRing>
        </outerBoundaryIs>
      </Polygon>
      <Polygon>
        <altitudeMode>clampToGround</altitudeMode>
        <extrude>1</extrude>
        <tessellate>1</tessellate>
        <outerBoundaryIs>
          <LinearRing>
            <coordinates>
              5.4754493,46.3500484
              5.4754198,46.3500379
              5.4754152,46.3500297
              5.4754491,46.3500405
              5.4754493,46.3500484
            </coordinates>
          </LinearRing>
        </outerBoundaryIs>
      </Polygon>
      <Polygon>
        <altitudeMode>clampToGround</altitudeMode>
        <extrude>1</extrude>
        <tessellate>1</tessellate>
        <outerBoundaryIs>
          <LinearRing>
            <coordinates>
              5.4754198,46.3500379
              5.4754081,46.3500590
              5.4754020,46.3500538
              5.4754152,46.3500297
              5.4754198,46.3500379
            </coordinates>
          </LinearRing>
        </outerBoundaryIs>
      </Polygon>
      <Polygon>
        <altitudeMode>clampToGround</altitudeMode>
        <extrude>1</extrude>
        <tessellate>1</tessellate>
        <outerBoundaryIs>
          <LinearRing>
            <coordinates>
              5.4754081,46.3500590
              5.4753802,46.3500599
              5.4753880,46.3500552
              5.4754020,46.3500538
              5.4754081,46.3500590
            </coordinates>
          </LinearRing>
        </outerBoundaryIs>
      </Polygon>
      <Polygon>
        <altitudeMode>clampToGround</altitudeMode>
        <extrude>1</extrude>
        <tessellate>1</tessellate>
        <outerBoundaryIs>
          <LinearRing>
            <coordinates>
              5.4753802,46.3500599
              5.4753809,46.3500459
              5.4753888,46.3500421
              5.4753880,46.3500552
              5.4753802,46.3500599
            </coordinates>
          </LinearRing>
        </outerBoundaryIs>
      </Polygon>
      <Polygon>
        <altitudeMode>clampToGround</altitudeMode>
        <extrude>1</extrude>
        <tessellate>1</tessellate>
        <outerBoundaryIs>
          <LinearRing>
            <coordinates>
              5.4753809,46.3500459
              5.4753344,46.3500408
              5.4753344,46.3500342
              5.4753888,46.3500421
              5.4753809,46.3500459
            </coordinates>
          </LinearRing>
        </outerBoundaryIs>
      </Polygon>
      <Polygon>
        <altitudeMode>clampToGround</altitudeMode>
        <extrude>1</extrude>
        <tessellate>1</tessellate>
        <outerBoundaryIs>
          <LinearRing>
            <coordinates>
              5.4753344,46.3500408
              5.4752805,46.3500451
              5.4752855,46.3500382
              5.4753344,46.3500342
              5.4753344,46.3500408
            </coordinates>
          </LinearRing>
        </outerBoundaryIs>
      </Polygon>
      <Polygon>
        <altitudeMode>clampToGround</altitudeMode>
        <extrude>1</extrude>
        <tessellate>1</tessellate>
        <outerBoundaryIs>
          <LinearRing>
            <coordinates>
              5.4752805,46.3500451
              5.4752646,46.3500287
              5.4752707,46.3500240
              5.4752855,46.3500382
              5.4752805,46.3500451
            </coordinates>
          </LinearRing>
        </outerBoundaryIs>
      </Polygon>
      <Polygon>
        <altitudeMode>clampToGround</altitudeMode>
        <extrude>1</extrude>
        <tessellate>1</tessellate>
        <outerBoundaryIs>
          <LinearRing>
            <coordinates>
              5.4752646,46.3500287
              5.4752435,46.3500236
              5.4752524,46.3500194
              5.4752707,46.3500240
              5.4752646,46.3500287
            </coordinates>
          </LinearRing>
        </outerBoundaryIs>
      </Polygon>
      <Polygon>
        <altitudeMode>clampToGround</altitudeMode>
        <extrude>1</extrude>
        <tessellate>1</tessellate>
        <outerBoundaryIs>
          <LinearRing>
            <coordinates>
              5.4752435,46.3500236
              5.4752452,46.3499969
              5.4752533,46.3499939
              5.4752524,46.3500194
              5.4752435,46.3500236
            </coordinates>
          </LinearRing>
        </outerBoundaryIs>
      </Polygon>
      <Polygon>
        <altitudeMode>clampToGround</altitudeMode>
        <extrude>1</extrude>
        <tessellate>1</tessellate>
        <outerBoundaryIs>
          <LinearRing>
            <coordinates>
              5.4752452,46.3499969
              5.4752280,46.3499883
              5.4752259,46.3499820
              5.4752533,46.3499939
              5.4752452,46.3499969
            </coordinates>
          </LinearRing>
        </outerBoundaryIs>
      </Polygon>
      <Polygon>
        <altitudeMode>clampToGround</altitudeMode>
        <extrude>1</extrude>
        <tessellate>1</tessellate>
        <outerBoundaryIs>
          <LinearRing>
            <coordinates>
              5.4752280,46.3499883
              5.4752153,46.3500000
              5.4752092,46.3499952
              5.4752259,46.3499820
              5.4752280,46.3499883
            </coordinates>
          </LinearRing>
        </outerBoundaryIs>
      </Polygon>
      <Polygon>
        <altitudeMode>clampToGround</altitudeMode>
        <extrude>1</extrude>
        <tessellate>1</tessellate>
        <outerBoundaryIs>
          <LinearRing>
            <coordinates>
              5.4752153,46.3500000
              5.4751968,46.3500047
              5.4751950,46.3500042
              5.4752092,46.3499952
              5.4752153,46.3500000
            </coordinates>
          </LinearRing>
        </outerBoundaryIs>
      </Polygon>
      <Polygon>
        <altitudeMode>clampToGround</altitudeMode>
        <extrude>1</extrude>
        <tessellate>1</tessellate>
        <outerBoundaryIs>
          <LinearRing>
            <coordinates>
              5.4751968,46.3500047
              5.4752175,46.3500323
              5.4752036,46.3500349
              5.4751950,46.3500042
              5.4751968,46.3500047
            </coordinates>
          </LinearRing>
        </outerBoundaryIs>
      </Polygon>
      <Polygon>
        <altitudeMode>clampToGround</altitudeMode>
        <extrude>1</extrude>
        <tessellate>1</tessellate>
        <outerBoundaryIs>
          <LinearRing>
            <coordinates>
              5.4752175,46.3500323
              5.4752149,46.3500392
              5.4752142,46.3500412
              5.4752036,46.3500349
              5.4752175,46.3500323
            </coordinates>
          </LinearRing>
        </outerBoundaryIs>
      </Polygon>
      <Polygon>
        <altitudeMode>clampToGround</altitudeMode>
        <extrude>1</extrude>
        <tessellate>1</tessellate>
        <outerBoundaryIs>
          <LinearRing>
            <coordinates>
              5.4752149,46.3500392
              5.4752312,46.3500072
              5.4752437,46.3500130
              5.4752142,46.3500412
              5.4752149,46.3500392
            </coordinates>
          </LinearRing>
        </outerBoundaryIs>
      </Polygon>
      <Polygon>
        <altitudeMode>clampToGround</altitudeMode>
        <extrude>1</extrude>
        <tessellate>1</tessellate>
        <outerBoundaryIs>
          <LinearRing>
            <coordinates>
              5.4752175,46.3500323
              5.4752093,46.3500482
              5.4752013,46.3500464
              5.4752036,46.3500349
              5.4752175,46.3500323
            </coordinates>
          </LinearRing>
        </outerBoundaryIs>
      </Polygon>
      <Polygon>
        <altitudeMode>clampToGround</altitudeMode>
        <extrude>1</extrude>
        <tessellate>1</tessellate>
        <outerBoundaryIs>
          <LinearRing>
            <coordinates>
              5.4752093,46.3500482
              5.4752027,46.3500602
              5.4751947,46.3500541
              5.4752013,46.3500464
              5.4752093,46.3500482
            </coordinates>
          </LinearRing>
        </outerBoundaryIs>
      </Polygon>
      <Polygon>
        <altitudeMode>clampToGround</altitudeMode>
        <extrude>1</extrude>
        <tessellate>1</tessellate>
        <outerBoundaryIs>
          <LinearRing>
            <coordinates>
              5.4752027,46.3500602
              5.4751878,46.3500674
              5.4751860,46.3500547
              5.4751947,46.3500541
              5.4752027,46.3500602
            </coordinates>
          </LinearRing>
        </outerBoundaryIs>
      </Polygon>
      <Polygon>
        <altitudeMode>clampToGround</altitudeMode>
        <extrude>1</extrude>
        <tessellate>1</tessellate>
        <outerBoundaryIs>
          <LinearRing>
            <coordinates>
              5.4751878,46.3500674
              5.4751415,46.3500638
              5.4751498,46.3500598
              5.4751860,46.3500547
              5.4751878,46.3500674
            </coordinates>
          </LinearRing>
        </outerBoundaryIs>
      </Polygon>
      <Polygon>
        <altitudeMode>clampToGround</altitudeMode>
        <extrude>1</extrude>
        <tessellate>1</tessellate>
        <outerBoundaryIs>
          <LinearRing>
            <coordinates>
              5.4751415,46.3500638
              5.4751618,46.3500350
              5.4751650,46.3500418
              5.4751498,46.3500598
              5.4751415,46.3500638
            </coordinates>
          </LinearRing>
        </outerBoundaryIs>
      </Polygon>
      <Polygon>
        <altitudeMode>clampToGround</altitudeMode>
        <extrude>1</extrude>
        <tessellate>1</tessellate>
        <outerBoundaryIs>
          <LinearRing>
            <coordinates>
              5.4751618,46.3500350
              5.4751727,46.3500404
              5.4751749,46.3500438
              5.4751650,46.3500418
              5.4751618,46.3500350
            </coordinates>
          </LinearRing>
        </outerBoundaryIs>
      </Polygon>
      <Polygon>
        <altitudeMode>clampToGround</altitudeMode>
        <extrude>1</extrude>
        <tessellate>1</tessellate>
        <outerBoundaryIs>
          <LinearRing>
            <coordinates>
              5.4751727,46.3500404
              5.4751704,46.3500324
              5.4751767,46.3500294
              5.4751749,46.3500438
              5.4751727,46.3500404
            </coordinates>
          </LinearRing>
        </outerBoundaryIs>
      </Polygon>
      <Polygon>
        <altitudeMode>clampToGround</altitudeMode>
        <extrude>1</extrude>
        <tessellate>1</tessellate>
        <outerBoundaryIs>
          <LinearRing>
            <coordinates>
              5.4751704,46.3500324
              5.4751335,46.3500286
              5.4751362,46.3500219
              5.4751767,46.3500294
              5.4751704,46.3500324
            </coordinates>
          </LinearRing>
        </outerBoundaryIs>
      </Polygon>
      <Polygon>
        <altitudeMode>clampToGround</altitudeMode>
        <extrude>1</extrude>
        <tessellate>1</tessellate>
        <outerBoundaryIs>
          <LinearRing>
            <coordinates>
              5.4751335,46.3500286
              5.4751170,46.3500251
              5.4751138,46.3500185
              5.4751362,46.3500219
              5.4751335,46.3500286
            </coordinates>
          </LinearRing>
        </outerBoundaryIs>
      </Polygon>
      <Polygon>
        <altitudeMode>clampToGround</altitudeMode>
        <extrude>1</extrude>
        <tessellate>1</tessellate>
        <outerBoundaryIs>
          <LinearRing>
            <coordinates>
              5.4751170,46.3500251
              5.4750967,46.3500479
              5.4750944,46.3500395
              5.4751138,46.3500185
              5.4751170,46.3500251
            </coordinates>
          </LinearRing>
        </outerBoundaryIs>
      </Polygon>
      <Polygon>
        <altitudeMode>clampToGround</altitudeMode>
        <extrude>1</extrude>
        <tessellate>1</tessellate>
        <outerBoundaryIs>
          <LinearRing>
            <coordinates>
              5.4750967,46.3500479
              5.4750617,46.3500266
              5.4750675,46.3500205
              5.4750944,46.3500395
              5.4750967,46.3500479
            </coordinates>
          </LinearRing>
        </outerBoundaryIs>
      </Polygon>
      <Polygon>
        <altitudeMode>clampToGround</altitudeMode>
        <extrude>1</extrude>
        <tessellate>1</tessellate>
        <outerBoundaryIs>
          <LinearRing>
            <coordinates>
              5.4750617,46.3500266
              5.4750383,46.3500229
              5.4750325,46.3500138
              5.4750675,46.3500205
              5.4750617,46.3500266
            </coordinates>
          </LinearRing>
        </outerBoundaryIs>
      </Polygon>
      <Polygon>
        <altitudeMode>clampToGround</altitudeMode>
        <extrude>1</extrude>
        <tessellate>1</tessellate>
        <outerBoundaryIs>
          <LinearRing>
            <coordinates>
              5.4750383,46.3500229
              5.4750239,46.3500512
              5.4750030,46.3500491
              5.4750325,46.3500138
              5.4750383,46.3500229
            </coordinates>
          </LinearRing>
        </outerBoundaryIs>
      </Polygon>
      <Polygon>
        <altitudeMode>clampToGround</altitudeMode>
        <extrude>1</extrude>
        <tessellate>1</tessellate>
        <outerBoundaryIs>
          <LinearRing>
            <coordinates>
              5.4750239,46.3500512
              5.4750246,46.3501354
              5.4750190,46.3501356
              5.4750030,46.3500491
              5.4750239,46.3500512
            </coordinates>
          </LinearRing>
        </outerBoundaryIs>
      </Polygon>
      <Polygon>
        <altitudeMode>clampToGround</altitudeMode>
        <extrude>1</extrude>
        <tessellate>1</tessellate>
        <outerBoundaryIs>
          <LinearRing>
            <coordinates>
              5.4750030,46.3500491
              5.4750082,46.3500368
              5.4750180,46.3500339
              5.4750239,46.3500512
              5.4750030,46.3500491
            </coordinates>
          </LinearRing>
        </outerBoundaryIs>
      </Polygon>
      <Polygon>
        <altitudeMode>clampToGround</altitudeMode>
        <extrude>1</extrude>
        <tessellate>1</tessellate>
        <outerBoundaryIs>
          <LinearRing>
            <coordinates>
              5.4750082,46.3500368
              5.4749908,46.3500191
              5.4749948,46.3500162
              5.4750180,46.3500339
              5.4750082,46.3500368
            </coordinates>
          </LinearRing>
        </outerBoundaryIs>
      </Polygon>
    </MultiGeometry>
  </Placemark>
  <Placemark>
    <name>Grotte En sait tout (39)</name>
    <styleUrl>#VTStyle02</styleUrl>
    <MultiGeometry>
      <Polygon>
        <altitudeMode>clampToGround</altitudeMode>
        <extrude>1</extrude>
        <tessellate>1</tessellate>
        <outerBoundaryIs>
          <LinearRing>
            <coordinates>
              5.4752344,46.3502839
              5.4752180,46.3503482
              5.4752180,46.3503482
              5.4752253,46.3503003
              5.4752344,46.3502839
            </coordinates>
          </LinearRing>
        </outerBoundaryIs>
      </Polygon>
      <Polygon>
        <altitudeMode>clampToGround</altitudeMode>
        <extrude>1</extrude>
        <tessellate>1</tessellate>
        <outerBoundaryIs>
          <LinearRing>
            <coordinates>
              5.4752180,46.3503482
              5.4751918,46.3503804
              5.4751918,46.3503804
              5.4752180,46.3503482
              5.4752180,46.3503482
            </coordinates>
          </LinearRing>
        </outerBoundaryIs>
      </Polygon>
      <Polygon>
        <altitudeMode>clampToGround</altitudeMode>
        <extrude>1</extrude>
        <tessellate>1</tessellate>
        <outerBoundaryIs>
          <LinearRing>
            <coordinates>
              5.4751918,46.3503804
              5.4751543,46.3504174
              5.4751543,46.3504174
              5.4751918,46.3503804
              5.4751918,46.3503804
            </coordinates>
          </LinearRing>
        </outerBoundaryIs>
      </Polygon>
      <Polygon>
        <altitudeMode>clampToGround</altitudeMode>
        <extrude>1</extrude>
        <tessellate>1</tessellate>
        <outerBoundaryIs>
          <LinearRing>
            <coordinates>
              5.4751543,46.3504174
              5.4751102,46.3504696
              5.4751102,46.3504696
              5.4751543,46.3504174
              5.4751543,46.3504174
            </coordinates>
          </LinearRing>
        </outerBoundaryIs>
      </Polygon>
      <Polygon>
        <altitudeMode>clampToGround</altitudeMode>
        <extrude>1</extrude>
        <tessellate>1</tessellate>
        <outerBoundaryIs>
          <LinearRing>
            <coordinates>
              5.4751102,46.3504696
              5.4750835,46.3505062
              5.4750835,46.3505062
              5.4751102,46.3504696
              5.4751102,46.3504696
            </coordinates>
          </LinearRing>
        </outerBoundaryIs>
      </Polygon>
      <Polygon>
        <altitudeMode>clampToGround</altitudeMode>
        <extrude>1</extrude>
        <tessellate>1</tessellate>
        <outerBoundaryIs>
          <LinearRing>
            <coordinates>
              5.4752344,46.3502839
              5.4752318,46.3502289
              5.4752318,46.3502289
              5.4752253,46.3503003
              5.4752344,46.3502839
            </coordinates>
          </LinearRing>
        </outerBoundaryIs>
      </Polygon>
    </MultiGeometry>
  </Placemark>
  <Placemark>
    <name>Grotte En sait tout (39)</name>
    <styleUrl>#VTStyle03</styleUrl>
    <MultiGeometry>
      <Polygon>
        <altitudeMode>clampToGround</altitudeMode>
        <extrude>1</extrude>
        <tessellate>1</tessellate>
        <outerBoundaryIs>
          <LinearRing>
            <coordinates>
              5.4752318,46.3502289
              5.4751341,46.3501904
              5.4751341,46.3501904
              5.4752318,46.3502289
              5.4752318,46.3502289
            </coordinates>
          </LinearRing>
        </outerBoundaryIs>
      </Polygon>
      <Polygon>
        <altitudeMode>clampToGround</altitudeMode>
        <extrude>1</extrude>
        <tessellate>1</tessellate>
        <outerBoundaryIs>
          <LinearRing>
            <coordinates>
              5.4751341,46.3501904
              5.4750431,46.3502260
              5.4750431,46.3502260
              5.4751341,46.3501904
              5.4751341,46.3501904
            </coordinates>
          </LinearRing>
        </outerBoundaryIs>
      </Polygon>
      <Polygon>
        <altitudeMode>clampToGround</altitudeMode>
        <extrude>1</extrude>
        <tessellate>1</tessellate>
        <outerBoundaryIs>
          <LinearRing>
            <coordinates>
              5.4750431,46.3502260
              5.4749410,46.3502572
              5.4749410,46.3502572
              5.4750431,46.3502260
              5.4750431,46.3502260
            </coordinates>
          </LinearRing>
        </outerBoundaryIs>
      </Polygon>
      <Polygon>
        <altitudeMode>clampToGround</altitudeMode>
        <extrude>1</extrude>
        <tessellate>1</tessellate>
        <outerBoundaryIs>
          <LinearRing>
            <coordinates>
              5.4749410,46.3502572
              5.4748299,46.3502845
              5.4748299,46.3502845
              5.4749410,46.3502572
              5.4749410,46.3502572
            </coordinates>
          </LinearRing>
        </outerBoundaryIs>
      </Polygon>
    </MultiGeometry>
  </Placemark>
</Document>
</kml>
