<?xml version="1.0" encoding="UTF-8"?>
<kml xmlns="http://earth.google.com/kml/2.1">
<Document>
  <name>Grotte En sait tout (39)</name>
  <open>0</open>
  <Style id = "VTStyle01">
    <PolyStyle>
      <color>ff000080</color>
    </PolyStyle>
    <LineStyle>
      <width>1</width>
      <color>ff000080</color>
    </LineStyle>
  </Style>
  <Style id = "VTStyle02">
    <PolyStyle>
      <color>ff0000ff</color>
    </PolyStyle>
    <LineStyle>
      <width>1</width>
      <color>ff0000ff</color>
    </LineStyle>
  </Style>
  <Style id = "VTStyle03">
    <PolyStyle>
      <color>ff00ffff</color>
    </PolyStyle>
    <LineStyle>
      <width>1</width>
      <color>ff00ffff</color>
    </LineStyle>
  </Style>
  <Style id = "VTStyle04">
    <PolyStyle>
      <color>ff008080</color>
    </PolyStyle>
    <LineStyle>
      <width>1</width>
      <color>ff008080</color>
    </LineStyle>
  </Style>
  <Placemark>
    <name>Grotte En sait tout (39)</name>
    <styleUrl>#VTStyle02</styleUrl>
    <MultiGeometry>
      <Polygon>
        <altitudeMode>clampToGround</altitudeMode>
        <extrude>1</extrude>
        <tessellate>1</tessellate>
        <outerBoundaryIs>
          <LinearRing>
            <coordinates>
              5.4752349,46.3502830
              5.4753532,46.3503051
              5.4753562,46.3503260
              5.4752258,46.3502995
              5.4752349,46.3502830
            </coordinates>
          </LinearRing>
        </outerBoundaryIs>
      </Polygon>
      <Polygon>
        <altitudeMode>clampToGround</altitudeMode>
        <extrude>1</extrude>
        <tessellate>1</tessellate>
        <outerBoundaryIs>
          <LinearRing>
            <coordinates>
              5.4753532,46.3503051
              5.4754040,46.3502929
              5.4754162,46.3503035
              5.4753562,46.3503260
              5.4753532,46.3503051
            </coordinates>
          </LinearRing>
        </outerBoundaryIs>
      </Polygon>
      <Polygon>
        <altitudeMode>clampToGround</altitudeMode>
        <extrude>1</extrude>
        <tessellate>1</tessellate>
        <outerBoundaryIs>
          <LinearRing>
            <coordinates>
              5.4754040,46.3502929
              5.4754612,46.3502542
              5.4754849,46.3502615
              5.4754162,46.3503035
              5.4754040,46.3502929
            </coordinates>
          </LinearRing>
        </outerBoundaryIs>
      </Polygon>
      <Polygon>
        <altitudeMode>clampToGround</altitudeMode>
        <extrude>1</extrude>
        <tessellate>1</tessellate>
        <outerBoundaryIs>
          <LinearRing>
            <coordinates>
              5.4754612,46.3502542
              5.4754537,46.3502150
              5.4754786,46.3502222
              5.4754849,46.3502615
              5.4754612,46.3502542
            </coordinates>
          </LinearRing>
        </outerBoundaryIs>
      </Polygon>
      <Polygon>
        <altitudeMode>clampToGround</altitudeMode>
        <extrude>1</extrude>
        <tessellate>1</tessellate>
        <outerBoundaryIs>
          <LinearRing>
            <coordinates>
              5.4754537,46.3502150
              5.4755025,46.3501991
              5.4755135,46.3502072
              5.4754786,46.3502222
              5.4754537,46.3502150
            </coordinates>
          </LinearRing>
        </outerBoundaryIs>
      </Polygon>
      <Polygon>
        <altitudeMode>clampToGround</altitudeMode>
        <extrude>1</extrude>
        <tessellate>1</tessellate>
        <outerBoundaryIs>
          <LinearRing>
            <coordinates>
              5.4755025,46.3501991
              5.4755429,46.3501731
              5.4755508,46.3501766
              5.4755135,46.3502072
              5.4755025,46.3501991
            </coordinates>
          </LinearRing>
        </outerBoundaryIs>
      </Polygon>
      <Polygon>
        <altitudeMode>clampToGround</altitudeMode>
        <extrude>1</extrude>
        <tessellate>1</tessellate>
        <outerBoundaryIs>
          <LinearRing>
            <coordinates>
              5.4755429,46.3501731
              5.4755596,46.3501385
              5.4755688,46.3501393
              5.4755508,46.3501766
              5.4755429,46.3501731
            </coordinates>
          </LinearRing>
        </outerBoundaryIs>
      </Polygon>
      <Polygon>
        <altitudeMode>clampToGround</altitudeMode>
        <extrude>1</extrude>
        <tessellate>1</tessellate>
        <outerBoundaryIs>
          <LinearRing>
            <coordinates>
              5.4755596,46.3501385
              5.4755497,46.3501012
              5.4755647,46.3501053
              5.4755688,46.3501393
              5.4755596,46.3501385
            </coordinates>
          </LinearRing>
        </outerBoundaryIs>
      </Polygon>
      <Polygon>
        <altitudeMode>clampToGround</altitudeMode>
        <extrude>1</extrude>
        <tessellate>1</tessellate>
        <outerBoundaryIs>
          <LinearRing>
            <coordinates>
              5.4755497,46.3501012
              5.4755896,46.3500790
              5.4755930,46.3500839
              5.4755647,46.3501053
              5.4755497,46.3501012
            </coordinates>
          </LinearRing>
        </outerBoundaryIs>
      </Polygon>
      <Polygon>
        <altitudeMode>clampToGround</altitudeMode>
        <extrude>1</extrude>
        <tessellate>1</tessellate>
        <outerBoundaryIs>
          <LinearRing>
            <coordinates>
              5.4755497,46.3501012
              5.4756163,46.3500938
              5.4756180,46.3500986
              5.4755647,46.3501053
              5.4755497,46.3501012
            </coordinates>
          </LinearRing>
        </outerBoundaryIs>
      </Polygon>
      <Polygon>
        <altitudeMode>clampToGround</altitudeMode>
        <extrude>1</extrude>
        <tessellate>1</tessellate>
        <outerBoundaryIs>
          <LinearRing>
            <coordinates>
              5.4755896,46.3500790
              5.4756097,46.3500792
              5.4756154,46.3500826
              5.4755930,46.3500839
              5.4755896,46.3500790
            </coordinates>
          </LinearRing>
        </outerBoundaryIs>
      </Polygon>
      <Polygon>
        <altitudeMode>clampToGround</altitudeMode>
        <extrude>1</extrude>
        <tessellate>1</tessellate>
        <outerBoundaryIs>
          <LinearRing>
            <coordinates>
              5.4756097,46.3500792
              5.4756097,46.3500528
              5.4756139,46.3500552
              5.4756154,46.3500826
              5.4756097,46.3500792
            </coordinates>
          </LinearRing>
        </outerBoundaryIs>
      </Polygon>
      <Polygon>
        <altitudeMode>clampToGround</altitudeMode>
        <extrude>1</extrude>
        <tessellate>1</tessellate>
        <outerBoundaryIs>
          <LinearRing>
            <coordinates>
              5.4756097,46.3500528
              5.4756455,46.3500478
              5.4756456,46.3500522
              5.4756139,46.3500552
              5.4756097,46.3500528
            </coordinates>
          </LinearRing>
        </outerBoundaryIs>
      </Polygon>
      <Polygon>
        <altitudeMode>clampToGround</altitudeMode>
        <extrude>1</extrude>
        <tessellate>1</tessellate>
        <outerBoundaryIs>
          <LinearRing>
            <coordinates>
              5.4756455,46.3500478
              5.4756637,46.3500492
              5.4756631,46.3500536
              5.4756456,46.3500522
              5.4756455,46.3500478
            </coordinates>
          </LinearRing>
        </outerBoundaryIs>
      </Polygon>
      <Polygon>
        <altitudeMode>clampToGround</altitudeMode>
        <extrude>1</extrude>
        <tessellate>1</tessellate>
        <outerBoundaryIs>
          <LinearRing>
            <coordinates>
              5.4756455,46.3500478
              5.4756457,46.3500256
              5.4756514,46.3500282
              5.4756456,46.3500522
              5.4756455,46.3500478
            </coordinates>
          </LinearRing>
        </outerBoundaryIs>
      </Polygon>
      <Polygon>
        <altitudeMode>clampToGround</altitudeMode>
        <extrude>1</extrude>
        <tessellate>1</tessellate>
        <outerBoundaryIs>
          <LinearRing>
            <coordinates>
              5.4756457,46.3500256
              5.4756826,46.3500104
              5.4756877,46.3500146
              5.4756514,46.3500282
              5.4756457,46.3500256
            </coordinates>
          </LinearRing>
        </outerBoundaryIs>
      </Polygon>
      <Polygon>
        <altitudeMode>clampToGround</altitudeMode>
        <extrude>1</extrude>
        <tessellate>1</tessellate>
        <outerBoundaryIs>
          <LinearRing>
            <coordinates>
              5.4756826,46.3500104
              5.4757096,46.3499885
              5.4757144,46.3499936
              5.4756877,46.3500146
              5.4756826,46.3500104
            </coordinates>
          </LinearRing>
        </outerBoundaryIs>
      </Polygon>
      <Polygon>
        <altitudeMode>clampToGround</altitudeMode>
        <extrude>1</extrude>
        <tessellate>1</tessellate>
        <outerBoundaryIs>
          <LinearRing>
            <coordinates>
              5.4757096,46.3499885
              5.4757472,46.3499825
              5.4757503,46.3499866
              5.4757144,46.3499936
              5.4757096,46.3499885
            </coordinates>
          </LinearRing>
        </outerBoundaryIs>
      </Polygon>
      <Polygon>
        <altitudeMode>clampToGround</altitudeMode>
        <extrude>1</extrude>
        <tessellate>1</tessellate>
        <outerBoundaryIs>
          <LinearRing>
            <coordinates>
              5.4757472,46.3499825
              5.4757687,46.3499699
              5.4757733,46.3499700
              5.4757503,46.3499866
              5.4757472,46.3499825
            </coordinates>
          </LinearRing>
        </outerBoundaryIs>
      </Polygon>
      <Polygon>
        <altitudeMode>clampToGround</altitudeMode>
        <extrude>1</extrude>
        <tessellate>1</tessellate>
        <outerBoundaryIs>
          <LinearRing>
            <coordinates>
              5.4757687,46.3499699
              5.4757590,46.3499722
              5.4757722,46.3499675
              5.4757733,46.3499700
              5.4757687,46.3499699
            </coordinates>
          </LinearRing>
        </outerBoundaryIs>
      </Polygon>
      <Polygon>
        <altitudeMode>clampToGround</altitudeMode>
        <extrude>1</extrude>
        <tessellate>1</tessellate>
        <outerBoundaryIs>
          <LinearRing>
            <coordinates>
              5.4757590,46.3499722
              5.4757616,46.3499470
              5.4757704,46.3499476
              5.4757722,46.3499675
              5.4757590,46.3499722
            </coordinates>
          </LinearRing>
        </outerBoundaryIs>
      </Polygon>
      <Polygon>
        <altitudeMode>clampToGround</altitudeMode>
        <extrude>1</extrude>
        <tessellate>1</tessellate>
        <outerBoundaryIs>
          <LinearRing>
            <coordinates>
              5.4757616,46.3499470
              5.4757707,46.3499314
              5.4757750,46.3499338
              5.4757704,46.3499476
              5.4757616,46.3499470
            </coordinates>
          </LinearRing>
        </outerBoundaryIs>
      </Polygon>
      <Polygon>
        <altitudeMode>clampToGround</altitudeMode>
        <extrude>1</extrude>
        <tessellate>1</tessellate>
        <outerBoundaryIs>
          <LinearRing>
            <coordinates>
              5.4757707,46.3499314
              5.4757986,46.3499179
              5.4758067,46.3499187
              5.4757750,46.3499338
              5.4757707,46.3499314
            </coordinates>
          </LinearRing>
        </outerBoundaryIs>
      </Polygon>
      <Polygon>
        <altitudeMode>clampToGround</altitudeMode>
        <extrude>1</extrude>
        <tessellate>1</tessellate>
        <outerBoundaryIs>
          <LinearRing>
            <coordinates>
              5.4757986,46.3499179
              5.4757893,46.3499084
              5.4758085,46.3498962
              5.4758067,46.3499187
              5.4757986,46.3499179
            </coordinates>
          </LinearRing>
        </outerBoundaryIs>
      </Polygon>
      <Polygon>
        <altitudeMode>clampToGround</altitudeMode>
        <extrude>1</extrude>
        <tessellate>1</tessellate>
        <outerBoundaryIs>
          <LinearRing>
            <coordinates>
              5.4757893,46.3499084
              5.4757677,46.3498927
              5.4757771,46.3498891
              5.4758085,46.3498962
              5.4757893,46.3499084
            </coordinates>
          </LinearRing>
        </outerBoundaryIs>
      </Polygon>
      <Polygon>
        <altitudeMode>clampToGround</altitudeMode>
        <extrude>1</extrude>
        <tessellate>1</tessellate>
        <outerBoundaryIs>
          <LinearRing>
            <coordinates>
              5.4757677,46.3498927
              5.4757422,46.3498337
              5.4757485,46.3498336
              5.4757771,46.3498891
              5.4757677,46.3498927
            </coordinates>
          </LinearRing>
        </outerBoundaryIs>
      </Polygon>
      <Polygon>
        <altitudeMode>clampToGround</altitudeMode>
        <extrude>1</extrude>
        <tessellate>1</tessellate>
        <outerBoundaryIs>
          <LinearRing>
            <coordinates>
              5.4757422,46.3498337
              5.4757522,46.3498133
              5.4757522,46.3498133
              5.4757485,46.3498336
              5.4757422,46.3498337
            </coordinates>
          </LinearRing>
        </outerBoundaryIs>
      </Polygon>
      <Polygon>
        <altitudeMode>clampToGround</altitudeMode>
        <extrude>1</extrude>
        <tessellate>1</tessellate>
        <outerBoundaryIs>
          <LinearRing>
            <coordinates>
              5.4757422,46.3498337
              5.4757327,46.3498205
              5.4757405,46.3498196
              5.4757485,46.3498336
              5.4757422,46.3498337
            </coordinates>
          </LinearRing>
        </outerBoundaryIs>
      </Polygon>
      <Polygon>
        <altitudeMode>clampToGround</altitudeMode>
        <extrude>1</extrude>
        <tessellate>1</tessellate>
        <outerBoundaryIs>
          <LinearRing>
            <coordinates>
              5.4757327,46.3498205
              5.4757390,46.3497826
              5.4757481,46.3497805
              5.4757405,46.3498196
              5.4757327,46.3498205
            </coordinates>
          </LinearRing>
        </outerBoundaryIs>
      </Polygon>
      <Polygon>
        <altitudeMode>clampToGround</altitudeMode>
        <extrude>1</extrude>
        <tessellate>1</tessellate>
        <outerBoundaryIs>
          <LinearRing>
            <coordinates>
              5.4757390,46.3497826
              5.4756979,46.3497548
              5.4757100,46.3497467
              5.4757481,46.3497805
              5.4757390,46.3497826
            </coordinates>
          </LinearRing>
        </outerBoundaryIs>
      </Polygon>
      <Polygon>
        <altitudeMode>clampToGround</altitudeMode>
        <extrude>1</extrude>
        <tessellate>1</tessellate>
        <outerBoundaryIs>
          <LinearRing>
            <coordinates>
              5.4758085,46.3498962
              5.4758167,46.3498973
              5.4758120,46.3499050
              5.4757893,46.3499084
              5.4758085,46.3498962
            </coordinates>
          </LinearRing>
        </outerBoundaryIs>
      </Polygon>
      <Polygon>
        <altitudeMode>clampToGround</altitudeMode>
        <extrude>1</extrude>
        <tessellate>1</tessellate>
        <outerBoundaryIs>
          <LinearRing>
            <coordinates>
              5.4758167,46.3498973
              5.4758228,46.3499084
              5.4758191,46.3499224
              5.4758120,46.3499050
              5.4758167,46.3498973
            </coordinates>
          </LinearRing>
        </outerBoundaryIs>
      </Polygon>
      <Polygon>
        <altitudeMode>clampToGround</altitudeMode>
        <extrude>1</extrude>
        <tessellate>1</tessellate>
        <outerBoundaryIs>
          <LinearRing>
            <coordinates>
              5.4758228,46.3499084
              5.4758368,46.3498928
              5.4758393,46.3499020
              5.4758191,46.3499224
              5.4758228,46.3499084
            </coordinates>
          </LinearRing>
        </outerBoundaryIs>
      </Polygon>
      <Polygon>
        <altitudeMode>clampToGround</altitudeMode>
        <extrude>1</extrude>
        <tessellate>1</tessellate>
        <outerBoundaryIs>
          <LinearRing>
            <coordinates>
              5.4758368,46.3498928
              5.4758466,46.3498988
              5.4758531,46.3499073
              5.4758393,46.3499020
              5.4758368,46.3498928
            </coordinates>
          </LinearRing>
        </outerBoundaryIs>
      </Polygon>
      <Polygon>
        <altitudeMode>clampToGround</altitudeMode>
        <extrude>1</extrude>
        <tessellate>1</tessellate>
        <outerBoundaryIs>
          <LinearRing>
            <coordinates>
              5.4758466,46.3498988
              5.4758472,46.3498656
              5.4758599,46.3498649
              5.4758531,46.3499073
              5.4758466,46.3498988
            </coordinates>
          </LinearRing>
        </outerBoundaryIs>
      </Polygon>
      <Polygon>
        <altitudeMode>clampToGround</altitudeMode>
        <extrude>1</extrude>
        <tessellate>1</tessellate>
        <outerBoundaryIs>
          <LinearRing>
            <coordinates>
              5.4758472,46.3498656
              5.4758417,46.3498406
              5.4758559,46.3498380
              5.4758599,46.3498649
              5.4758472,46.3498656
            </coordinates>
          </LinearRing>
        </outerBoundaryIs>
      </Polygon>
      <Polygon>
        <altitudeMode>clampToGround</altitudeMode>
        <extrude>1</extrude>
        <tessellate>1</tessellate>
        <outerBoundaryIs>
          <LinearRing>
            <coordinates>
              5.4758417,46.3498406
              5.4758303,46.3498179
              5.4758444,46.3498248
              5.4758559,46.3498380
              5.4758417,46.3498406
            </coordinates>
          </LinearRing>
        </outerBoundaryIs>
      </Polygon>
    </MultiGeometry>
  </Placemark>
  <Placemark>
    <name>Grotte En sait tout (39)</name>
    <styleUrl>#VTStyle03</styleUrl>
    <MultiGeometry>
      <Polygon>
        <altitudeMode>clampToGround</altitudeMode>
        <extrude>1</extrude>
        <tessellate>1</tessellate>
        <outerBoundaryIs>
          <LinearRing>
            <coordinates>
              5.4758303,46.3498179
              5.4758599,46.3498063
              5.4758618,46.3498333
              5.4758444,46.3498248
              5.4758303,46.3498179
            </coordinates>
          </LinearRing>
        </outerBoundaryIs>
      </Polygon>
    </MultiGeometry>
  </Placemark>
  <Placemark>
    <name>Grotte En sait tout (39)</name>
    <styleUrl>#VTStyle02</styleUrl>
    <MultiGeometry>
      <Polygon>
        <altitudeMode>clampToGround</altitudeMode>
        <extrude>1</extrude>
        <tessellate>1</tessellate>
        <outerBoundaryIs>
          <LinearRing>
            <coordinates>
              5.4758303,46.3498179
              5.4758686,46.3498093
              5.4758507,46.3498190
              5.4758444,46.3498248
              5.4758303,46.3498179
            </coordinates>
          </LinearRing>
        </outerBoundaryIs>
      </Polygon>
    </MultiGeometry>
  </Placemark>
  <Placemark>
    <name>Grotte En sait tout (39)</name>
    <styleUrl>#VTStyle01</styleUrl>
    <MultiGeometry>
      <Polygon>
        <altitudeMode>clampToGround</altitudeMode>
        <extrude>1</extrude>
        <tessellate>1</tessellate>
        <outerBoundaryIs>
          <LinearRing>
            <coordinates>
              5.4758686,46.3498093
              5.4758525,46.3498379
              5.4758250,46.3498242
              5.4758507,46.3498190
              5.4758686,46.3498093
            </coordinates>
          </LinearRing>
        </outerBoundaryIs>
      </Polygon>
      <Polygon>
        <altitudeMode>clampToGround</altitudeMode>
        <extrude>1</extrude>
        <tessellate>1</tessellate>
        <outerBoundaryIs>
          <LinearRing>
            <coordinates>
              5.4758228,46.3499084
              5.4758155,46.3499146
              5.4758087,46.3499117
              5.4758191,46.3499224
              5.4758228,46.3499084
            </coordinates>
          </LinearRing>
        </outerBoundaryIs>
      </Polygon>
      <Polygon>
        <altitudeMode>clampToGround</altitudeMode>
        <extrude>1</extrude>
        <tessellate>1</tessellate>
        <outerBoundaryIs>
          <LinearRing>
            <coordinates>
              5.4758155,46.3499146
              5.4758287,46.3499239
              5.4758077,46.3499294
              5.4758087,46.3499117
              5.4758155,46.3499146
            </coordinates>
          </LinearRing>
        </outerBoundaryIs>
      </Polygon>
      <Polygon>
        <altitudeMode>clampToGround</altitudeMode>
        <extrude>1</extrude>
        <tessellate>1</tessellate>
        <outerBoundaryIs>
          <LinearRing>
            <coordinates>
              5.4758287,46.3499239
              5.4758500,46.3499508
              5.4758358,46.3499578
              5.4758077,46.3499294
              5.4758287,46.3499239
            </coordinates>
          </LinearRing>
        </outerBoundaryIs>
      </Polygon>
    </MultiGeometry>
  </Placemark>
  <Placemark>
    <name>Grotte En sait tout (39)</name>
    <styleUrl>#VTStyle02</styleUrl>
    <MultiGeometry>
      <Polygon>
        <altitudeMode>clampToGround</altitudeMode>
        <extrude>1</extrude>
        <tessellate>1</tessellate>
        <outerBoundaryIs>
          <LinearRing>
            <coordinates>
              5.4758500,46.3499508
              5.4758670,46.3499768
              5.4758650,46.3499745
              5.4758358,46.3499578
              5.4758500,46.3499508
            </coordinates>
          </LinearRing>
        </outerBoundaryIs>
      </Polygon>
      <Polygon>
        <altitudeMode>clampToGround</altitudeMode>
        <extrude>1</extrude>
        <tessellate>1</tessellate>
        <outerBoundaryIs>
          <LinearRing>
            <coordinates>
              5.4758670,46.3499768
              5.4758512,46.3499604
              5.4758670,46.3499614
              5.4758650,46.3499745
              5.4758670,46.3499768
            </coordinates>
          </LinearRing>
        </outerBoundaryIs>
      </Polygon>
      <Polygon>
        <altitudeMode>clampToGround</altitudeMode>
        <extrude>1</extrude>
        <tessellate>1</tessellate>
        <outerBoundaryIs>
          <LinearRing>
            <coordinates>
              5.4758512,46.3499604
              5.4758903,46.3499266
              5.4758838,46.3499381
              5.4758670,46.3499614
              5.4758512,46.3499604
            </coordinates>
          </LinearRing>
        </outerBoundaryIs>
      </Polygon>
    </MultiGeometry>
  </Placemark>
  <Placemark>
    <name>Grotte En sait tout (39)</name>
    <styleUrl>#VTStyle03</styleUrl>
    <MultiGeometry>
      <Polygon>
        <altitudeMode>clampToGround</altitudeMode>
        <extrude>1</extrude>
        <tessellate>1</tessellate>
        <outerBoundaryIs>
          <LinearRing>
            <coordinates>
              5.4758903,46.3499266
              5.4759015,46.3499690
              5.4758786,46.3499778
              5.4758838,46.3499381
              5.4758903,46.3499266
            </coordinates>
          </LinearRing>
        </outerBoundaryIs>
      </Polygon>
      <Polygon>
        <altitudeMode>clampToGround</altitudeMode>
        <extrude>1</extrude>
        <tessellate>1</tessellate>
        <outerBoundaryIs>
          <LinearRing>
            <coordinates>
              5.4759015,46.3499690
              5.4759121,46.3499792
              5.4759038,46.3499884
              5.4758786,46.3499778
              5.4759015,46.3499690
            </coordinates>
          </LinearRing>
        </outerBoundaryIs>
      </Polygon>
      <Polygon>
        <altitudeMode>clampToGround</altitudeMode>
        <extrude>1</extrude>
        <tessellate>1</tessellate>
        <outerBoundaryIs>
          <LinearRing>
            <coordinates>
              5.4758903,46.3499266
              5.4758754,46.3499319
              5.4758897,46.3499352
              5.4758838,46.3499381
              5.4758903,46.3499266
            </coordinates>
          </LinearRing>
        </outerBoundaryIs>
      </Polygon>
      <Polygon>
        <altitudeMode>clampToGround</altitudeMode>
        <extrude>1</extrude>
        <tessellate>1</tessellate>
        <outerBoundaryIs>
          <LinearRing>
            <coordinates>
              5.4758754,46.3499319
              5.4758652,46.3499168
              5.4758795,46.3499149
              5.4758897,46.3499352
              5.4758754,46.3499319
            </coordinates>
          </LinearRing>
        </outerBoundaryIs>
      </Polygon>
      <Polygon>
        <altitudeMode>clampToGround</altitudeMode>
        <extrude>1</extrude>
        <tessellate>1</tessellate>
        <outerBoundaryIs>
          <LinearRing>
            <coordinates>
              5.4758652,46.3499168
              5.4758715,46.3498898
              5.4758822,46.3498899
              5.4758795,46.3499149
              5.4758652,46.3499168
            </coordinates>
          </LinearRing>
        </outerBoundaryIs>
      </Polygon>
      <Polygon>
        <altitudeMode>clampToGround</altitudeMode>
        <extrude>1</extrude>
        <tessellate>1</tessellate>
        <outerBoundaryIs>
          <LinearRing>
            <coordinates>
              5.4758715,46.3498898
              5.4758598,46.3498352
              5.4758979,46.3498348
              5.4758822,46.3498899
              5.4758715,46.3498898
            </coordinates>
          </LinearRing>
        </outerBoundaryIs>
      </Polygon>
      <Polygon>
        <altitudeMode>clampToGround</altitudeMode>
        <extrude>1</extrude>
        <tessellate>1</tessellate>
        <outerBoundaryIs>
          <LinearRing>
            <coordinates>
              5.4758598,46.3498352
              5.4758702,46.3498046
              5.4758780,46.3498011
              5.4758979,46.3498348
              5.4758598,46.3498352
            </coordinates>
          </LinearRing>
        </outerBoundaryIs>
      </Polygon>
      <Polygon>
        <altitudeMode>clampToGround</altitudeMode>
        <extrude>1</extrude>
        <tessellate>1</tessellate>
        <outerBoundaryIs>
          <LinearRing>
            <coordinates>
              5.4758702,46.3498046
              5.4758151,46.3497822
              5.4758293,46.3497779
              5.4758780,46.3498011
              5.4758702,46.3498046
            </coordinates>
          </LinearRing>
        </outerBoundaryIs>
      </Polygon>
      <Polygon>
        <altitudeMode>clampToGround</altitudeMode>
        <extrude>1</extrude>
        <tessellate>1</tessellate>
        <outerBoundaryIs>
          <LinearRing>
            <coordinates>
              5.4758151,46.3497822
              5.4758261,46.3497299
              5.4758394,46.3497330
              5.4758293,46.3497779
              5.4758151,46.3497822
            </coordinates>
          </LinearRing>
        </outerBoundaryIs>
      </Polygon>
    </MultiGeometry>
  </Placemark>
  <Placemark>
    <name>Grotte En sait tout (39)</name>
    <styleUrl>#VTStyle04</styleUrl>
    <MultiGeometry>
      <Polygon>
        <altitudeMode>clampToGround</altitudeMode>
        <extrude>1</extrude>
        <tessellate>1</tessellate>
        <outerBoundaryIs>
          <LinearRing>
            <coordinates>
              5.4758261,46.3497299
              5.4758713,46.3496730
              5.4758772,46.3496748
              5.4758394,46.3497330
              5.4758261,46.3497299
            </coordinates>
          </LinearRing>
        </outerBoundaryIs>
      </Polygon>
    </MultiGeometry>
  </Placemark>
  <Placemark>
    <name>Grotte En sait tout (39)</name>
    <styleUrl>#VTStyle03</styleUrl>
    <MultiGeometry>
      <Polygon>
        <altitudeMode>clampToGround</altitudeMode>
        <extrude>1</extrude>
        <tessellate>1</tessellate>
        <outerBoundaryIs>
          <LinearRing>
            <coordinates>
              5.4758261,46.3497299
              5.4758523,46.3496647
              5.4758686,46.3496664
              5.4758394,46.3497330
              5.4758261,46.3497299
            </coordinates>
          </LinearRing>
        </outerBoundaryIs>
      </Polygon>
      <Polygon>
        <altitudeMode>clampToGround</altitudeMode>
        <extrude>1</extrude>
        <tessellate>1</tessellate>
        <outerBoundaryIs>
          <LinearRing>
            <coordinates>
              5.4758523,46.3496647
              5.4758616,46.3496126
              5.4758690,46.3496131
              5.4758686,46.3496664
              5.4758523,46.3496647
            </coordinates>
          </LinearRing>
        </outerBoundaryIs>
      </Polygon>
      <Polygon>
        <altitudeMode>clampToGround</altitudeMode>
        <extrude>1</extrude>
        <tessellate>1</tessellate>
        <outerBoundaryIs>
          <LinearRing>
            <coordinates>
              5.4758523,46.3496647
              5.4758600,46.3496502
              5.4758803,46.3496544
              5.4758686,46.3496664
              5.4758523,46.3496647
            </coordinates>
          </LinearRing>
        </outerBoundaryIs>
      </Polygon>
      <Polygon>
        <altitudeMode>clampToGround</altitudeMode>
        <extrude>1</extrude>
        <tessellate>1</tessellate>
        <outerBoundaryIs>
          <LinearRing>
            <coordinates>
              5.4758600,46.3496502
              5.4758661,46.3496310
              5.4758724,46.3496298
              5.4758803,46.3496544
              5.4758600,46.3496502
            </coordinates>
          </LinearRing>
        </outerBoundaryIs>
      </Polygon>
      <Polygon>
        <altitudeMode>clampToGround</altitudeMode>
        <extrude>1</extrude>
        <tessellate>1</tessellate>
        <outerBoundaryIs>
          <LinearRing>
            <coordinates>
              5.4758661,46.3496310
              5.4758393,46.3495873
              5.4758485,46.3495850
              5.4758724,46.3496298
              5.4758661,46.3496310
            </coordinates>
          </LinearRing>
        </outerBoundaryIs>
      </Polygon>
      <Polygon>
        <altitudeMode>clampToGround</altitudeMode>
        <extrude>1</extrude>
        <tessellate>1</tessellate>
        <outerBoundaryIs>
          <LinearRing>
            <coordinates>
              5.4758293,46.3497779
              5.4758288,46.3498176
              5.4758178,46.3498122
              5.4758151,46.3497822
              5.4758293,46.3497779
            </coordinates>
          </LinearRing>
        </outerBoundaryIs>
      </Polygon>
      <Polygon>
        <altitudeMode>clampToGround</altitudeMode>
        <extrude>1</extrude>
        <tessellate>1</tessellate>
        <outerBoundaryIs>
          <LinearRing>
            <coordinates>
              5.4758288,46.3498176
              5.4758200,46.3498215
              5.4758160,46.3498145
              5.4758178,46.3498122
              5.4758288,46.3498176
            </coordinates>
          </LinearRing>
        </outerBoundaryIs>
      </Polygon>
      <Polygon>
        <altitudeMode>clampToGround</altitudeMode>
        <extrude>1</extrude>
        <tessellate>1</tessellate>
        <outerBoundaryIs>
          <LinearRing>
            <coordinates>
              5.4758200,46.3498215
              5.4757907,46.3498283
              5.4757872,46.3498232
              5.4758160,46.3498145
              5.4758200,46.3498215
            </coordinates>
          </LinearRing>
        </outerBoundaryIs>
      </Polygon>
      <Polygon>
        <altitudeMode>clampToGround</altitudeMode>
        <extrude>1</extrude>
        <tessellate>1</tessellate>
        <outerBoundaryIs>
          <LinearRing>
            <coordinates>
              5.4757907,46.3498283
              5.4757620,46.3498356
              5.4757551,46.3498329
              5.4757872,46.3498232
              5.4757907,46.3498283
            </coordinates>
          </LinearRing>
        </outerBoundaryIs>
      </Polygon>
      <Polygon>
        <altitudeMode>clampToGround</altitudeMode>
        <extrude>1</extrude>
        <tessellate>1</tessellate>
        <outerBoundaryIs>
          <LinearRing>
            <coordinates>
              5.4757620,46.3498356
              5.4757687,46.3498482
              5.4757582,46.3498517
              5.4757551,46.3498329
              5.4757620,46.3498356
            </coordinates>
          </LinearRing>
        </outerBoundaryIs>
      </Polygon>
      <Polygon>
        <altitudeMode>clampToGround</altitudeMode>
        <extrude>1</extrude>
        <tessellate>1</tessellate>
        <outerBoundaryIs>
          <LinearRing>
            <coordinates>
              5.4757687,46.3498482
              5.4757870,46.3498661
              5.4757787,46.3498663
              5.4757582,46.3498517
              5.4757687,46.3498482
            </coordinates>
          </LinearRing>
        </outerBoundaryIs>
      </Polygon>
      <Polygon>
        <altitudeMode>clampToGround</altitudeMode>
        <extrude>1</extrude>
        <tessellate>1</tessellate>
        <outerBoundaryIs>
          <LinearRing>
            <coordinates>
              5.4757870,46.3498661
              5.4757655,46.3498842
              5.4757545,46.3498823
              5.4757787,46.3498663
              5.4757870,46.3498661
            </coordinates>
          </LinearRing>
        </outerBoundaryIs>
      </Polygon>
      <Polygon>
        <altitudeMode>clampToGround</altitudeMode>
        <extrude>1</extrude>
        <tessellate>1</tessellate>
        <outerBoundaryIs>
          <LinearRing>
            <coordinates>
              5.4757655,46.3498842
              5.4757700,46.3498882
              5.4757635,46.3498912
              5.4757545,46.3498823
              5.4757655,46.3498842
            </coordinates>
          </LinearRing>
        </outerBoundaryIs>
      </Polygon>
      <Polygon>
        <altitudeMode>clampToGround</altitudeMode>
        <extrude>1</extrude>
        <tessellate>1</tessellate>
        <outerBoundaryIs>
          <LinearRing>
            <coordinates>
              5.4757700,46.3498882
              5.4757901,46.3498995
              5.4757869,46.3499055
              5.4757635,46.3498912
              5.4757700,46.3498882
            </coordinates>
          </LinearRing>
        </outerBoundaryIs>
      </Polygon>
      <Polygon>
        <altitudeMode>clampToGround</altitudeMode>
        <extrude>1</extrude>
        <tessellate>1</tessellate>
        <outerBoundaryIs>
          <LinearRing>
            <coordinates>
              5.4757901,46.3498995
              5.4758253,46.3499042
              5.4758222,46.3499057
              5.4757869,46.3499055
              5.4757901,46.3498995
            </coordinates>
          </LinearRing>
        </outerBoundaryIs>
      </Polygon>
      <Polygon>
        <altitudeMode>clampToGround</altitudeMode>
        <extrude>1</extrude>
        <tessellate>1</tessellate>
        <outerBoundaryIs>
          <LinearRing>
            <coordinates>
              5.4758253,46.3499042
              5.4758161,46.3499454
              5.4758085,46.3499466
              5.4758222,46.3499057
              5.4758253,46.3499042
            </coordinates>
          </LinearRing>
        </outerBoundaryIs>
      </Polygon>
      <Polygon>
        <altitudeMode>clampToGround</altitudeMode>
        <extrude>1</extrude>
        <tessellate>1</tessellate>
        <outerBoundaryIs>
          <LinearRing>
            <coordinates>
              5.4758161,46.3499454
              5.4758295,46.3499617
              5.4758227,46.3499593
              5.4758085,46.3499466
              5.4758161,46.3499454
            </coordinates>
          </LinearRing>
        </outerBoundaryIs>
      </Polygon>
      <Polygon>
        <altitudeMode>clampToGround</altitudeMode>
        <extrude>1</extrude>
        <tessellate>1</tessellate>
        <outerBoundaryIs>
          <LinearRing>
            <coordinates>
              5.4758295,46.3499617
              5.4758003,46.3499626
              5.4757952,46.3499603
              5.4758227,46.3499593
              5.4758295,46.3499617
            </coordinates>
          </LinearRing>
        </outerBoundaryIs>
      </Polygon>
      <Polygon>
        <altitudeMode>clampToGround</altitudeMode>
        <extrude>1</extrude>
        <tessellate>1</tessellate>
        <outerBoundaryIs>
          <LinearRing>
            <coordinates>
              5.4758003,46.3499626
              5.4758213,46.3499871
              5.4758133,46.3499912
              5.4757952,46.3499603
              5.4758003,46.3499626
            </coordinates>
          </LinearRing>
        </outerBoundaryIs>
      </Polygon>
      <Polygon>
        <altitudeMode>clampToGround</altitudeMode>
        <extrude>1</extrude>
        <tessellate>1</tessellate>
        <outerBoundaryIs>
          <LinearRing>
            <coordinates>
              5.4758213,46.3499871
              5.4758378,46.3500025
              5.4758312,46.3500021
              5.4758133,46.3499912
              5.4758213,46.3499871
            </coordinates>
          </LinearRing>
        </outerBoundaryIs>
      </Polygon>
      <Polygon>
        <altitudeMode>clampToGround</altitudeMode>
        <extrude>1</extrude>
        <tessellate>1</tessellate>
        <outerBoundaryIs>
          <LinearRing>
            <coordinates>
              5.4758378,46.3500025
              5.4757928,46.3500247
              5.4757790,46.3500277
              5.4758312,46.3500021
              5.4758378,46.3500025
            </coordinates>
          </LinearRing>
        </outerBoundaryIs>
      </Polygon>
      <Polygon>
        <altitudeMode>clampToGround</altitudeMode>
        <extrude>1</extrude>
        <tessellate>1</tessellate>
        <outerBoundaryIs>
          <LinearRing>
            <coordinates>
              5.4757928,46.3500247
              5.4758025,46.3500250
              5.4758030,46.3500303
              5.4757790,46.3500277
              5.4757928,46.3500247
            </coordinates>
          </LinearRing>
        </outerBoundaryIs>
      </Polygon>
      <Polygon>
        <altitudeMode>clampToGround</altitudeMode>
        <extrude>1</extrude>
        <tessellate>1</tessellate>
        <outerBoundaryIs>
          <LinearRing>
            <coordinates>
              5.4758025,46.3500250
              5.4758516,46.3500183
              5.4758614,46.3500245
              5.4758030,46.3500303
              5.4758025,46.3500250
            </coordinates>
          </LinearRing>
        </outerBoundaryIs>
      </Polygon>
      <Polygon>
        <altitudeMode>clampToGround</altitudeMode>
        <extrude>1</extrude>
        <tessellate>1</tessellate>
        <outerBoundaryIs>
          <LinearRing>
            <coordinates>
              5.4758516,46.3500183
              5.4758462,46.3499970
              5.4758617,46.3499979
              5.4758614,46.3500245
              5.4758516,46.3500183
            </coordinates>
          </LinearRing>
        </outerBoundaryIs>
      </Polygon>
      <Polygon>
        <altitudeMode>clampToGround</altitudeMode>
        <extrude>1</extrude>
        <tessellate>1</tessellate>
        <outerBoundaryIs>
          <LinearRing>
            <coordinates>
              5.4758462,46.3499970
              5.4758616,46.3499806
              5.4758680,46.3499843
              5.4758617,46.3499979
              5.4758462,46.3499970
            </coordinates>
          </LinearRing>
        </outerBoundaryIs>
      </Polygon>
      <Polygon>
        <altitudeMode>clampToGround</altitudeMode>
        <extrude>1</extrude>
        <tessellate>1</tessellate>
        <outerBoundaryIs>
          <LinearRing>
            <coordinates>
              5.4758616,46.3499806
              5.4758945,46.3499686
              5.4758984,46.3499759
              5.4758680,46.3499843
              5.4758616,46.3499806
            </coordinates>
          </LinearRing>
        </outerBoundaryIs>
      </Polygon>
      <Polygon>
        <altitudeMode>clampToGround</altitudeMode>
        <extrude>1</extrude>
        <tessellate>1</tessellate>
        <outerBoundaryIs>
          <LinearRing>
            <coordinates>
              5.4758030,46.3500303
              5.4757480,46.3500583
              5.4757429,46.3500523
              5.4758025,46.3500250
              5.4758030,46.3500303
            </coordinates>
          </LinearRing>
        </outerBoundaryIs>
      </Polygon>
      <Polygon>
        <altitudeMode>clampToGround</altitudeMode>
        <extrude>1</extrude>
        <tessellate>1</tessellate>
        <outerBoundaryIs>
          <LinearRing>
            <coordinates>
              5.4757480,46.3500583
              5.4756841,46.3500783
              5.4756795,46.3500702
              5.4757429,46.3500523
              5.4757480,46.3500583
            </coordinates>
          </LinearRing>
        </outerBoundaryIs>
      </Polygon>
      <Polygon>
        <altitudeMode>clampToGround</altitudeMode>
        <extrude>1</extrude>
        <tessellate>1</tessellate>
        <outerBoundaryIs>
          <LinearRing>
            <coordinates>
              5.4756841,46.3500783
              5.4756518,46.3500887
              5.4756541,46.3500771
              5.4756795,46.3500702
              5.4756841,46.3500783
            </coordinates>
          </LinearRing>
        </outerBoundaryIs>
      </Polygon>
      <Polygon>
        <altitudeMode>clampToGround</altitudeMode>
        <extrude>1</extrude>
        <tessellate>1</tessellate>
        <outerBoundaryIs>
          <LinearRing>
            <coordinates>
              5.4756518,46.3500887
              5.4756386,46.3500791
              5.4756390,46.3500753
              5.4756541,46.3500771
              5.4756518,46.3500887
            </coordinates>
          </LinearRing>
        </outerBoundaryIs>
      </Polygon>
      <Polygon>
        <altitudeMode>clampToGround</altitudeMode>
        <extrude>1</extrude>
        <tessellate>1</tessellate>
        <outerBoundaryIs>
          <LinearRing>
            <coordinates>
              5.4756386,46.3500791
              5.4756206,46.3500878
              5.4756140,46.3500837
              5.4756390,46.3500753
              5.4756386,46.3500791
            </coordinates>
          </LinearRing>
        </outerBoundaryIs>
      </Polygon>
      <Polygon>
        <altitudeMode>clampToGround</altitudeMode>
        <extrude>1</extrude>
        <tessellate>1</tessellate>
        <outerBoundaryIs>
          <LinearRing>
            <coordinates>
              5.4756206,46.3500878
              5.4756149,46.3501108
              5.4755906,46.3501045
              5.4756140,46.3500837
              5.4756206,46.3500878
            </coordinates>
          </LinearRing>
        </outerBoundaryIs>
      </Polygon>
      <Polygon>
        <altitudeMode>clampToGround</altitudeMode>
        <extrude>1</extrude>
        <tessellate>1</tessellate>
        <outerBoundaryIs>
          <LinearRing>
            <coordinates>
              5.4756140,46.3500837
              5.4756859,46.3501203
              5.4756662,46.3501159
              5.4756206,46.3500878
              5.4756140,46.3500837
            </coordinates>
          </LinearRing>
        </outerBoundaryIs>
      </Polygon>
      <Polygon>
        <altitudeMode>clampToGround</altitudeMode>
        <extrude>1</extrude>
        <tessellate>1</tessellate>
        <outerBoundaryIs>
          <LinearRing>
            <coordinates>
              5.4756859,46.3501203
              5.4756311,46.3501253
              5.4756297,46.3501086
              5.4756662,46.3501159
              5.4756859,46.3501203
            </coordinates>
          </LinearRing>
        </outerBoundaryIs>
      </Polygon>
      <Polygon>
        <altitudeMode>clampToGround</altitudeMode>
        <extrude>1</extrude>
        <tessellate>1</tessellate>
        <outerBoundaryIs>
          <LinearRing>
            <coordinates>
              5.4756206,46.3500878
              5.4756126,46.3500982
              5.4756088,46.3500932
              5.4756140,46.3500837
              5.4756206,46.3500878
            </coordinates>
          </LinearRing>
        </outerBoundaryIs>
      </Polygon>
      <Polygon>
        <altitudeMode>clampToGround</altitudeMode>
        <extrude>1</extrude>
        <tessellate>1</tessellate>
        <outerBoundaryIs>
          <LinearRing>
            <coordinates>
              5.4756126,46.3500982
              5.4755730,46.3500867
              5.4755711,46.3500831
              5.4756088,46.3500932
              5.4756126,46.3500982
            </coordinates>
          </LinearRing>
        </outerBoundaryIs>
      </Polygon>
      <Polygon>
        <altitudeMode>clampToGround</altitudeMode>
        <extrude>1</extrude>
        <tessellate>1</tessellate>
        <outerBoundaryIs>
          <LinearRing>
            <coordinates>
              5.4755730,46.3500867
              5.4755617,46.3501037
              5.4755552,46.3500988
              5.4755711,46.3500831
              5.4755730,46.3500867
            </coordinates>
          </LinearRing>
        </outerBoundaryIs>
      </Polygon>
      <Polygon>
        <altitudeMode>clampToGround</altitudeMode>
        <extrude>1</extrude>
        <tessellate>1</tessellate>
        <outerBoundaryIs>
          <LinearRing>
            <coordinates>
              5.4755617,46.3501037
              5.4755258,46.3501123
              5.4755257,46.3501066
              5.4755552,46.3500988
              5.4755617,46.3501037
            </coordinates>
          </LinearRing>
        </outerBoundaryIs>
      </Polygon>
      <Polygon>
        <altitudeMode>clampToGround</altitudeMode>
        <extrude>1</extrude>
        <tessellate>1</tessellate>
        <outerBoundaryIs>
          <LinearRing>
            <coordinates>
              5.4755258,46.3501123
              5.4755040,46.3501070
              5.4755120,46.3501043
              5.4755257,46.3501066
              5.4755258,46.3501123
            </coordinates>
          </LinearRing>
        </outerBoundaryIs>
      </Polygon>
      <Polygon>
        <altitudeMode>clampToGround</altitudeMode>
        <extrude>1</extrude>
        <tessellate>1</tessellate>
        <outerBoundaryIs>
          <LinearRing>
            <coordinates>
              5.4755040,46.3501070
              5.4755168,46.3500829
              5.4755217,46.3500877
              5.4755120,46.3501043
              5.4755040,46.3501070
            </coordinates>
          </LinearRing>
        </outerBoundaryIs>
      </Polygon>
      <Polygon>
        <altitudeMode>clampToGround</altitudeMode>
        <extrude>1</extrude>
        <tessellate>1</tessellate>
        <outerBoundaryIs>
          <LinearRing>
            <coordinates>
              5.4755168,46.3500829
              5.4755580,46.3500814
              5.4755646,46.3500850
              5.4755217,46.3500877
              5.4755168,46.3500829
            </coordinates>
          </LinearRing>
        </outerBoundaryIs>
      </Polygon>
      <Polygon>
        <altitudeMode>clampToGround</altitudeMode>
        <extrude>1</extrude>
        <tessellate>1</tessellate>
        <outerBoundaryIs>
          <LinearRing>
            <coordinates>
              5.4755580,46.3500814
              5.4755575,46.3500719
              5.4755592,46.3500702
              5.4755646,46.3500850
              5.4755580,46.3500814
            </coordinates>
          </LinearRing>
        </outerBoundaryIs>
      </Polygon>
      <Polygon>
        <altitudeMode>clampToGround</altitudeMode>
        <extrude>1</extrude>
        <tessellate>1</tessellate>
        <outerBoundaryIs>
          <LinearRing>
            <coordinates>
              5.4755575,46.3500719
              5.4755315,46.3500773
              5.4755343,46.3500703
              5.4755592,46.3500702
              5.4755575,46.3500719
            </coordinates>
          </LinearRing>
        </outerBoundaryIs>
      </Polygon>
      <Polygon>
        <altitudeMode>clampToGround</altitudeMode>
        <extrude>1</extrude>
        <tessellate>1</tessellate>
        <outerBoundaryIs>
          <LinearRing>
            <coordinates>
              5.4755315,46.3500773
              5.4754908,46.3500499
              5.4754959,46.3500473
              5.4755343,46.3500703
              5.4755315,46.3500773
            </coordinates>
          </LinearRing>
        </outerBoundaryIs>
      </Polygon>
      <Polygon>
        <altitudeMode>clampToGround</altitudeMode>
        <extrude>1</extrude>
        <tessellate>1</tessellate>
        <outerBoundaryIs>
          <LinearRing>
            <coordinates>
              5.4754908,46.3500499
              5.4754770,46.3500399
              5.4754801,46.3500312
              5.4754959,46.3500473
              5.4754908,46.3500499
            </coordinates>
          </LinearRing>
        </outerBoundaryIs>
      </Polygon>
      <Polygon>
        <altitudeMode>clampToGround</altitudeMode>
        <extrude>1</extrude>
        <tessellate>1</tessellate>
        <outerBoundaryIs>
          <LinearRing>
            <coordinates>
              5.4754770,46.3500399
              5.4754493,46.3500471
              5.4754491,46.3500410
              5.4754801,46.3500312
              5.4754770,46.3500399
            </coordinates>
          </LinearRing>
        </outerBoundaryIs>
      </Polygon>
      <Polygon>
        <altitudeMode>clampToGround</altitudeMode>
        <extrude>1</extrude>
        <tessellate>1</tessellate>
        <outerBoundaryIs>
          <LinearRing>
            <coordinates>
              5.4754493,46.3500471
              5.4754183,46.3500352
              5.4754160,46.3500311
              5.4754491,46.3500410
              5.4754493,46.3500471
            </coordinates>
          </LinearRing>
        </outerBoundaryIs>
      </Polygon>
      <Polygon>
        <altitudeMode>clampToGround</altitudeMode>
        <extrude>1</extrude>
        <tessellate>1</tessellate>
        <outerBoundaryIs>
          <LinearRing>
            <coordinates>
              5.4754183,46.3500352
              5.4754079,46.3500588
              5.4754020,46.3500538
              5.4754160,46.3500311
              5.4754183,46.3500352
            </coordinates>
          </LinearRing>
        </outerBoundaryIs>
      </Polygon>
      <Polygon>
        <altitudeMode>clampToGround</altitudeMode>
        <extrude>1</extrude>
        <tessellate>1</tessellate>
        <outerBoundaryIs>
          <LinearRing>
            <coordinates>
              5.4754079,46.3500588
              5.4753813,46.3500592
              5.4753841,46.3500576
              5.4754020,46.3500538
              5.4754079,46.3500588
            </coordinates>
          </LinearRing>
        </outerBoundaryIs>
      </Polygon>
      <Polygon>
        <altitudeMode>clampToGround</altitudeMode>
        <extrude>1</extrude>
        <tessellate>1</tessellate>
        <outerBoundaryIs>
          <LinearRing>
            <coordinates>
              5.4753813,46.3500592
              5.4753787,46.3500469
              5.4753877,46.3500426
              5.4753841,46.3500576
              5.4753813,46.3500592
            </coordinates>
          </LinearRing>
        </outerBoundaryIs>
      </Polygon>
      <Polygon>
        <altitudeMode>clampToGround</altitudeMode>
        <extrude>1</extrude>
        <tessellate>1</tessellate>
        <outerBoundaryIs>
          <LinearRing>
            <coordinates>
              5.4753787,46.3500469
              5.4753344,46.3500407
              5.4753344,46.3500342
              5.4753877,46.3500426
              5.4753787,46.3500469
            </coordinates>
          </LinearRing>
        </outerBoundaryIs>
      </Polygon>
      <Polygon>
        <altitudeMode>clampToGround</altitudeMode>
        <extrude>1</extrude>
        <tessellate>1</tessellate>
        <outerBoundaryIs>
          <LinearRing>
            <coordinates>
              5.4753344,46.3500407
              5.4752810,46.3500445
              5.4752880,46.3500347
              5.4753344,46.3500342
              5.4753344,46.3500407
            </coordinates>
          </LinearRing>
        </outerBoundaryIs>
      </Polygon>
      <Polygon>
        <altitudeMode>clampToGround</altitudeMode>
        <extrude>1</extrude>
        <tessellate>1</tessellate>
        <outerBoundaryIs>
          <LinearRing>
            <coordinates>
              5.4752810,46.3500445
              5.4752651,46.3500283
              5.4752705,46.3500242
              5.4752880,46.3500347
              5.4752810,46.3500445
            </coordinates>
          </LinearRing>
        </outerBoundaryIs>
      </Polygon>
      <Polygon>
        <altitudeMode>clampToGround</altitudeMode>
        <extrude>1</extrude>
        <tessellate>1</tessellate>
        <outerBoundaryIs>
          <LinearRing>
            <coordinates>
              5.4752651,46.3500283
              5.4752471,46.3500219
              5.4752565,46.3500175
              5.4752705,46.3500242
              5.4752651,46.3500283
            </coordinates>
          </LinearRing>
        </outerBoundaryIs>
      </Polygon>
      <Polygon>
        <altitudeMode>clampToGround</altitudeMode>
        <extrude>1</extrude>
        <tessellate>1</tessellate>
        <outerBoundaryIs>
          <LinearRing>
            <coordinates>
              5.4752471,46.3500219
              5.4752470,46.3499962
              5.4752527,46.3499941
              5.4752565,46.3500175
              5.4752471,46.3500219
            </coordinates>
          </LinearRing>
        </outerBoundaryIs>
      </Polygon>
      <Polygon>
        <altitudeMode>clampToGround</altitudeMode>
        <extrude>1</extrude>
        <tessellate>1</tessellate>
        <outerBoundaryIs>
          <LinearRing>
            <coordinates>
              5.4752470,46.3499962
              5.4752280,46.3499881
              5.4752264,46.3499836
              5.4752527,46.3499941
              5.4752470,46.3499962
            </coordinates>
          </LinearRing>
        </outerBoundaryIs>
      </Polygon>
      <Polygon>
        <altitudeMode>clampToGround</altitudeMode>
        <extrude>1</extrude>
        <tessellate>1</tessellate>
        <outerBoundaryIs>
          <LinearRing>
            <coordinates>
              5.4752280,46.3499881
              5.4752151,46.3499998
              5.4752091,46.3499951
              5.4752264,46.3499836
              5.4752280,46.3499881
            </coordinates>
          </LinearRing>
        </outerBoundaryIs>
      </Polygon>
      <Polygon>
        <altitudeMode>clampToGround</altitudeMode>
        <extrude>1</extrude>
        <tessellate>1</tessellate>
        <outerBoundaryIs>
          <LinearRing>
            <coordinates>
              5.4752151,46.3499998
              5.4751986,46.3500052
              5.4751950,46.3500042
              5.4752091,46.3499951
              5.4752151,46.3499998
            </coordinates>
          </LinearRing>
        </outerBoundaryIs>
      </Polygon>
      <Polygon>
        <altitudeMode>clampToGround</altitudeMode>
        <extrude>1</extrude>
        <tessellate>1</tessellate>
        <outerBoundaryIs>
          <LinearRing>
            <coordinates>
              5.4751986,46.3500052
              5.4752171,46.3500324
              5.4752050,46.3500346
              5.4751950,46.3500042
              5.4751986,46.3500052
            </coordinates>
          </LinearRing>
        </outerBoundaryIs>
      </Polygon>
      <Polygon>
        <altitudeMode>clampToGround</altitudeMode>
        <extrude>1</extrude>
        <tessellate>1</tessellate>
        <outerBoundaryIs>
          <LinearRing>
            <coordinates>
              5.4752171,46.3500324
              5.4752157,46.3500370
              5.4752145,46.3500405
              5.4752050,46.3500346
              5.4752171,46.3500324
            </coordinates>
          </LinearRing>
        </outerBoundaryIs>
      </Polygon>
      <Polygon>
        <altitudeMode>clampToGround</altitudeMode>
        <extrude>1</extrude>
        <tessellate>1</tessellate>
        <outerBoundaryIs>
          <LinearRing>
            <coordinates>
              5.4752157,46.3500370
              5.4752313,46.3500073
              5.4752438,46.3500130
              5.4752145,46.3500405
              5.4752157,46.3500370
            </coordinates>
          </LinearRing>
        </outerBoundaryIs>
      </Polygon>
      <Polygon>
        <altitudeMode>clampToGround</altitudeMode>
        <extrude>1</extrude>
        <tessellate>1</tessellate>
        <outerBoundaryIs>
          <LinearRing>
            <coordinates>
              5.4752171,46.3500324
              5.4752093,46.3500482
              5.4752014,46.3500464
              5.4752050,46.3500346
              5.4752171,46.3500324
            </coordinates>
          </LinearRing>
        </outerBoundaryIs>
      </Polygon>
      <Polygon>
        <altitudeMode>clampToGround</altitudeMode>
        <extrude>1</extrude>
        <tessellate>1</tessellate>
        <outerBoundaryIs>
          <LinearRing>
            <coordinates>
              5.4752093,46.3500482
              5.4752023,46.3500598
              5.4751966,46.3500556
              5.4752014,46.3500464
              5.4752093,46.3500482
            </coordinates>
          </LinearRing>
        </outerBoundaryIs>
      </Polygon>
      <Polygon>
        <altitudeMode>clampToGround</altitudeMode>
        <extrude>1</extrude>
        <tessellate>1</tessellate>
        <outerBoundaryIs>
          <LinearRing>
            <coordinates>
              5.4752023,46.3500598
              5.4751878,46.3500674
              5.4751860,46.3500547
              5.4751966,46.3500556
              5.4752023,46.3500598
            </coordinates>
          </LinearRing>
        </outerBoundaryIs>
      </Polygon>
      <Polygon>
        <altitudeMode>clampToGround</altitudeMode>
        <extrude>1</extrude>
        <tessellate>1</tessellate>
        <outerBoundaryIs>
          <LinearRing>
            <coordinates>
              5.4751878,46.3500674
              5.4751425,46.3500633
              5.4751512,46.3500592
              5.4751860,46.3500547
              5.4751878,46.3500674
            </coordinates>
          </LinearRing>
        </outerBoundaryIs>
      </Polygon>
      <Polygon>
        <altitudeMode>clampToGround</altitudeMode>
        <extrude>1</extrude>
        <tessellate>1</tessellate>
        <outerBoundaryIs>
          <LinearRing>
            <coordinates>
              5.4751425,46.3500633
              5.4751617,46.3500349
              5.4751644,46.3500405
              5.4751512,46.3500592
              5.4751425,46.3500633
            </coordinates>
          </LinearRing>
        </outerBoundaryIs>
      </Polygon>
      <Polygon>
        <altitudeMode>clampToGround</altitudeMode>
        <extrude>1</extrude>
        <tessellate>1</tessellate>
        <outerBoundaryIs>
          <LinearRing>
            <coordinates>
              5.4751617,46.3500349
              5.4751709,46.3500376
              5.4751729,46.3500407
              5.4751644,46.3500405
              5.4751617,46.3500349
            </coordinates>
          </LinearRing>
        </outerBoundaryIs>
      </Polygon>
      <Polygon>
        <altitudeMode>clampToGround</altitudeMode>
        <extrude>1</extrude>
        <tessellate>1</tessellate>
        <outerBoundaryIs>
          <LinearRing>
            <coordinates>
              5.4751709,46.3500376
              5.4751670,46.3500341
              5.4751768,46.3500293
              5.4751729,46.3500407
              5.4751709,46.3500376
            </coordinates>
          </LinearRing>
        </outerBoundaryIs>
      </Polygon>
      <Polygon>
        <altitudeMode>clampToGround</altitudeMode>
        <extrude>1</extrude>
        <tessellate>1</tessellate>
        <outerBoundaryIs>
          <LinearRing>
            <coordinates>
              5.4751670,46.3500341
              5.4751335,46.3500285
              5.4751361,46.3500221
              5.4751768,46.3500293
              5.4751670,46.3500341
            </coordinates>
          </LinearRing>
        </outerBoundaryIs>
      </Polygon>
      <Polygon>
        <altitudeMode>clampToGround</altitudeMode>
        <extrude>1</extrude>
        <tessellate>1</tessellate>
        <outerBoundaryIs>
          <LinearRing>
            <coordinates>
              5.4751335,46.3500285
              5.4751166,46.3500241
              5.4751143,46.3500196
              5.4751361,46.3500221
              5.4751335,46.3500285
            </coordinates>
          </LinearRing>
        </outerBoundaryIs>
      </Polygon>
      <Polygon>
        <altitudeMode>clampToGround</altitudeMode>
        <extrude>1</extrude>
        <tessellate>1</tessellate>
        <outerBoundaryIs>
          <LinearRing>
            <coordinates>
              5.4751166,46.3500241
              5.4750963,46.3500465
              5.4750949,46.3500413
              5.4751143,46.3500196
              5.4751166,46.3500241
            </coordinates>
          </LinearRing>
        </outerBoundaryIs>
      </Polygon>
      <Polygon>
        <altitudeMode>clampToGround</altitudeMode>
        <extrude>1</extrude>
        <tessellate>1</tessellate>
        <outerBoundaryIs>
          <LinearRing>
            <coordinates>
              5.4750963,46.3500465
              5.4750617,46.3500266
              5.4750675,46.3500204
              5.4750949,46.3500413
              5.4750963,46.3500465
            </coordinates>
          </LinearRing>
        </outerBoundaryIs>
      </Polygon>
      <Polygon>
        <altitudeMode>clampToGround</altitudeMode>
        <extrude>1</extrude>
        <tessellate>1</tessellate>
        <outerBoundaryIs>
          <LinearRing>
            <coordinates>
              5.4750617,46.3500266
              5.4750370,46.3500208
              5.4750335,46.3500154
              5.4750675,46.3500204
              5.4750617,46.3500266
            </coordinates>
          </LinearRing>
        </outerBoundaryIs>
      </Polygon>
      <Polygon>
        <altitudeMode>clampToGround</altitudeMode>
        <extrude>1</extrude>
        <tessellate>1</tessellate>
        <outerBoundaryIs>
          <LinearRing>
            <coordinates>
              5.4750370,46.3500208
              5.4750239,46.3500512
              5.4750034,46.3500491
              5.4750335,46.3500154
              5.4750370,46.3500208
            </coordinates>
          </LinearRing>
        </outerBoundaryIs>
      </Polygon>
      <Polygon>
        <altitudeMode>clampToGround</altitudeMode>
        <extrude>1</extrude>
        <tessellate>1</tessellate>
        <outerBoundaryIs>
          <LinearRing>
            <coordinates>
              5.4750239,46.3500512
              5.4750247,46.3501354
              5.4750190,46.3501356
              5.4750034,46.3500491
              5.4750239,46.3500512
            </coordinates>
          </LinearRing>
        </outerBoundaryIs>
      </Polygon>
      <Polygon>
        <altitudeMode>clampToGround</altitudeMode>
        <extrude>1</extrude>
        <tessellate>1</tessellate>
        <outerBoundaryIs>
          <LinearRing>
            <coordinates>
              5.4750034,46.3500491
              5.4750155,46.3500347
              5.4750181,46.3500339
              5.4750239,46.3500512
              5.4750034,46.3500491
            </coordinates>
          </LinearRing>
        </outerBoundaryIs>
      </Polygon>
      <Polygon>
        <altitudeMode>clampToGround</altitudeMode>
        <extrude>1</extrude>
        <tessellate>1</tessellate>
        <outerBoundaryIs>
          <LinearRing>
            <coordinates>
              5.4750155,46.3500347
              5.4749908,46.3500191
              5.4749948,46.3500162
              5.4750181,46.3500339
              5.4750155,46.3500347
            </coordinates>
          </LinearRing>
        </outerBoundaryIs>
      </Polygon>
    </MultiGeometry>
  </Placemark>
</Document>
</kml>
