<?xml version="1.0" encoding="UTF-8"?>
<kml xmlns="http://earth.google.com/kml/2.1">
<Document>
  <name>Grotte_des_Pestiférés 2022 02 24</name>
  <open>0</open>
  <Style id = "VTStyle01">
    <PolyStyle>
      <color>ff0000ff</color>
    </PolyStyle>
    <LineStyle>
      <width>1</width>
      <color>ff0000ff</color>
    </LineStyle>
  </Style>
  <Placemark>
    <name></name>
    <styleUrl>#VTStyle01</styleUrl>
    <MultiGeometry>
      <Polygon>
        <altitudeMode>clampToGround</altitudeMode>
        <extrude>1</extrude>
        <tessellate>1</tessellate>
        <outerBoundaryIs>
          <LinearRing>
            <coordinates>
              5.5370826,46.3517755
              5.5370455,46.3517919
              5.5370455,46.3517919
              5.5370683,46.3517661
              5.5370826,46.3517755
            </coordinates>
          </LinearRing>
        </outerBoundaryIs>
      </Polygon>
      <Polygon>
        <altitudeMode>clampToGround</altitudeMode>
        <extrude>1</extrude>
        <tessellate>1</tessellate>
        <outerBoundaryIs>
          <LinearRing>
            <coordinates>
              5.5370455,46.3517919
              5.5370000,46.3518257
              5.5369879,46.3518124
              5.5370455,46.3517919
              5.5370455,46.3517919
            </coordinates>
          </LinearRing>
        </outerBoundaryIs>
      </Polygon>
      <Polygon>
        <altitudeMode>clampToGround</altitudeMode>
        <extrude>1</extrude>
        <tessellate>1</tessellate>
        <outerBoundaryIs>
          <LinearRing>
            <coordinates>
              5.5370000,46.3518257
              5.5369762,46.3518401
              5.5369611,46.3518328
              5.5369879,46.3518124
              5.5370000,46.3518257
            </coordinates>
          </LinearRing>
        </outerBoundaryIs>
      </Polygon>
      <Polygon>
        <altitudeMode>clampToGround</altitudeMode>
        <extrude>1</extrude>
        <tessellate>1</tessellate>
        <outerBoundaryIs>
          <LinearRing>
            <coordinates>
              5.5369762,46.3518401
              5.5369661,46.3518842
              5.5369588,46.3518833
              5.5369611,46.3518328
              5.5369762,46.3518401
            </coordinates>
          </LinearRing>
        </outerBoundaryIs>
      </Polygon>
      <Polygon>
        <altitudeMode>clampToGround</altitudeMode>
        <extrude>1</extrude>
        <tessellate>1</tessellate>
        <outerBoundaryIs>
          <LinearRing>
            <coordinates>
              5.5369661,46.3518842
              5.5369279,46.3519672
              5.5369133,46.3519638
              5.5369588,46.3518833
              5.5369661,46.3518842
            </coordinates>
          </LinearRing>
        </outerBoundaryIs>
      </Polygon>
      <Polygon>
        <altitudeMode>clampToGround</altitudeMode>
        <extrude>1</extrude>
        <tessellate>1</tessellate>
        <outerBoundaryIs>
          <LinearRing>
            <coordinates>
              5.5369279,46.3519672
              5.5369175,46.3519818
              5.5369042,46.3519792
              5.5369133,46.3519638
              5.5369279,46.3519672
            </coordinates>
          </LinearRing>
        </outerBoundaryIs>
      </Polygon>
      <Polygon>
        <altitudeMode>clampToGround</altitudeMode>
        <extrude>1</extrude>
        <tessellate>1</tessellate>
        <outerBoundaryIs>
          <LinearRing>
            <coordinates>
              5.5369175,46.3519818
              5.5369173,46.3519977
              5.5369004,46.3519945
              5.5369042,46.3519792
              5.5369175,46.3519818
            </coordinates>
          </LinearRing>
        </outerBoundaryIs>
      </Polygon>
    </MultiGeometry>
  </Placemark>
</Document>
</kml>
